[{"type":"node","id":312152694,"tags":{"amenity":"restaurant","created_by":"Potlatch 0.10f","cuisine":"pizza"},"relations":[],"meta":{},"wkt":"Point(9.1886376 39.3067721)"},{"type":"way","id":119663648,"tags":{"amenity":"cafe","building":"yes","cuisine":"italian"},"relations":[],"meta":{},"wkt":"Polygon( 9.0125855 38.9897978, 9.0126299 38.9897897, 9.0126102 38.9897247, 9.0126634 38.9897149, 9.012684 38.9897827, 9.0127293 38.9897744, 9.0128082 38.9900344, 9.0126652 38.9900606, 9.0126269 38.9899566, 9.0125855 38.9897978)"},{"type":"way","id":128049122,"tags":{"addr:housename":"Quadrifoglio Restaurant","addr:housenumber":"10","addr:postcode":"09100","addr:street":"Via Giuseppe Peretti","amenity":"restaurant","cuisine":"italian;regional","name":"Quadrifoglio Restaurant","phone":"+39 070 541719","website":"http://www.hotelquadrifoglio.net/index.php?option=com_content&task=view&id=16&Itemid=43&lang=it","wheelchair":"yes"},"relations":[],"meta":{},"wkt":"Polygon( 9.1039215 39.2515926, 9.1039017 39.2514327, 9.1040051 39.2514251, 9.1040031 39.2514086, 9.1041544 39.2513973, 9.1041504 39.251365, 9.1044706 39.2513412, 9.1044792 39.2514105, 9.1044358 39.2514137, 9.1044442 39.251482, 9.1043786 39.2514868, 9.1043859 39.2515459, 9.1041902 39.2515605, 9.1041935 39.2515868, 9.1040286 39.251599, 9.1040268 39.2515848, 9.1039215 39.2515926)"},{"type":"way","id":245782536,"tags":{"amenity":"restaurant","cuisine":"regional","name":"Su Passu"},"relations":[],"meta":{},"wkt":"Polygon( 9.36539 39.3001547, 9.365094 39.3001989, 9.3650727 39.3001134, 9.3653687 39.3000692, 9.36539 39.3001547)"},{"type":"way","id":277188121,"tags":{"addr:city":"Casteddu/Cagliari","addr:street":"Viale Poetto","amenity":"cafe","building":"yes","cuisine":"italian","name":"Oasi cafè","wheelchair":"yes"},"relations":[],"meta":{},"wkt":"Polygon( 9.1635418 39.2037799, 9.1634018 39.2038405, 9.1633171 39.2037294, 9.1634572 39.2036764, 9.1634962 39.2037294, 9.1635418 39.2037799)"},{"type":"way","id":277188513,"tags":{"addr:city":"Casteddu/Cagliari","addr:street":"Viale Poetto","amenity":"restaurant","building":"yes","cuisine":"italian","name":"emerson","toilets:wheelchair":"no","wheelchair":"yes"},"relations":[],"meta":{},"wkt":"Polygon( 9.1638418 39.2039644, 9.1640433 39.2042335, 9.1638064 39.2043419, 9.1636024 39.2040718, 9.1638418 39.2039644)"},{"type":"way","id":277194897,"tags":{"addr:housenumber":"147","addr:street":"Viale Elmas","amenity":"cafe","building":"yes","cuisine":"italian","name":"Dream","wheelchair":"yes"},"relations":[],"meta":{},"wkt":"Polygon( 9.0877288 39.246968, 9.0877307 39.2469509, 9.0877394 39.2469493, 9.0877507 39.2468216, 9.0877446 39.2468216, 9.087753 39.2467286, 9.0878254 39.2467314, 9.0878004 39.2469715, 9.0877288 39.246968)"},{"type":"way","id":281459888,"tags":{"amenity":"restaurant","building":"yes","contact:facebook":"https://www.facebook.com/-Malloci-Pizzeria-Bar-Grill-109411875885165/","contact:phone":"+39 070 942509","cuisine":"barbecue;pizza","name":"Pizzeria Grill Malloci","opening_hours":"Mo-Fr 12:00-15:00,18:00-24:00; Th 12:00-24:00; Sa,Su 18:00-24:00","restaurant:type:it":"pizzeria"},"relations":[],"meta":{},"wkt":"Polygon( 9.0108865 39.2842073, 9.0108941 39.2842165, 9.0107201 39.284306, 9.0106363 39.2842048, 9.0108072 39.2841175, 9.0108312 39.2841415, 9.0108784 39.2841159, 9.0108915 39.2841328, 9.0109139 39.2841208, 9.0109149 39.284096, 9.0110304 39.2841168, 9.0110198 39.2841544, 9.0110382 39.2841613, 9.0110586 39.2841881, 9.0110301 39.2842037, 9.0110164 39.2842009, 9.0109708 39.284222, 9.0109362 39.2841859, 9.0108865 39.2842073)"},{"type":"way","id":281463634,"tags":{"amenity":"restaurant","building":"yes","contact:phone":"+39 070 946444","cuisine":"italian","name":"Ristorante Kiwi","opening_hours":"Tu-Su 12:00-15:00,20:00-23:00"},"relations":[],"meta":{},"wkt":"Polygon( 8.9792058 39.3010292, 8.9790253 39.3011484, 8.9789692 39.3010976, 8.978895 39.3010303, 8.9789488 39.3009947, 8.9789529 39.3009984, 8.9790796 39.3009147, 8.9792058 39.3010292)"},{"type":"way","id":295299352,"tags":{"amenity":"restaurant","building":"yes","contact:email":"casa.cortina@tiscali.it","contact:phone":"+39 070 961461;+39 338 631 7253","contact:website":"https://www.ristorantecasacortina.com","cuisine":"italian","name":"Casa Cortina","opening_hours":"Tu-Sa 17:30-22:30; Su 12:30-15:00"},"relations":[],"meta":{},"wkt":"Polygon( 8.9555129 39.3141366, 8.955055 39.3144251, 8.9550172 39.3143777, 8.9550761 39.3143484, 8.9550068 39.3143077, 8.9550177 39.3143009, 8.9549267 39.3142576, 8.9549503 39.314142, 8.9551008 39.3142152, 8.9552806 39.3141062, 8.9553411 39.3141646, 8.9554631 39.3140917, 8.9555129 39.3141366)"},{"type":"way","id":295594799,"tags":{"amenity":"restaurant","building":"yes","cuisine":"italian","name":"Su Stentu","wheelchair":"yes"},"relations":[],"meta":{},"wkt":"Polygon( 9.1000813 39.2962506, 9.1000377 39.2962716, 9.1001689 39.2964371, 9.1001407 39.29645, 9.10021 39.2965287, 9.099888 39.296697, 9.0999324 39.2967482, 9.0996712 39.2968752, 9.0996898 39.2968989, 9.0996272 39.2969318, 9.0996535 39.2969641, 9.0996146 39.2969834, 9.0994153 39.2967772, 9.099528 39.2967114, 9.099477 39.2966503, 9.0995574 39.2966114, 9.0994783 39.2965149, 9.0999903 39.2962615, 9.0999695 39.296236, 9.099923 39.2962541, 9.099889 39.296204, 9.0998343 39.2962299, 9.0997847 39.2961623, 9.0998691 39.2961235, 9.0998168 39.2960506, 9.0999037 39.2960132, 9.1000005 39.2961366, 9.1001173 39.2960844, 9.1001544 39.2961346, 9.1000348 39.296197, 9.1000813 39.2962506)"},{"type":"way","id":296381775,"tags":{"amenity":"restaurant","building":"yes","cuisine":"pizza"},"relations":[],"meta":{},"wkt":"Polygon( 8.9846154 38.9850778, 8.9846431 38.985277, 8.9845934 38.9852797, 8.9846003 38.9853355, 8.984404 38.9853499, 8.9843602 38.9851859, 8.9842852 38.9850778, 8.9846154 38.9850778)"},{"type":"way","id":296398497,"tags":{"amenity":"restaurant","building":"yes","cuisine":"regional","name":"Agriturismo Sa Figumorisca"},"relations":[],"meta":{},"wkt":"Polygon( 8.9739861 39.0421237, 8.9740603 39.0419966, 8.9740759 39.0420021, 8.9741316 39.0419067, 8.9742538 39.0419498, 8.9741256 39.0421695, 8.9741589 39.0421812, 8.9741214 39.0422455, 8.9739875 39.0421983, 8.9740234 39.0421368, 8.9739861 39.0421237)"},{"type":"way","id":328182682,"tags":{"amenity":"restaurant","building":"yes","cuisine":"regional","name":"Pizzeria Ristorante Il Sagittario","phone":"+39 070 786392"},"relations":[],"meta":{},"wkt":"Polygon( 9.402407 39.1519456, 9.4023883 39.1517537, 9.4025238 39.151732, 9.4025915 39.1519112, 9.402407 39.1519456)"},{"type":"way","id":328186331,"tags":{"amenity":"cafe","building":"yes","cuisine":"sandwich"},"relations":[],"meta":{},"wkt":"Polygon( 9.4049949 39.1448823, 9.4049898 39.1448256, 9.4051615 39.144813, 9.4051646 39.1448689, 9.4049949 39.1448823)"},{"type":"way","id":328186332,"tags":{"amenity":"cafe","building":"yes","cuisine":"sandwich"},"relations":[],"meta":{},"wkt":"Polygon( 9.4055955 39.1448886, 9.4055437 39.1448327, 9.4055793 39.1448177, 9.405622 39.1448705, 9.4055955 39.1448886)"},{"type":"way","id":495920806,"tags":{"addr:street":"Strada Monte Cresia","amenity":"restaurant","building":"yes","cuisine":"regional;italian","name":"Agroturismo Monte Cresia"},"relations":[],"meta":{},"wkt":"Polygon( 9.3950365 39.2718071, 9.394998 39.2717864, 9.3950155 39.271761, 9.3950692 39.2716915, 9.3952168 39.2717739, 9.3952374 39.2717493, 9.3952981 39.27178, 9.3952537 39.2718234, 9.395179 39.2718867, 9.3951253 39.2718559, 9.3950365 39.2718071)"},{"type":"node","id":1482298620,"tags":{"amenity":"cafe","cuisine":"italian","name":"Bar Aurora","wheelchair":"limited"},"relations":[],"meta":{},"wkt":"Point(9.1130475 39.2181611)"},{"type":"node","id":1523445782,"tags":{"amenity":"cafe","cuisine":"ice_cream","name":"Il Colle"},"relations":[],"meta":{},"wkt":"Point(9.1071239 39.2510774)"},{"type":"node","id":1602612760,"tags":{"amenity":"fast_food","cuisine":"burger","name":"McDonald's","toilets:wheelchair":"yes","wheelchair":"yes"},"relations":[],"meta":{},"wkt":"Point(9.0919576 39.2315417)"},{"type":"node","id":1679704771,"tags":{"amenity":"fast_food","cuisine":"kebab","name":"Kebab"},"relations":[],"meta":{},"wkt":"Point(8.9546134 39.2909816)"},{"type":"node","id":1714661797,"tags":{"addr:housenumber":"78","addr:street":"Via Sardegna","amenity":"restaurant","cuisine":"regional","email":"lillicu@live.it","name":"Trattoria Lillicu","phone":"+39 070 652970","website":"www.lillicu.com"},"relations":[],"meta":{},"wkt":"Point(9.1137841 39.2139565)"},{"type":"node","id":1921706172,"tags":{"addr:housenumber":"320","addr:postcode":"09123","addr:street":"Corso Vittorio Emanuele II","amenity":"fast_food","cuisine":"pizza","name":"Pizzeria Federico Nansen"},"relations":[],"meta":{},"wkt":"Point(9.1083587 39.2198339)"},{"type":"node","id":1941578537,"tags":{"amenity":"cafe","cuisine":"italian","name":"Chaplin Cafe","wheelchair":"yes","wifi":"no"},"relations":[],"meta":{},"wkt":"Point(9.1918712 39.2454605)"},{"type":"node","id":1996894860,"tags":{"addr:city":"Cagliari","addr:housenumber":"132","addr:postcode":"09126","addr:street":"Via della Pineta","amenity":"cafe","cuisine":"italian","name":"Caffè Parioli","wheelchair":"yes"},"relations":[],"meta":{},"wkt":"Point(9.1344307 39.2074222)"},{"type":"node","id":1996946746,"tags":{"amenity":"restaurant","cuisine":"italian","name":"Pepe Rosa"},"relations":[],"meta":{},"wkt":"Point(9.1331669 39.208505)"},{"type":"node","id":1996965750,"tags":{"amenity":"restaurant","cuisine":"pizza","name":"Pizzeria \"Chiaro di luna\""},"relations":[],"meta":{},"wkt":"Point(9.1283922 39.2322616)"},{"type":"node","id":1996967388,"tags":{"amenity":"restaurant","cuisine":"ice_cream","name":"Gelateria \"Ice Mu\""},"relations":[],"meta":{},"wkt":"Point(9.1363423 39.2082071)"},{"type":"node","id":2001262206,"tags":{"amenity":"restaurant","cuisine":"pizza","name":"La Fattoria"},"relations":[],"meta":{},"wkt":"Point(9.1412917 39.2157781)"},{"type":"node","id":2001262483,"tags":{"amenity":"restaurant","cuisine":"steak_house","name":"Buffalo ranch"},"relations":[],"meta":{},"wkt":"Point(9.1413883 39.215404)"},{"type":"node","id":2001262808,"tags":{"amenity":"restaurant","cuisine":"pizza","name":"Il bambù"},"relations":[],"meta":{},"wkt":"Point(9.1362552 39.2213594)"},{"type":"node","id":2001269619,"tags":{"amenity":"restaurant","cuisine":"seafood","name":"Vendita ricci di mare"},"relations":[],"meta":{},"wkt":"Point(9.1238264 39.2064632)"},{"type":"node","id":2001271488,"tags":{"amenity":"restaurant","cuisine":"pizza","name":"Pizzeria RariNantes"},"relations":[],"meta":{},"wkt":"Point(9.1250495 39.2050478)"},{"type":"node","id":2002901576,"tags":{"amenity":"restaurant","cuisine":"ice_cream","name":"Bobocono"},"relations":[],"meta":{},"wkt":"Point(9.1195539 39.2158976)"},{"type":"node","id":2002906737,"tags":{"amenity":"restaurant","cuisine":"italian","name":"Il Ghiottone"},"relations":[],"meta":{},"wkt":"Point(9.0731183 39.282036)"},{"type":"node","id":2338536579,"tags":{"amenity":"restaurant","cuisine":"regional","internet_access":"wlan","name":"Manàmanà","phone":"+39 070 651759","toilets:wheelchair":"no","wheelchair":"no"},"relations":[],"meta":{},"wkt":"Point(9.1137395 39.2158548)"},{"type":"node","id":2433601604,"tags":{"addr:city":"Cagliari","addr:housenumber":"13","addr:postcode":"09128","addr:street":"Via Pasquale Paoli","amenity":"restaurant","cuisine":"italian","name":"Bliss"},"relations":[],"meta":{},"wkt":"Point(9.1226777 39.2196064)"},{"type":"node","id":2444677125,"tags":{"amenity":"restaurant","cuisine":"pizza","microbrewery":"no","name":"Home Pizza","opening_hours":"24/7"},"relations":[],"meta":{},"wkt":"Point(9.1128879 39.2209146)"},{"type":"node","id":2455161204,"tags":{"addr:city":"Cagliari","addr:housenumber":"10","addr:street":"Via Santa Margherita","amenity":"restaurant","cuisine":"kebab","name":"La Kasbah"},"relations":[],"meta":{},"wkt":"Point(9.1135289 39.2185383)"},{"type":"node","id":2461801781,"tags":{"addr:housenumber":"98","addr:street":"Via Domenico Alberto Azuni","amenity":"restaurant","cuisine":"burger","name":"Retro Burger","opening_hours":"Mo-Su 20:00-01:00","phone":"+39 388 8506085","wheelchair":"limited"},"relations":[],"meta":{},"wkt":"Point(9.1119895 39.2185282)"},{"type":"node","id":2468562412,"tags":{"addr:city":"Cagliari","addr:housename":"Via Portoscalas","addr:housenumber":"69","addr:postcode":"09123","addr:street":"Via Portoscalas","amenity":"pub","cuisine":"sandwich","name":"Birroteca Al Merlo Parlante","toilets:wheelchair":"no","wheelchair":"no"},"relations":[],"meta":{},"wkt":"Point(9.1104594 39.2186071)"},{"type":"node","id":2468570745,"tags":{"addr:city":"Cagliari","addr:housenumber":"44","addr:street":"Corso Vittorio Emanuele II","amenity":"restaurant","cuisine":"Irish_Pub","name":"Old Square","wheelchair":"yes"},"relations":[],"meta":{},"wkt":"Point(9.1120395 39.2176852)"},{"type":"node","id":2503803711,"tags":{"addr:city":"Cagliari","addr:housenumber":"25","addr:street":"Via Giovanni Maria Angioy","amenity":"restaurant","cuisine":"indian","name":"Tandoori","phone":"+39 070 3110221","toilets:wheelchair":"no","website":"http://www.tandooricagliari.it/","wheelchair":"no"},"relations":[],"meta":{},"wkt":"Point(9.1112105 39.2161217)"},{"type":"node","id":2503805885,"tags":{"addr:city":"Cagliari","addr:housenumber":"10,12","addr:postcode":"09124","addr:street":"Vico Carlo Felice","amenity":"restaurant","cuisine":"italian","email":"info@enorestaurant.it","internet_access":"wlan","internet_access:fee":"no","name":"Ristorante Vineria Enò","opening_hours":"07:00 - 01:00","payment:bitcoin":"yes","phone":"+39 0706848243","website":"http://www.enorestaurant.it"},"relations":[],"meta":{},"wkt":"Point(9.1115068 39.2163311)"},{"type":"node","id":2508491611,"tags":{"addr:city":"Cagliari","addr:housenumber":"59","addr:street":"Via Sassari","amenity":"restaurant","cuisine":"regional,_pizza","name":"Lo Zodiaco","phone":"+39 070 670333","website":"http://www.ristorantepizzerialozodiaco.com","wheelchair":"no","wheelchair:description":"Impossibile entrare,gradini da ogni parte,persino per arrivare nella sala esterna."},"relations":[],"meta":{},"wkt":"Point(9.1107885 39.2170584)"},{"type":"node","id":2511555786,"tags":{"addr:city":"Cagliari","addr:housenumber":"136","addr:street":"Via Sassari","amenity":"restaurant","cuisine":"regional_sardinian","name":"MeC Puddu's","website":"http://www.mecpuddus.it/"},"relations":[],"meta":{},"wkt":"Point(9.1112724 39.2177587)"},{"type":"node","id":2512687184,"tags":{"addr:city":"Cagliari","addr:housenumber":"41","addr:street":"Via Goffredo Mameli","amenity":"restaurant","cuisine":"Australian","name":"Wallabys"},"relations":[],"meta":{},"wkt":"Point(9.1106958 39.2176286)"},{"type":"node","id":2519768564,"tags":{"addr:city":"Cagliari","addr:housenumber":"51","addr:street":"Via Sassari","amenity":"restaurant","cuisine":"regional,_traditiona","name":"Sa Domu Sarda","phone":"+39 070 653400"},"relations":[],"meta":{},"wkt":"Point(9.1104459 39.2167443)"},{"type":"node","id":2524181594,"tags":{"addr:city":"Cagliari","addr:housenumber":"86","addr:street":"Via Sassari","amenity":"restaurant","cuisine":"italian","name":"Bataclan","phone":"+39 070 658513"},"relations":[],"meta":{},"wkt":"Point(9.1108808 39.2173643)"},{"type":"node","id":2524303838,"tags":{"addr:city":"Cagliari","addr:housenumber":"66","addr:street":"Via Giovanni Maria Angioy","amenity":"restaurant","cuisine":"kebab","name":"El Manar"},"relations":[],"meta":{},"wkt":"Point(9.1119703 39.2169393)"},{"type":"node","id":2527947576,"tags":{"addr:city":"Cagliari","addr:housenumber":"14","addr:street":"Viale Trieste","amenity":"restaurant","cuisine":"german","name":"Bierkeller","phone":"+39 070 666980"},"relations":[],"meta":{},"wkt":"Point(9.1078174 39.2174819)"},{"type":"node","id":2530449480,"tags":{"addr:city":"Cagliari","addr:housenumber":"11","addr:street":"Via Sassari","amenity":"restaurant","cuisine":"pizza","name":"Rossopomodoro","toilets:wheelchair":"no","wheelchair":"no"},"relations":[],"meta":{},"wkt":"Point(9.1097099 39.2160019)"},{"type":"node","id":2530460871,"tags":{"addr:city":"Cagliari","addr:housenumber":"17","addr:postcode":"09124","addr:street":"Via Francesco Crispi","amenity":"fast_food","cuisine":"burger","name":"Valburger","phone":"+39 070 662794","website":"http://www.valburger.com","wheelchair":"yes"},"relations":[],"meta":{},"wkt":"Point(9.1107928 39.2155313)"},{"type":"node","id":2684458914,"tags":{"amenity":"restaurant","cuisine":"regional","name":"Agriturismo \"Sa Guardia\"","phone":"+39 346 9478 610","website":"http://www.agriturismosaguardia.it/"},"relations":[],"meta":{},"wkt":"Point(9.408558 39.1653884)"},{"type":"node","id":2725363590,"tags":{"addr:city":"Cagliari","addr:street":"Via dei Mille","amenity":"fast_food","cuisine":"italian","name":"La Cantina","wheelchair":"no"},"relations":[],"meta":{},"wkt":"Point(9.113431 39.2137569)"},{"type":"node","id":2726663881,"tags":{"addr:city":"Cagliari","addr:housenumber":"38","addr:street":"Via Napoli","amenity":"restaurant","cuisine":"italian,_pizza","name":"L'Oca Bianca","website":"www.locabiancacagliari.it","wheelchair":"no"},"relations":[],"meta":{},"wkt":"Point(9.1128597 39.2148012)"},{"type":"node","id":2726975489,"tags":{"addr:city":"Cagliari","addr:housenumber":"13","addr:street":"Via Napoli","amenity":"restaurant","cuisine":"regional","name":"Su Cumbidu","website":"www.sucumbidu.info"},"relations":[],"meta":{},"wkt":"Point(9.112415 39.2142738)"},{"type":"node","id":2726986196,"tags":{"addr:city":"Cagliari","addr:street":"Via Napoli","amenity":"fast_food","cuisine":"pizza_take_away"},"relations":[],"meta":{},"wkt":"Point(9.1123467 39.2142242)"},{"type":"node","id":2727000790,"tags":{"addr:city":"Cagliari","addr:street":"Via Vittorio Porcile","amenity":"restaurant","cuisine":"italian","name":"Luigi Pomata Bistrot","website":"www.luigipomata.com"},"relations":[],"meta":{},"wkt":"Point(9.1152047 39.2132159)"},{"type":"node","id":2727014557,"tags":{"addr:city":"Cagliari","addr:housenumber":"140","addr:street":"Via Sardegna","amenity":"restaurant","cuisine":"regional","name":"Ristorante la Stella di Marina di Montecristo"},"relations":[],"meta":{},"wkt":"Point(9.115109 39.2130328)"},{"type":"node","id":2727078092,"tags":{"addr:city":"Cagliari","amenity":"restaurant","cuisine":"regional,_pizza,_italian","name":"Ampurias","wheelchair":"no"},"relations":[],"meta":{},"wkt":"Point(9.1133671 39.2159825)"},{"type":"node","id":2739028654,"tags":{"addr:city":"Cagliari","addr:country":"IT","addr:housenumber":"60","addr:postcode":"09131","addr:street":"Via Baldassarre Castiglione","amenity":"restaurant","cuisine":"pizza,_italian,_bisteccheria","name":"Angolo Giusti"},"relations":[],"meta":{},"wkt":"Point(9.1280083 39.2284978)"},{"type":"node","id":2744525777,"tags":{"amenity":"ice_cream","cuisine":"ice_cream","name":"Stefino","website":"www.stefino.it/"},"relations":[],"meta":{},"wkt":"Point(9.1135013 39.2164514)"},{"type":"node","id":2744533404,"tags":{"addr:city":"Cagliari","addr:street":"Piazza Yenne","amenity":"restaurant","cuisine":"regional,_pizza","name":"Downtown"},"relations":[],"meta":{},"wkt":"Point(9.1139756 39.2178081)"},{"type":"node","id":2814790034,"tags":{"amenity":"restaurant","cuisine":"italian","name":"Pine&Mare"},"relations":[],"meta":{},"wkt":"Point(9.3206671 39.2046499)"},{"type":"node","id":2835924880,"tags":{"addr:city":"Cagliari","addr:housenumber":"8","addr:street":"Via Grazia Deledda","amenity":"restaurant","cuisine":"regional","name":"Piadine & Co","wheelchair":"limited"},"relations":[],"meta":{},"wkt":"Point(9.1208662 39.2158423)"},{"type":"node","id":2849936763,"tags":{"addr:city":"Cagliari","addr:housenumber":"20","addr:street":"Via Zagabria","amenity":"restaurant","cuisine":"pizza","name":"Pizzagabria","phone":"+39 070 3110608"},"relations":[],"meta":{},"wkt":"Point(9.1332023 39.2268064)"},{"type":"node","id":2849970389,"tags":{"addr:city":"Cagliari","addr:housenumber":"210","addr:postcode":"09123","addr:street":"Corso Vittorio Emanuele II","amenity":"restaurant","cuisine":"italian","diet":"vegetarian","name":"Gintilla","phone":"+9 070 680665","website":"www.gintilla.com"},"relations":[],"meta":{},"wkt":"Point(9.1096127 39.2190687)"},{"type":"node","id":2864865938,"tags":{"amenity":"fast_food","cuisine":"kebab","name":"Tasty"},"relations":[],"meta":{},"wkt":"Point(9.1152835 39.213336)"},{"type":"node","id":2904559330,"tags":{"addr:city":"Cagliari","addr:housenumber":"3","addr:postcode":"09124","addr:street":"Vico Vittorio Emanuele II","amenity":"pub","cuisine":"paninoteca_birreria_fai_da_te","name":"Spillaus","opening_hours":"20:00 - 03:00","payment:bitcoin":"yes"},"relations":[],"meta":{},"wkt":"Point(9.1115402 39.2182706)"},{"type":"node","id":2992618941,"tags":{"amenity":"restaurant","cuisine":"italian","name":"Ristorante da Barbara"},"relations":[],"meta":{},"wkt":"Point(9.432541 39.1422905)"},{"type":"node","id":2995797658,"tags":{"amenity":"restaurant","cuisine":"italian,_pizza","name":"Il Veliero"},"relations":[],"meta":{},"wkt":"Point(9.4284254 39.1399974)"},{"type":"node","id":2995797659,"tags":{"amenity":"restaurant","cuisine":"regional,_italian,_pizza","name":"Santa Barbara"},"relations":[],"meta":{},"wkt":"Point(9.4518919 39.1726901)"},{"type":"node","id":3003087353,"tags":{"addr:city":"Cagliari","addr:housenumber":"120","addr:postcode":"09124","addr:street":"Via Sassari","amenity":"restaurant","cuisine":"regional","email":"andreagraziella@yahoo.it","name":"Ristorante Ammentos","phone":"+39 070 651075"},"relations":[],"meta":{},"wkt":"Point(9.1111877 39.2176762)"},{"type":"node","id":3026224484,"tags":{"addr:city":"Cagliari","addr:housenumber":"10","addr:postcode":"09124","addr:street":"Piazza Costituzione","amenity":"restaurant","contact:website":"http://www.anticocaffe1855.it/","cuisine":"regional","name":"Antico Caffe dal 1855","note":"Nice food and wine. And if you east outside you have a view of the Remy bastion.","toilets:wheelchair":"no","wheelchair":"no"},"relations":[],"meta":{},"wkt":"Point(9.1170204 39.2157331)"},{"type":"node","id":3058874025,"tags":{"addr:housenumber":"52","addr:street":"Via Sassari","amenity":"restaurant","capacity":"25","cuisine":"fish","name":"Fifò","phone":"+39 070 665649","website":"www.fifofish.it","wheelchair":"yes"},"relations":[],"meta":{},"wkt":"Point(9.1103141 39.2168018)"},{"type":"node","id":3095429849,"tags":{"amenity":"cafe","cuisine":"pizza"},"relations":[],"meta":{},"wkt":"Point(9.0099158 39.1311877)"},{"type":"node","id":3232234257,"tags":{"addr:city":"Cagliari","addr:housenumber":"47","addr:postcode":"09124","addr:street":"Via Giovanni Maria Angioy","amenity":"restaurant","cuisine":"pizza","email":"info@enorestaurant.it","name":"Pizzeria Pizzenò","opening_hours":"19:30 - 24:00","payment:bitcoin":"yes","phone":"+39 0706848243"},"relations":[],"meta":{},"wkt":"Point(9.1116009 39.2164072)"},{"type":"node","id":3349964893,"tags":{"addr:housenumber":"42","addr:street":"Via del Sagittario","amenity":"restaurant","cuisine":"regional","name":"Pizzeria Ristorante Da Palmira","note":"In estate è aperto tutta la settimana, in inverno meglio chiamare prima.","phone":"+39 070 786241","smoking":"no","takeaway":"yes"},"relations":[],"meta":{},"wkt":"Point(9.40387 39.1468027)"},{"type":"node","id":3362138399,"tags":{"addr:city":"Cagliari","addr:housenumber":"22","addr:postcode":"09127","addr:street":"Via Salvatore Farina","amenity":"restaurant","capacity":"20","cuisine":"italian","name":"Zupposofia","note":"Lunedì (solo a cena) al Sabato","phone":"+39 380 2634150","takeaway":"yes","website":"http://www.zupposofia.it/"},"relations":[],"meta":{},"wkt":"Point(9.1226337 39.2188007)"},{"type":"node","id":3375208271,"tags":{"addr:city":"Cagliari","addr:housenumber":"226","addr:street":"Corso Vittorio Emanuele II","amenity":"restaurant","cuisine":"pizza","name":"Totò e Peppino Pizzeria","phone":"+39 3426370921","takeaway":"yes"},"relations":[],"meta":{},"wkt":"Point(9.1095041 39.219156)"},{"type":"node","id":3375218943,"tags":{"addr:street":"Piazza Yenne","amenity":"cafe","cuisine":"italian","internet_access":"no","name":"Laif","smoking":"outside"},"relations":[],"meta":{},"wkt":"Point(9.1139929 39.2180025)"},{"type":"node","id":3375236371,"tags":{"addr:city":"Cagliari","addr:housenumber":"31","addr:postcode":"09124","addr:street":"Via Domenico Alberto Azuni","amenity":"restaurant","cuisine":"brasilian","delivery":"no","name":"Picanhito","smoking":"outside","takeaway":"no"},"relations":[],"meta":{},"wkt":"Point(9.112452 39.2184375)"},{"type":"node","id":3597348082,"tags":{"amenity":"restaurant","cuisine":"italian","name":"Piazza del Popolo"},"relations":[],"meta":{},"wkt":"Point(9.0015486 39.0127323)"},{"type":"node","id":3671615628,"tags":{"addr:city":"Monserrato","addr:housenumber":"4","addr:postcode":"09042","addr:street":"Via Cesare Cabras","amenity":"restaurant","cuisine":"pizza","name":"Time Out"},"relations":[],"meta":{},"wkt":"Point(9.137006 39.2525297)"},{"type":"node","id":3737194767,"tags":{"addr:city":"Cagliari","addr:housenumber":"84","addr:street":"Viale Trieste","amenity":"restaurant","cuisine":"Steak_house,_burger,_beer_shop","name":"Gattarancio"},"relations":[],"meta":{},"wkt":"Point(9.1036716 39.2199781)"},{"type":"node","id":3746224684,"tags":{"amenity":"bar","cuisine":"sandwich"},"relations":[],"meta":{},"wkt":"Point(8.9363702 38.9349126)"},{"type":"node","id":3780632833,"tags":{"addr:housenumber":"4","addr:postcode":"09032","addr:street":"Via Eleonora D'Arborea","amenity":"pub","cuisine":"burger;sandwich;hotdog;grill;crepe;tea;cake;sausage;coffee_shop;steak_house;pizza;italian_pizza;barbecue","internet_access":"wlan","level":"0","name":"Phoenix Pub","opening_hours":"Tu-Su","phone":"3409638773"},"relations":[],"meta":{},"wkt":"Point(9.0068737 39.2854901)"},{"type":"node","id":3785787442,"tags":{"amenity":"restaurant","cuisine":"pizza","name":"Dulcis Pasticceria"},"relations":[],"meta":{},"wkt":"Point(9.1129311 39.2154674)"},{"type":"node","id":3799048363,"tags":{"cuisine":"fish","name":"Su scabecciu e sa frittura","shop":"deli"},"relations":[],"meta":{},"wkt":"Point(9.1135317 39.2156284)"},{"type":"node","id":3799051799,"tags":{"amenity":"cafe","cuisine":"italian","name":"Originis"},"relations":[],"meta":{},"wkt":"Point(9.1113282 39.2156373)"},{"type":"node","id":3805643379,"tags":{"addr:city":"Cagliari","addr:housenumber":"20","addr:street":"Via Ospedale","amenity":"restaurant","cuisine":"pizza","delivery":"yes","name":"Da Massimo","phone":"+39 070 3111130","takeaway":"yes"},"relations":[],"meta":{},"wkt":"Point(9.1118686 39.2195938)"},{"type":"node","id":3952241998,"tags":{"addr:city":"Cagliari","addr:housenumber":"3","addr:postcode":"09124","addr:street":"Via Università","amenity":"fast_food","contact:facebook":"https://www.facebook.com/Bombas-hamburgeria-sarda-1548937982019107/","cuisine":"burger","delivery":"no","drive_through":"no","level":"-1","name":"Bombas Hamburgheria Sarda","phone":"+39 070 7534511","takeaway":"no","wheelchair":"no"},"relations":[],"meta":{},"wkt":"Point(9.1151287 39.2173436)"},{"type":"node","id":4027722428,"tags":{"amenity":"cafe","cuisine":"dessert","name":"Dulcis"},"relations":[],"meta":{},"wkt":"Point(9.1123383 39.2148396)"},{"type":"node","id":4028060108,"tags":{"amenity":"restaurant","cuisine":"asian","name":"Mi Asian","takeaway":"yes"},"relations":[],"meta":{},"wkt":"Point(9.1191428 39.2112842)"},{"type":"node","id":4036184660,"tags":{"addr:city":"Cagliari","addr:housenumber":"124","addr:street":"Via Goffredo Mameli","amenity":"restaurant","cuisine":"mexican","name":"Taqueria Mexicana El Burrito","smoking":"outside","takeaway":"yes"},"relations":[],"meta":{},"wkt":"Point(9.106537 39.2199478)"},{"type":"node","id":4036528315,"tags":{"addr:city":"Cagliari","addr:housenumber":"76","addr:street":"Via Carloforte","amenity":"restaurant","cuisine":"italian","name":"Jazzino","smoking":"outside","takeaway":"no"},"relations":[],"meta":{},"wkt":"Point(9.1058227 39.2198929)"},{"type":"node","id":4100055510,"tags":{"addr:housenumber":"220","addr:street":"Via Sidney Sonnino","amenity":"restaurant","cuisine":"pizza","name":"LOLLove Pizza"},"relations":[],"meta":{},"wkt":"Point(9.1215207 39.218404)"},{"type":"node","id":4107055950,"tags":{"addr:city":"Selargius","addr:housenumber":"21A","addr:postcode":"09047","addr:street":"Via Milazzo","amenity":"restaurant","cuisine":"pizza","name":"L'elfo","phone":"+39 070 8607049","takeaway":"yes"},"relations":[],"meta":{},"wkt":"Point(9.1656567 39.2555382)"},{"type":"node","id":4121664990,"tags":{"addr:city":"Casteddu/Cagliari","addr:housenumber":"170","addr:street":"Viale Poetto","amenity":"restaurant","cuisine":"mexican","name":"Insomnia Cafè","wheelchair":"yes"},"relations":[],"meta":{},"wkt":"Point(9.1595563 39.1979447)"},{"type":"node","id":4139163083,"tags":{"amenity":"restaurant","cuisine":"italian","name":"Royal Trattoria Toscana"},"relations":[],"meta":{},"wkt":"Point(9.1182209 39.2171571)"},{"type":"node","id":4228905898,"tags":{"addr:city":"Cagliari","addr:housenumber":"10","addr:street":"Viale Regina Margherita","amenity":"restaurant","contact:facebook":"https://www.facebook.com/PITHSmokehouse/","contact:phone":"070 640 7654","cuisine":"barbecue","name":"PITH Smokehouse","opening_hours":"Mo-Su 12:00-15:00,19:00-23:00; Fr,Sa 12:00-15:00,19:00-23:30","source":"Regione Autonoma della Sardegna (www.sardegnageoportale.it)"},"relations":[],"meta":{},"wkt":"Point(9.1153848 39.2127197)"},{"type":"node","id":4228920279,"tags":{"addr:city":"Cagliari","addr:housenumber":"14","addr:street":"Corso Vittorio Emanuele II","amenity":"restaurant","contact:email":"cagliari01@universovegano.it","contact:facebook":"https://www.facebook.com/UniversoVeganoCagliari/","contact:phone":"+39 340 675 5620","contact:website":"www.universovegano.it","cuisine":"vegan","diet:vegan":"only","name":"Universo Vegano","opening_hours":"Mo-Su 12:30-16:00,19:00-23:00; Sa 12:30-16:00,19:00-24:00;PH off","source":"Regione Autonoma della Sardegna (www.sardegnageoportale.it)"},"relations":[],"meta":{},"wkt":"Point(9.1128249 39.2174906)"},{"type":"node","id":4228974642,"tags":{"addr:city":"Cagliari","addr:housenumber":"13","addr:street":"Via dei Mille","amenity":"fast_food","cuisine":"kebab","source":"Regione Autonoma della Sardegna (www.sardegnageoportale.it)"},"relations":[],"meta":{},"wkt":"Point(9.113635 39.2139484)"},{"type":"node","id":4228977913,"tags":{"addr:city":"Cagliari","addr:housenumber":"14","addr:street":"Via Enrico Gianturco","amenity":"restaurant","cuisine":"japanese","name":"Bentō","source":"Regione Autonoma della Sardegna (www.sardegnageoportale.it)","takeaway":"yes"},"relations":[],"meta":{},"wkt":"Point(9.1266185 39.2151342)"},{"type":"node","id":4228981993,"tags":{"addr:city":"Cagliari","addr:housenumber":"14","addr:street":"Viale Regina Margherita","amenity":"restaurant","contact:facebook":"https://www.facebook.com/nextfoodandlounge/","contact:phone":"+39 070 654 464","cuisine":"italian","name":"Next Food Lounge","opening_hours":"Mo-Sa 12:00-15:00,16:00-23:00","payment:cash":"yes","payment:mastercard":"yes","payment:visa":"yes","source":"Regione Autonoma della Sardegna (www.sardegnageoportale.it)"},"relations":[],"meta":{},"wkt":"Point(9.115524 39.2129072)"},{"type":"node","id":4229075825,"tags":{"addr:city":"Cagliari","addr:housenumber":"28","addr:street":"Viale Regina Margherita","amenity":"restaurant","contact:email":"dalcorsaro@tiscali.it","contact:facebook":"https://www.facebook.com/Ristorante-Dal-Corsaro-297630203614168/","contact:phone":"070 664 318","contact:website":"https://www.stefanodeidda.it","cuisine":"italian","name":"Dal Corsaro","note":"Due ristoranti in sale separate, all'interno del medeismo locale","opening_hours":"Tu-Su 19:45-23:15","payment:american_express":"yes","payment:cash":"yes","payment:mastercard":"yes","payment:visa":"yes","source":"Regione Autonoma della Sardegna (www.sardegnageoportale.it)","start_date":"2011-12-27"},"relations":[],"meta":{},"wkt":"Point(9.1159145 39.2134223)"},{"type":"node","id":4229079624,"tags":{"addr:city":"Cagliari","addr:housenumber":"22","addr:street":"Viale Regina Margherita","amenity":"restaurant","contact:email":"lapiratacagliari@gmail.com","contact:facebook":"https://www.facebook.com/La-Pirata-829234357204025/","contact:phone":"+39 070 658474","cuisine":"italian;fish","name":"La Pirata","source":"Regione Autonoma della Sardegna (www.sardegnageoportale.it)"},"relations":[],"meta":{},"wkt":"Point(9.1157496 39.2132026)"},{"type":"node","id":4229080091,"tags":{"addr:city":"Cagliari","addr:housenumber":"22","addr:postcode":"09124","addr:street":"Via Santa Margherita","amenity":"restaurant","cuisine":"italian","name":"Semino","source":"Regione Autonoma della Sardegna (www.sardegnageoportale.it)"},"relations":[],"meta":{},"wkt":"Point(9.1135878 39.2187675)"},{"type":"node","id":4229089478,"tags":{"addr:city":"Cagliari","addr:housenumber":"240","addr:street":"Via Dante Alighieri","amenity":"restaurant","cuisine":"japanese","name":"Ginza","source":"Regione Autonoma della Sardegna (www.sardegnageoportale.it)","takeaway":"yes","wheelchair":"no"},"relations":[],"meta":{},"wkt":"Point(9.1250991 39.2261328)"},{"type":"node","id":4229116506,"tags":{"addr:city":"Cagliari","addr:housenumber":"3","addr:street":"Viale Regina Elena","amenity":"restaurant","cuisine":"italian","internet_access":"wlan","name":"IL Bastione","name:ru":"IL Bastione","opening_hours":"Mo-Su 07:00-23:00","phone":"070660372","source":"Regione Autonoma della Sardegna (www.sardegnageoportale.it)"},"relations":[],"meta":{},"wkt":"Point(9.117 39.2158513)"},{"type":"node","id":4229452935,"tags":{"addr:city":"Cagliari","addr:housenumber":"40","addr:street":"Via Ottone Bacaredda","amenity":"fast_food","cuisine":"kebab","name":"Trikebab","source":"Regione Autonoma della Sardegna (www.sardegnageoportale.it)"},"relations":[],"meta":{},"wkt":"Point(9.12155 39.2208265)"},{"type":"node","id":4229607705,"tags":{"addr:city":"Cagliari","addr:housenumber":"60C","addr:street":"Via Sardegna","amenity":"restaurant","contact:email":"trattoriagennargentu@tiscali.it","contact:facebook":"https://www.facebook.com/Trattoria-Gennargentu-1064390823632589/","contact:phone":"+39 373 865 9682","cuisine":"regional;sardinian","name":"Trattoria Gennargentu","opening_hours":"Mo-Sa 12:30-15:00,20:00-23:00; We off; Su 12:30-16:00","payment:american_express":"yes","payment:cash":"yes","payment:mastercard":"yes","payment:visa":"yes","source":"Regione Autonoma della Sardegna (www.sardegnageoportale.it)"},"relations":[],"meta":{},"wkt":"Point(9.1134264 39.2142111)"},{"type":"node","id":4229612310,"tags":{"addr:city":"Cagliari","addr:housenumber":"64","addr:street":"Via XX Settembre","amenity":"fast_food","cuisine":"pizza","name":"Pizzeria Gustidea","phone":"+39 070 658074","source":"Regione Autonoma della Sardegna (www.sardegnageoportale.it)","wheelchair":"limited"},"relations":[],"meta":{},"wkt":"Point(9.118657 39.2131999)"},{"type":"node","id":4229640922,"tags":{"addr:city":"Cagliari","addr:housenumber":"78","addr:postcode":"09123","addr:street":"Via Giovanni Maria Angioy","amenity":"fast_food","cuisine":"italian;friture","name":"Gusto piadineria e sfiziosità","opening_hours":"Mo-Su 12:00-23:30","phone":"3287860730","source":"Regione Autonoma della Sardegna (www.sardegnageoportale.it)","website":"http://gusto-piadineria-cagliari.business.site/"},"relations":[],"meta":{},"wkt":"Point(9.112216 39.217171)"},{"type":"node","id":4229653436,"tags":{"addr:city":"Cagliari","addr:housenumber":"85","addr:street":"Via Sardegna","amenity":"restaurant","contact:phone":"+39 070 657 902","cuisine":"italian;fish;pizza","name":"Sardegna 85","source":"Regione Autonoma della Sardegna (www.sardegnageoportale.it)"},"relations":[],"meta":{},"wkt":"Point(9.1133764 39.2141642)"},{"type":"node","id":4425376697,"tags":{"addr:housenumber":"2","addr:street":"Via Giuseppe Peretti","amenity":"restaurant","cuisine":"pizza","name":"Evelyn Pizza","opening_hours":"Mo-Fr 12:00-15:00,19:00-24:00; Sa,Su 19:00-24:00","phone":"+39 070 531350","restaurant:type:it":"pizzeria"},"relations":[],"meta":{},"wkt":"Point(9.1074418 39.2511587)"},{"type":"node","id":4440523604,"tags":{"amenity":"restaurant","cuisine":"pizza","name":"Pizzeria Il Teatro"},"relations":[],"meta":{},"wkt":"Point(9.1056023 39.2224443)"},{"type":"node","id":4449256154,"tags":{"addr:housenumber":"62","addr:street":"Via Alberto Lamarmora","amenity":"fast_food","contact:phone":"+39 070 6848570","cuisine":"regional","name":"L'Osteria di Castello","operator":"Marchio Sardo srl","ref:vatin":"IT03468910926"},"relations":[],"meta":{},"wkt":"Point(9.1159822 39.2182837)"},{"type":"node","id":4471060128,"tags":{"addr:city":"Quartu Sant'Elena","addr:housenumber":"15","addr:postcode":"09045","addr:street":"Via Antonio Meucci","amenity":"restaurant","contact:facebook":"https://www.facebook.com/Pizza-margherita-Risto-Pub-168783049845155/","cuisine":"pizza","name":"Margherita","opening_hours":"Mo-Fr 00:00-02:00,12:00-15:00,19:00-24:00; Tu 00:00-02:00,12:00-15:00; We 12:00-15:00,19:00-24:00; Sa,Su 00:00-02:00,18:30-24:00","wheelchair":"yes"},"relations":[],"meta":{},"wkt":"Point(9.1783929 39.2408023)"},{"type":"node","id":4471060130,"tags":{"addr:city":"Quartu Sant'Elena","addr:housenumber":"31","addr:postcode":"09045","addr:street":"Via Venezia","amenity":"restaurant","cuisine":"italian","name":"Metropizza","wheelchair":"limited"},"relations":[],"meta":{},"wkt":"Point(9.1852132 39.2415647)"},{"type":"node","id":4471076191,"tags":{"addr:city":"Quartu Sant'Elena","addr:housenumber":"28","addr:postcode":"09124","addr:street":"Via Regina Margherita","amenity":"restaurant","cuisine":"italian","name":"Dal Corsaro","opening_hours":"Tu-Su 12:00-15:00, 19:00-23:00","operator":"Stefano Deidda","phone":"+39070664318","website":"http://www.stefanodeidda.it"},"relations":[],"meta":{},"wkt":"Point(9.1866338 39.241477)"},{"type":"node","id":4471098299,"tags":{"addr:city":"Quartu Sant'Elena","addr:housenumber":"167","addr:postcode":"09045","addr:street":"Via Cagliari","amenity":"restaurant","cuisine":"regional","name":"Sa Ide e S'Ollia"},"relations":[],"meta":{},"wkt":"Point(9.1851717 39.2459303)"},{"type":"node","id":4471098301,"tags":{"addr:city":"Quartu Sant'Elena","addr:housenumber":"16","addr:postcode":"09045","addr:street":"Via Ferdinando Magellano","amenity":"restaurant","capacity":"100","cuisine":"bavarian","description":"Chiuso la domenica","email":"dieter@beerhouse.it","internet_access":"wlan","name":"Zum Loweneck","opening_hours":"Mo-Sa 19:00-01:30","operator":"Michele Fellmann","phone":"+39 070 811719","smoking":"outside","takeaway":"yes","website":"http://www.beerhouse.it"},"relations":[],"meta":{},"wkt":"Point(9.1798988 39.2391707)"},{"type":"node","id":4475580964,"tags":{"addr:city":"Sestu","addr:housenumber":"6","addr:postcode":"09028","addr:street":"Via Roma","amenity":"restaurant","contact:facebook":"https://www.facebook.com/pg/ilcentrale.sestu/","cuisine":"italian","name":"Ristorante Pizzeria Il Centrale","opening_hours":"Mo-Su 00:00-01:00,06:00-24:00"},"relations":[],"meta":{},"wkt":"Point(9.0924832 39.3004713)"},{"type":"node","id":4479542490,"tags":{"addr:city":"Decimomannu","addr:housenumber":"39","addr:postcode":"09033","addr:street":"Corso Umberto I","amenity":"restaurant","cuisine":"italian","name":"La Lanterna","opening_hours":"Tu-Su 18:30-23:00"},"relations":[],"meta":{},"wkt":"Point(8.9653052 39.31065)"},{"type":"node","id":4482283314,"tags":{"addr:city":"Uta","addr:housenumber":"1","addr:postcode":"09010","addr:street":"Via Roma","amenity":"restaurant","cuisine":"pizza","name":"Pizzeria Pizza Time"},"relations":[],"meta":{},"wkt":"Point(8.9541849 39.2911217)"},{"type":"node","id":4496807659,"tags":{"addr:city":"Solanas","addr:housenumber":"40","addr:postcode":"09048","addr:street":"Via al Mare","amenity":"cafe","cuisine":"italian","ice_cream":"yes","name":"La Pintadera","pizza":"yes","wheelchair":"no"},"relations":[],"meta":{},"wkt":"Point(9.4308533 39.1381741)"},{"type":"node","id":4520885480,"tags":{"addr:city":"Pula","addr:housenumber":"11","addr:postcode":"09010","addr:street":"Via 24 maggio 1915","amenity":"restaurant","cuisine":"barbecue;italian","name":"Su Furriadroxu","opening_hours":"Fr-Su 19:30-22:30","source":"Regione Autonoma della Sardegna","website":"http://www.sufurriadroxu.it/"},"relations":[],"meta":{},"wkt":"Point(9.0018147 39.0131066)"},{"type":"node","id":4522673489,"tags":{"addr:city":"Sarroch","addr:housenumber":"52A","addr:postcode":"09018","addr:street":"Via al Mare","amenity":"restaurant","cuisine":"italian;pizza","name":"Don Pepicu","source":"Regione Autonoma della Sardegna","takeaway":"yes"},"relations":[],"meta":{},"wkt":"Point(9.0131681 39.0666295)"},{"type":"node","id":4522673539,"tags":{"addr:city":"Sarroch","addr:housenumber":"3","addr:postcode":"09018","addr:street":"Via al Mare","amenity":"restaurant","cuisine":"italian;pizza","name":"La nuova trattoria","source":"Regione Autonoma della Sardegna","wheelchair":"yes"},"relations":[],"meta":{},"wkt":"Point(9.0119166 39.0661107)"},{"type":"node","id":4732864314,"tags":{"addr:city":"Pula","addr:country":"IT","addr:housenumber":"69","addr:postcode":"09010","addr:street":"Piazza del Popolo","amenity":"restaurant","cuisine":"barbecue;fish;pizza","name":"s'incontru","outdoor_seating":"yes"},"relations":[],"meta":{},"wkt":"Point(9.0016712 39.0124503)"},{"type":"node","id":4837033512,"tags":{"amenity":"restaurant","cuisine":"regional","name":"Cucina Machri"},"relations":[],"meta":{},"wkt":"Point(9.0011607 39.0055046)"},{"type":"node","id":4847857249,"tags":{"amenity":"restaurant","cuisine":"italian","name":"Corte Noa"},"relations":[],"meta":{},"wkt":"Point(8.9801779 38.9836192)"},{"type":"node","id":5081939335,"tags":{"amenity":"restaurant","cuisine":"italian","name":"Italia"},"relations":[],"meta":{},"wkt":"Point(8.9931468 39.301795)"},{"type":"node","id":5127039723,"tags":{"amenity":"restaurant","cuisine":"italian_pizza;italian","name":"Vida"},"relations":[],"meta":{},"wkt":"Point(9.1135953 39.2156891)"},{"type":"node","id":5133321440,"tags":{"addr:city":"Cagliari","addr:housenumber":"37/41","addr:street":"Viale Armando Diaz","amenity":"restaurant","cuisine":"fish","name":"Galaia City","takeaway":"no"},"relations":[],"meta":{},"wkt":"Point(9.1181493 39.2109474)"},{"type":"node","id":5210688823,"tags":{"amenity":"restaurant","cuisine":"chinese;japanese;thai;sushi","internet_access":"wlan","name":"I Sushi"},"relations":[],"meta":{},"wkt":"Point(9.1171876 39.2158344)"},{"type":"node","id":5243063744,"tags":{"amenity":"restaurant","cuisine":"regional;fish","name":"Il Malandrino"},"relations":[],"meta":{},"wkt":"Point(9.1133892 39.2147933)"},{"type":"node","id":5494373585,"tags":{"amenity":"restaurant","contact:email":"info@saporeantico.net","contact:facebook":"https://it-it.facebook.com/saporeantico.saporeantico","contact:fax":"+39 070 94 04 37","contact:phone":"+39 070 94 04 37","contact:website":"http://www.saporeantico.net","cuisine":"pizza","name":"Sapore Antico","opening_hours":"Tu-Su 19:00-23:00","restaurant:type:it":"pizzeria"},"relations":[],"meta":{},"wkt":"Point(8.995486 39.2921925)"},{"type":"node","id":5494373586,"tags":{"amenity":"restaurant","contact:facebook":"https://www.facebook.com/RistoranteSaPintaderaDiDaly/","contact:phone":"+39 070 464 9218","cuisine":"sardinian","name":"Sa Pintadera","note":"da non confondere con l'omonimo agriturismo","opening_hours":"Mo-Sa 12:30-14:30,20:00-23:00"},"relations":[],"meta":{},"wkt":"Point(8.9949482 39.2925547)"}]