[{"type":"node","id":312971322,"tags":{"name":"EuroSpin","name:en":"EuroSpin","opening_hours":"Mo-Sa 08:30-20:30; Su 08:30-13:30,16:30-20:00","shop":"supermarket"},"relations":[],"meta":{},"wkt":"Point(9.1794649 39.2775078)"},{"type":"way","id":28381457,"tags":{"building":"yes","name":"Centro Commerciale Le Palme","shop":"mall","source":"Yahoo imagery"},"relations":[],"meta":{},"wkt":"Polygon( 9.2159032 39.2911188, 9.2168705 39.2915551, 9.2167173 39.2919131, 9.2158578 39.2917092, 9.2157434 39.2913887, 9.2157993 39.291244, 9.2159032 39.2911188)"},{"type":"way","id":28530212,"tags":{"name":"Le Vele","shop":"mall"},"relations":[],"meta":{},"wkt":"Polygon( 9.1641099 39.2455596, 9.1640579 39.2450468, 9.1640206 39.2447982, 9.1644709 39.2447809, 9.1645294 39.2448035, 9.1645664 39.2448324, 9.1645894 39.2448596, 9.1645575 39.2448963, 9.1646535 39.2448928, 9.1647293 39.2448444, 9.1648286 39.2448854, 9.1649097 39.2448316, 9.1650024 39.2448752, 9.1649955 39.244817, 9.1650031 39.2448021, 9.1650161 39.2447885, 9.1650297 39.2447782, 9.1650641 39.2447655, 9.1653068 39.2447493, 9.1653555 39.2447682, 9.1653772 39.244792, 9.1653757 39.2448531, 9.1654259 39.2448509, 9.1654281 39.2448132, 9.1656154 39.2448009, 9.1655905 39.244513, 9.1656422 39.244507, 9.1657227 39.24446, 9.1658888 39.2445459, 9.1659789 39.2444367, 9.1664206 39.2446511, 9.1663369 39.2447559, 9.1664959 39.2448305, 9.1664604 39.244863, 9.1655572 39.2456878, 9.1649211 39.2457337, 9.1645322 39.245674, 9.1645296 39.245638, 9.1641099 39.2455596)"},{"type":"way","id":28530218,"tags":{"addr:city":"Quartu Sant'Elena","addr:street":"Viale Guglielmo Marconi","building":"yes","name":"Le Vele","shop":"mall"},"relations":[],"meta":{},"wkt":"Polygon( 9.1655641 39.2435032, 9.1660985 39.2434825, 9.1672594 39.2442728, 9.1666882 39.2447773, 9.1664206 39.2446511, 9.1659789 39.2444367, 9.1655794 39.2442525, 9.1655528 39.2439626, 9.1655641 39.2435032)"},{"type":"way","id":28559382,"tags":{"name":"Centro Commerciale Auchan Marconi","shop":"mall","source":"Yahoo imagery","wheelchair":"yes"},"relations":[],"meta":{},"wkt":"Polygon( 9.1358961 39.2471753, 9.1359573 39.2472143, 9.1361926 39.247364, 9.1361953 39.2473962, 9.1362382 39.2474264, 9.1362802 39.247425, 9.1363084 39.2474417, 9.1363334 39.2474565, 9.1363373 39.2474848, 9.1363898 39.2475167, 9.1364528 39.2475115, 9.1365239 39.2475593, 9.1365279 39.2475915, 9.1367389 39.2477252, 9.1363227 39.2482292, 9.1362597 39.2481897, 9.1361296 39.2483081, 9.1362718 39.2483974, 9.1361808 39.2484815, 9.1361585 39.248502, 9.1356978 39.248927, 9.1357219 39.2489426, 9.1354135 39.2492241, 9.1351089 39.249024, 9.1351759 39.2489627, 9.1349575 39.248818, 9.1351203 39.248664, 9.1351814 39.2486062, 9.1351223 39.248567, 9.1348944 39.2487754, 9.1347669 39.2486916, 9.1346986 39.2487557, 9.1345336 39.248646, 9.1347481 39.2484455, 9.1348987 39.2483047, 9.1349116 39.2482926, 9.1348354 39.2482427, 9.1352552 39.2478563, 9.1352431 39.2478491, 9.1352498 39.2477597, 9.1357103 39.2473433, 9.1358961 39.2471753)"},{"type":"way","id":118707058,"tags":{"building":"yes","name":"Centro commerciale Santa Gilla","shop":"mall"},"relations":[],"meta":{},"wkt":"Polygon( 9.0903603 39.2323753, 9.0913611 39.2315753, 9.0914415 39.2316217, 9.0915102 39.2315652, 9.0914748 39.2315286, 9.091769 39.2313059, 9.0918141 39.2313426, 9.0918876 39.2312805, 9.0918409 39.2312476, 9.0920606 39.2310796, 9.0921628 39.2311583, 9.0921226 39.2311957, 9.0921896 39.2312455, 9.0922325 39.2312164, 9.0922754 39.2312396, 9.0922561 39.2312675, 9.0925894 39.2315135, 9.0926201 39.2314866, 9.0927409 39.2315961, 9.0926916 39.2316359, 9.0928286 39.2317377, 9.0924797 39.2320172, 9.0924377 39.232051, 9.0919983 39.232403, 9.0919299 39.2323551, 9.0915436 39.2326568, 9.09161 39.2327109, 9.0914024 39.2328801, 9.0912325 39.2330186, 9.0910353 39.2331793, 9.0907377 39.2329693, 9.0908424 39.2328858, 9.090817 39.2328675, 9.090593 39.2327059, 9.0906888 39.2326197, 9.0903603 39.2323753)"},{"type":"way","id":118840883,"tags":{"amenity":"fuel","brand":"Eni","fuel:HGV_diesel":"yes","fuel:biodiesel":"yes","fuel:diesel":"yes","fuel:octane_95":"yes","fuel:octane_98":"no","opening_hours":"24/7","shop":"yes"},"relations":[],"meta":{},"wkt":"Polygon( 9.0969698 39.2413798, 9.0969695 39.2412496, 9.0971601 39.2412494, 9.0971604 39.2413795, 9.0969698 39.2413798)"},{"type":"way","id":143379481,"tags":{"addr:city":"Selargius","name":"Centro commerciale Al Parco","shop":"mall"},"relations":[],"meta":{},"wkt":"Polygon( 9.1563796 39.2558486, 9.1568103 39.2549163, 9.1573072 39.2550465, 9.156874 39.2559868, 9.1563796 39.2558486)"},{"type":"way","id":146883106,"tags":{"building":"yes","name":"La Corte del Sole - Sardinia Outlet Village","shop":"mall"},"relations":[],"meta":{},"wkt":"Polygon( 9.0641812 39.304879, 9.0640914 39.3047798, 9.0641067 39.3047152, 9.063947 39.3046785, 9.063985 39.3045991, 9.0641398 39.3046262, 9.0642596 39.3042863, 9.0643075 39.3042957, 9.0649109 39.3044137, 9.0649216 39.3043943, 9.0649933 39.3043655, 9.0650667 39.3043793, 9.0651031 39.304435, 9.0651006 39.3044601, 9.0655424 39.3045528, 9.0655474 39.3045219, 9.0656304 39.3044938, 9.0656996 39.3045084, 9.065737 39.3045702, 9.0657545 39.3045972, 9.0658244 39.3045624, 9.0658003 39.304486, 9.0657968 39.3043685, 9.065825 39.3042893, 9.0658885 39.3042047, 9.0659732 39.3041391, 9.0660827 39.3040818, 9.0662803 39.3035328, 9.0662062 39.3034317, 9.0661452 39.3034603, 9.0661038 39.3034044, 9.0661674 39.3033798, 9.066157 39.303363, 9.0655231 39.3032261, 9.0655468 39.3031593, 9.0655369 39.3031328, 9.0654716 39.3031656, 9.0654358 39.3031119, 9.0654956 39.3030839, 9.0654882 39.3030695, 9.0652693 39.3030243, 9.0648555 39.3029391, 9.0648791 39.3028595, 9.0648703 39.3028417, 9.0648068 39.3028745, 9.0647715 39.3028185, 9.0648368 39.3027871, 9.0648297 39.3027707, 9.0648085 39.3027735, 9.0647238 39.3027584, 9.0648544 39.3023938, 9.0649712 39.302345, 9.0654986 39.3024553, 9.065578 39.3025495, 9.0655568 39.3025946, 9.065705 39.3026287, 9.0656962 39.3026465, 9.066178 39.3027489, 9.0662486 39.302839, 9.0662257 39.3029141, 9.0668517 39.3030474, 9.0669192 39.3031272, 9.0668927 39.3032105, 9.0669227 39.30322, 9.0668679 39.3034033, 9.066861 39.3034262, 9.0668239 39.3034235, 9.0667763 39.3035546, 9.0668857 39.3036993, 9.0669145 39.3037005, 9.0669235 39.3036845, 9.0669447 39.3036936, 9.0669349 39.3037098, 9.0669439 39.303728, 9.0669749 39.3037286, 9.0669757 39.3037471, 9.06695 39.3037472, 9.0669369 39.3037662, 9.067048 39.3039096, 9.0670355 39.3039482, 9.0670172 39.3040051, 9.0670064 39.3040385, 9.0664702 39.3042691, 9.0665251 39.304329, 9.0665476 39.3043927, 9.0665501 39.3044622, 9.0665301 39.3045067, 9.0665426 39.3045244, 9.0665712 39.3045607, 9.0669793 39.3043792, 9.0670816 39.3044101, 9.0670941 39.3044391, 9.0673986 39.3048581, 9.0674186 39.3048852, 9.0673977 39.3049568, 9.0670479 39.3051221, 9.0670292 39.3051053, 9.0666347 39.305266, 9.0666599 39.3052907, 9.0664028 39.3054066, 9.0663803 39.3053738, 9.0663155 39.3054027, 9.0663404 39.3054336, 9.066303 39.3054549, 9.0662174 39.3054773, 9.0661407 39.3054974, 9.0659461 39.3052386, 9.065342 39.3051185, 9.0641812 39.304879)"},{"type":"way","id":150263925,"tags":{"name":"La Collina","shop":"mall"},"relations":[],"meta":{},"wkt":"Polygon( 9.1494788 39.2546368, 9.1496215 39.254116, 9.1500114 39.2541813, 9.1499926 39.2542976, 9.1497941 39.2546798, 9.1494788 39.2546368)"},{"type":"way","id":164818885,"tags":{"shop":"mall"},"relations":[],"meta":{},"wkt":"Polygon( 9.105397 39.2546173, 9.1054057 39.2543981, 9.105702 39.2544034, 9.1057084 39.2542664, 9.1062047 39.2542847, 9.1061834 39.2546168, 9.106412 39.254632, 9.1063799 39.2549771, 9.1058772 39.2549595, 9.1058809 39.2548357, 9.1058947 39.2546296, 9.105397 39.2546173)"},{"type":"way","id":179360173,"tags":{"name":"Brico","shop":"doityourself"},"relations":[],"meta":{},"wkt":"Polygon( 8.9971683 39.0450449, 8.9973655 39.0445753, 8.9976879 39.044657, 8.9974906 39.0451266, 8.9971683 39.0450449)"},{"type":"way","id":189052020,"tags":{"name":"EPSupercarni","shop":"supermarket"},"relations":[],"meta":{},"wkt":"Polygon( 9.0848697 39.2468811, 9.0850574 39.2464906, 9.0855992 39.2466609, 9.0854007 39.2470514, 9.0848697 39.2468811)"},{"type":"way","id":189052288,"tags":{"building":"commercial","building:levels":"2","name":"Pittarello","shop":"shoes"},"relations":[],"meta":{},"wkt":"Polygon( 9.0629266 39.3013078, 9.0630875 39.3008927, 9.0634094 39.3007018, 9.0642999 39.3008927, 9.0640746 39.301532, 9.0629266 39.3013078)"},{"type":"way","id":189218442,"tags":{"name":"Fiera campionaria della Sardegna","shop":"mall"},"relations":[],"meta":{},"wkt":"Polygon( 9.1287914 39.2055217, 9.1285961 39.2050965, 9.1286498 39.2050217, 9.1283837 39.2047818, 9.128167 39.2043981, 9.1283086 39.2042497, 9.1286626 39.2039671, 9.1290381 39.203701, 9.1294888 39.2034599, 9.1314736 39.202429, 9.1334026 39.2042152, 9.132804 39.2048317, 9.1328254 39.2050894, 9.1287914 39.2055217)"},{"type":"way","id":206844793,"tags":{"building":"retail","name":"EuroSpin","name:en":"EuroSpin","opening_hours":"Mo-Sa 08:30-21:00; Su 08:30-13:30,16:30-20:30","shop":"supermarket","website":"https://www.eurospin.it/"},"relations":[],"meta":{},"wkt":"Polygon( 9.1163605 39.2502711, 9.1161972 39.2500693, 9.116719 39.249816, 9.1167382 39.2498396, 9.1167571 39.249863, 9.1168449 39.2498204, 9.1169933 39.2500036, 9.1165968 39.250196, 9.1165738 39.2501676, 9.1163605 39.2502711)"},{"type":"way","id":223988451,"tags":{"building":"yes","name":"Media World","shop":"electronics"},"relations":[],"meta":{},"wkt":"Polygon( 9.0776667 39.2783179, 9.0770084 39.2779048, 9.0773924 39.2775382, 9.0774515 39.2775752, 9.0774189 39.2776064, 9.0775754 39.2777046, 9.0776913 39.2775939, 9.0779166 39.2777353, 9.0778442 39.2778044, 9.0779994 39.2779018, 9.0779535 39.2779456, 9.0780157 39.2779846, 9.0776667 39.2783179)"},{"type":"way","id":223988453,"tags":{"building":"yes","name":"Iper Pan","shop":"supermarket"},"relations":[],"meta":{},"wkt":"Polygon( 9.0781564 39.2786252, 9.0776667 39.2783179, 9.0780157 39.2779846, 9.0785054 39.278292, 9.0781564 39.2786252)"},{"type":"way","id":228196676,"tags":{"building":"yes","shop":"florist","wheelchair":"yes"},"relations":[],"meta":{},"wkt":"Polygon( 9.2195185 39.2296437, 9.2192986 39.2295939, 9.2194756 39.2289913, 9.2197277 39.2290329, 9.2195185 39.2296437)"},{"type":"way","id":229266570,"tags":{"landuse":"commercial","name":"Market Majorca","shop":"supermarket"},"relations":[],"meta":{},"wkt":"Polygon( 9.2536167 39.2183723, 9.2535561 39.2180906, 9.2541371 39.2180242, 9.2541894 39.2182832, 9.2536167 39.2183723)"},{"type":"way","id":229266621,"tags":{"landuse":"commercial","name":"Sisa","shop":"supermarket"},"relations":[],"meta":{},"wkt":"Polygon( 9.270616 39.2209562, 9.2707569 39.2205975, 9.2710011 39.2207124, 9.2708917 39.2209829, 9.270616 39.2209562)"},{"type":"way","id":229267697,"tags":{"shop":"hardware"},"relations":[],"meta":{},"wkt":"Polygon( 9.2443299 39.2251675, 9.2446369 39.2250094, 9.2448718 39.2252831, 9.2445648 39.2254412, 9.2443299 39.2251675)"},{"type":"way","id":238744075,"tags":{"shop":"newsagent"},"relations":[],"meta":{},"wkt":"Polygon( 9.1272658 39.2326095, 9.1272322 39.2325819, 9.1272818 39.2325457, 9.1273154 39.2325733, 9.1272658 39.2326095)"},{"type":"way","id":244922582,"tags":{"shop":"car"},"relations":[],"meta":{},"wkt":"Polygon( 9.2214937 39.2867832, 9.2214721 39.2866847, 9.223395 39.286121, 9.2232078 39.2867553, 9.2226341 39.28672, 9.2222283 39.2867126, 9.2214937 39.2867832)"},{"type":"way","id":252817766,"tags":{"name":"Gieffe Supermercati","shop":"supermarket"},"relations":[],"meta":{},"wkt":"Polygon( 9.1889523 39.2937953, 9.1888265 39.2936727, 9.189079 39.2935176, 9.1890192 39.2934593, 9.1891178 39.2933987, 9.1892825 39.2935592, 9.1891718 39.2936272, 9.1891927 39.2936476, 9.1889523 39.2937953)"},{"type":"way","id":276938709,"tags":{"building":"yes","shop":"convenience","toilets":"yes"},"relations":[],"meta":{},"wkt":"Polygon( 9.2584872 39.2207255, 9.2583305 39.220729, 9.2583289 39.2206869, 9.2583278 39.2206591, 9.2584846 39.2206556, 9.2584872 39.2207255)"},{"type":"way","id":277184085,"tags":{"brand":"Multimarche","building":"yes","email":"info@mattagomme.com","name":"Matta Gomme","opening_hours":"Mo-Fr 08:30-20:00; Sa 08:30-12:30","phone":"+39.070 271286 +39.070 285220","shop":"tyres","website":"http://mattagomme.com/"},"relations":[],"meta":{},"wkt":"Polygon( 9.0958741 39.2498103, 9.0955232 39.2497944, 9.0955225 39.2497998, 9.0954292 39.2497967, 9.0954308 39.2497766, 9.0953583 39.2497731, 9.095364 39.2496997, 9.0955297 39.2497078, 9.095537 39.2496111, 9.0958878 39.249627, 9.0958741 39.2498103)"},{"type":"way","id":277184278,"tags":{"addr:city":"Cagliari","addr:housenumber":"16","addr:postcode":"09134","addr:street":"Via Calamattia","building":"commercial","name":"CFadda","shop":"doityourself","website":"http://www.cfadda.com"},"relations":[],"meta":{},"wkt":"Polygon( 9.1199787 39.2403016, 9.1199528 39.240279, 9.1199306 39.2402944, 9.1198446 39.2402195, 9.1199547 39.2401431, 9.1198503 39.2400522, 9.1200279 39.239929, 9.1200833 39.2399773, 9.120159 39.2399259, 9.120316 39.2400692, 9.1199787 39.2403016)"},{"type":"way","id":277186018,"tags":{"building":"commercial","name":"La Fornace","shop":"mall"},"relations":[],"meta":{},"wkt":"Polygon( 9.0926636 39.2523312, 9.0923839 39.252266, 9.0919582 39.2521667, 9.092271 39.2513559, 9.0924806 39.2514048, 9.0924492 39.2514861, 9.0925271 39.2515043, 9.0926035 39.2513063, 9.093122 39.2514272, 9.0930652 39.2515746, 9.093071 39.251576, 9.0930163 39.2517178, 9.0929684 39.2517066, 9.0927512 39.2522695, 9.0926926 39.2522558, 9.0926636 39.2523312)"},{"type":"way","id":277186131,"tags":{"building":"commercial","operator":"Honda","service":"dealer","shop":"car"},"relations":[],"meta":{},"wkt":"Polygon( 9.0888692 39.2473132, 9.088677 39.2472098, 9.0887003 39.2471836, 9.0886233 39.2471421, 9.0886 39.2471684, 9.0883899 39.2470554, 9.0883829 39.247017, 9.0884298 39.2470076, 9.0884501 39.2470197, 9.0886343 39.2468162, 9.0888204 39.2469187, 9.0887973 39.2469441, 9.088859 39.2469781, 9.0888821 39.2469527, 9.0890908 39.2470676, 9.0888692 39.2473132)"},{"type":"way","id":277187474,"tags":{"addr:city":"Cagliari","addr:housenumber":"26","addr:postcode":"09134","addr:street":"Via dei Carroz","building":"commercial","name":"Cannavera","shop":"furniture","website":"http://www.cannavera.it"},"relations":[],"meta":{},"wkt":"Polygon( 9.1196839 39.2394798, 9.1199951 39.2397574, 9.1196847 39.2399637, 9.1195477 39.2398405, 9.1196074 39.239798, 9.1195476 39.2397435, 9.1195448 39.2397381, 9.119548 39.2397284, 9.1195981 39.2396918, 9.1195806 39.2396761, 9.1195772 39.2396712, 9.1195756 39.239667, 9.1195753 39.2396621, 9.1195771 39.2396584, 9.1195829 39.239652, 9.1196254 39.2396224, 9.1196021 39.2396009, 9.1196001 39.2395972, 9.119602 39.2395906, 9.1196083 39.2395837, 9.1196544 39.2395519, 9.1196306 39.2395291, 9.1196295 39.2395248, 9.1196296 39.2395222, 9.1196305 39.2395181, 9.1196344 39.2395138, 9.1196839 39.2394798)"},{"type":"way","id":277192357,"tags":{"addr:city":"Cagliari","addr:housenumber":"173","addr:postcode":"09131","addr:street":"Viale Guglielmo Marconi","building":"industrial","name":"IKEA Ritira, ordina, arreda","operator":"IKEA","shop":"furniture"},"relations":[],"meta":{},"wkt":"Polygon( 9.1425087 39.2359729, 9.1425134 39.2359755, 9.1425807 39.2360132, 9.1427349 39.2360993, 9.1422766 39.23659, 9.1420487 39.2364626, 9.1425087 39.2359729)"},{"type":"way","id":277192721,"tags":{"building":"yes","name":"Il rifugio dei sapori","shop":"deli"},"relations":[],"meta":{},"wkt":"Polygon( 9.1068227 39.2215422, 9.1066436 39.2214644, 9.1069818 39.2214645, 9.1069315 39.2215346, 9.1068528 39.2215005, 9.1068227 39.2215422)"},{"type":"way","id":277193623,"tags":{"building":"industrial","name":"Ambiente Cucina","shop":"furniture"},"relations":[],"meta":{},"wkt":"Polygon( 9.1431192 39.236911, 9.1431211 39.2369121, 9.1430222 39.2370167, 9.1428879 39.2369398, 9.1429864 39.2368357, 9.1429916 39.2368386, 9.1432964 39.2365165, 9.1434237 39.2365893, 9.1431192 39.236911)"},{"type":"way","id":277194397,"tags":{"building":"retail","name":"Centro commerciale Conad","shop":"mall"},"relations":[],"meta":{},"wkt":"Polygon( 9.1169066 39.2436427, 9.1165591 39.2445124, 9.1164313 39.2444815, 9.1164485 39.2444382, 9.1163946 39.2444252, 9.116361 39.2445093, 9.1159711 39.2444151, 9.116335 39.2435046, 9.1169066 39.2436427)"},{"type":"way","id":278321209,"tags":{"addr:city":"Selargius","addr:street":"Via Piero della Francesca","building":"retail","name":"I Mulini","shop":"mall"},"relations":[],"meta":{},"wkt":"Polygon( 9.1034628 39.2536765, 9.103212 39.2538481, 9.1029478 39.2536122, 9.1028597 39.2536662, 9.1027316 39.2535494, 9.1027397 39.2534753, 9.1028801 39.2533779, 9.1027771 39.2532749, 9.1028745 39.2532091, 9.102777 39.253112, 9.1027798 39.2530376, 9.1031513 39.2527892, 9.1033079 39.2526845, 9.1032929 39.2526708, 9.103251 39.2526326, 9.1032569 39.2525725, 9.1031909 39.2525686, 9.1032058 39.2524167, 9.1035002 39.2524343, 9.1034758 39.2526816, 9.1034743 39.2526967, 9.1034709 39.2527307, 9.1035876 39.2527376, 9.1035132 39.2534928, 9.1033313 39.2534858, 9.1032841 39.2535204, 9.1033128 39.2535454, 9.1034628 39.2536765)"},{"type":"way","id":281433283,"tags":{"addr:city":"Elmas","addr:housename":"LIDL","addr:housenumber":"220","addr:postcode":"09030","addr:street":"Via Sulcitana","building":"commercial","name":"LIDL","shop":"supermarket"},"relations":[],"meta":{},"wkt":"Polygon( 9.0392587 39.2713115, 9.0398674 39.2713253, 9.03986 39.2715202, 9.0393904 39.2715096, 9.039392 39.2714662, 9.039253 39.2714631, 9.0392587 39.2713115)"},{"type":"way","id":281433742,"tags":{"brand":"Volkswagen","building":"industrial","service":"repair","shop":"car"},"relations":[],"meta":{},"wkt":"Polygon( 9.0691131 39.2581829, 9.0687817 39.2583229, 9.0683424 39.2578541, 9.0681659 39.2576296, 9.0680902 39.2575185, 9.0679453 39.257266, 9.0680449 39.2572265, 9.067833 39.2569548, 9.0680738 39.256622, 9.0684337 39.2564764, 9.068745 39.2569366, 9.0688628 39.2568907, 9.0689515 39.257025, 9.0688924 39.2570477, 9.0689157 39.2571127, 9.0689751 39.2571876, 9.0689851 39.2572177, 9.0689869 39.2572748, 9.069013 39.2572922, 9.069033 39.25732, 9.069043 39.2573415, 9.0690455 39.2573709, 9.0690379 39.2573964, 9.069025 39.2574208, 9.0689973 39.2574449, 9.0689619 39.2574603, 9.068933 39.2574675, 9.0689074 39.2574719, 9.0688593 39.2575249, 9.0688289 39.2575425, 9.0687387 39.257568, 9.0687169 39.2575782, 9.068676 39.257624, 9.068879 39.2579149, 9.0689252 39.257897, 9.0691131 39.2581829)"},{"type":"way","id":281434238,"tags":{"brand":"Volkswagen","building":"industrial","contact:phone":"+39 070 285910","name":"Service A.Z.C. S.R.L.","service":"repair","shop":"car"},"relations":[],"meta":{},"wkt":"Polygon( 9.0791165 39.2604384, 9.0787256 39.260776, 9.0785132 39.2606273, 9.0789041 39.2602898, 9.0791165 39.2604384)"},{"type":"way","id":283690890,"tags":{"addr:city":"Capoterra","addr:street":"Via Lampedusa","building":"yes","name":"Centro commerciale I Gabbiani","shop":"mall"},"relations":[],"meta":{},"wkt":"Polygon( 9.0196842 39.1547596, 9.0197023 39.1547772, 9.0196118 39.1548477, 9.0195032 39.1547561, 9.0195258 39.1547385, 9.0191817 39.1544531, 9.0191591 39.1544743, 9.0190867 39.1544038, 9.0196523 39.1540125, 9.0196296 39.1539879, 9.0197925 39.153868, 9.0203222 39.1543613, 9.0201684 39.1544706, 9.0201457 39.1544459, 9.0196842 39.1547596)"},{"type":"way","id":295299765,"tags":{"building":"yes","name":"Bike & Co","shop":"bicycle"},"relations":[],"meta":{},"wkt":"Polygon( 8.9504663 39.2947173, 8.9504408 39.2947462, 8.9503203 39.2946546, 8.950366 39.2946061, 8.9503445 39.2945917, 8.9508244 39.2941835, 8.9509239 39.2942535, 8.9508431 39.2943679, 8.9507844 39.2943458, 8.9507078 39.2944118, 8.9507788 39.294457, 8.9507347 39.294503, 8.9507078 39.2944849, 8.9506752 39.2945116, 8.9507081 39.2945323, 8.9506791 39.2945632, 8.9506383 39.294535, 8.9505508 39.2945989, 8.9505896 39.294633, 8.9505167 39.2947016, 8.9504946 39.2946918, 8.9504663 39.2947173)"},{"type":"way","id":295302815,"tags":{"building":"yes","name":"Crai","shop":"supermarket"},"relations":[],"meta":{},"wkt":"Polygon( 8.9520337 39.2927356, 8.9518986 39.292842, 8.9516876 39.2926802, 8.9518227 39.2925738, 8.9520337 39.2927356)"},{"type":"way","id":295307413,"tags":{"building":"yes","name":"Pam","shop":"supermarket"},"relations":[],"meta":{},"wkt":"Polygon( 8.9521593 39.2939717, 8.9520921 39.293929, 8.9522942 39.2937476, 8.9525003 39.2938794, 8.9524204 39.2939522, 8.9523106 39.293882, 8.9522063 39.293971, 8.9521788 39.2939562, 8.9521593 39.2939717)"},{"type":"way","id":295532544,"tags":{"building":"yes","building:levels":"1","name":"Markant","operator":"Market Palmira & Perra","shop":"supermarket"},"relations":[],"meta":{},"wkt":"Polygon( 9.4040074 39.1471749, 9.4038492 39.1471909, 9.4038473 39.147173, 9.4037459 39.1471828, 9.4037265 39.1470362, 9.4038287 39.1470272, 9.4038316 39.1470362, 9.4039032 39.1470334, 9.4038964 39.1470002, 9.4038714 39.1469984, 9.4038726 39.1469641, 9.4038421 39.1469652, 9.4038282 39.1468447, 9.403808 39.1468402, 9.4038578 39.1467486, 9.4040301 39.1468277, 9.4040355 39.1469663, 9.4039995 39.1469773, 9.403987 39.1470298, 9.4040074 39.1471749)"},{"type":"way","id":295533523,"tags":{"building":"yes","name":"Markant","operator":"Il Sagittario","shop":"supermarket"},"relations":[],"meta":{},"wkt":"Polygon( 9.4031122 39.1517555, 9.4026148 39.1518696, 9.4025635 39.1517483, 9.4030608 39.1516342, 9.4031122 39.1517555)"},{"type":"way","id":295593970,"tags":{"brand":"Volkswagen","contact:phone":"+39 070 22393","name":"Secauto S.R.L.","service":"dealer;repair","shop":"car"},"relations":[],"meta":{},"wkt":"Polygon( 9.0567741 39.3197712, 9.056987 39.3191521, 9.0575238 39.3192635, 9.0574502 39.3194715, 9.0572075 39.3194211, 9.0571838 39.3194901, 9.0574259 39.3195404, 9.0572754 39.3199656, 9.0570883 39.3199212, 9.0571154 39.3198523, 9.0567741 39.3197712)"},{"type":"way","id":295594286,"tags":{"building":"commercial","name":"Casa in","shop":"furniture"},"relations":[],"meta":{},"wkt":"Polygon( 9.0758121 39.2812003, 9.0758465 39.2812094, 9.0757866 39.2813469, 9.0754249 39.2812517, 9.0755821 39.2808908, 9.0758912 39.2809719, 9.0758666 39.2810283, 9.0759178 39.2810418, 9.0758924 39.2811001, 9.0758597 39.2810914, 9.0758121 39.2812003)"},{"type":"way","id":295594407,"tags":{"building":"yes","name":"FADDA","shop":"doityourself"},"relations":[],"meta":{},"wkt":"Polygon( 9.078922 39.2773294, 9.0784721 39.2777511, 9.0783951 39.2777015, 9.0775672 39.277168, 9.0775773 39.2771586, 9.0775021 39.2771106, 9.0774855 39.2771263, 9.0773828 39.2770604, 9.0778232 39.2766462, 9.0778404 39.27663, 9.0779423 39.2766954, 9.0779163 39.2767198, 9.0779978 39.2767719, 9.0780217 39.2767493, 9.078922 39.2773294)"},{"type":"way","id":295594599,"tags":{"building":"yes","name":"Bricoworld","shop":"doityourself"},"relations":[],"meta":{},"wkt":"Polygon( 9.0794305 39.2765723, 9.0791324 39.2769191, 9.0783453 39.2765074, 9.0782994 39.2765685, 9.0780024 39.2764108, 9.0779648 39.2764687, 9.0778297 39.2764051, 9.0778747 39.2763423, 9.0777706 39.2762878, 9.0778204 39.2762335, 9.0777649 39.2761989, 9.07806 39.2758461, 9.0783031 39.2759659, 9.0782454 39.2760394, 9.0785919 39.2762197, 9.0786456 39.2761602, 9.0794305 39.2765723)"},{"type":"way","id":295594640,"tags":{"building":"commercial","name":"Eva Arredamenti","shop":"furniture"},"relations":[],"meta":{},"wkt":"Polygon( 9.0614889 39.3120811, 9.0613814 39.3120559, 9.0616339 39.3114067, 9.0617247 39.3114278, 9.061753 39.3113545, 9.0621205 39.3114399, 9.0620906 39.3115173, 9.0619382 39.3114819, 9.0618887 39.3116106, 9.0619446 39.3116236, 9.0618822 39.3117852, 9.0618282 39.3117726, 9.0617931 39.3118636, 9.0617183 39.3118462, 9.0616615 39.3119932, 9.0616351 39.311987, 9.0616245 39.3120142, 9.0615241 39.3119906, 9.0614889 39.3120811)"},{"type":"way","id":295595052,"tags":{"building":"commercial","name":"Legno Brico","shop":"doityourself"},"relations":[],"meta":{},"wkt":"Polygon( 9.0720138 39.2829946, 9.0728766 39.2836097, 9.0727176 39.2837467, 9.0718988 39.283162, 9.0720138 39.2829946)"},{"type":"way","id":295595870,"tags":{"building":"commercial","name":"Galleria del Mobile","shop":"furniture"},"relations":[],"meta":{},"wkt":"Polygon( 9.0626709 39.3121412, 9.062015 39.3127368, 9.061433 39.31235, 9.062089 39.3117544, 9.0626709 39.3121412)"},{"type":"way","id":295596411,"tags":{"building":"retail","name":"Mobil discount","shop":"furniture"},"relations":[],"meta":{},"wkt":"Polygon( 9.067662 39.2904801, 9.0672473 39.2903959, 9.0673503 39.2901211, 9.0673849 39.2901249, 9.0674437 39.2899209, 9.0677941 39.2901057, 9.067662 39.2904801)"},{"type":"way","id":295596743,"tags":{"building":"yes","name":"Moina","shop":"furniture"},"relations":[],"meta":{},"wkt":"Polygon( 9.064343 39.2950884, 9.0642533 39.295154, 9.0643678 39.2952487, 9.0637663 39.2956876, 9.0636062 39.2955555, 9.0642969 39.2950504, 9.064343 39.2950884)"},{"type":"way","id":296381746,"tags":{"building":"commercial","name":"Supermercato","shop":"supermarket"},"relations":[],"meta":{},"wkt":"Polygon( 9.0024896 39.0141317, 9.0024526 39.0143489, 9.0022124 39.0143237, 9.0022181 39.0142912, 9.0019328 39.0142606, 9.0019652 39.0140759, 9.0024896 39.0141317)"},{"type":"way","id":319278816,"tags":{"building":"yes","name":"Eurospin","name:en":"EuroSpin","opening_hours":"Mo-Sa 08:30-20:30; Su 08:30-13:00","shop":"supermarket","website":"https://www.eurospin.it/"},"relations":[],"meta":{},"wkt":"Polygon( 8.975263 39.3121094, 8.9747875 39.3117527, 8.9749953 39.3115869, 8.9754708 39.3119436, 8.975263 39.3121094)"},{"type":"way","id":330846464,"tags":{"building":"yes","building:levels":"1","name":"Tru Trussardi","shop":"clothes"},"relations":[],"meta":{},"wkt":"Polygon( 9.1155515 39.21603, 9.1156578 39.2158996, 9.11575 39.2159359, 9.1156536 39.2160721, 9.1155515 39.21603)"},{"type":"way","id":400201640,"tags":{"building":"yes","name":"Nonna Isa","operator":"Camporosso SRL","shop":"supermarket"},"relations":[],"meta":{},"wkt":"Polygon( 9.1194239 39.2129094, 9.1193521 39.2127429, 9.1199049 39.2126233, 9.1199853 39.2128144, 9.1194399 39.2129467, 9.1194239 39.2129094)"},{"type":"way","id":493009868,"tags":{"building":"yes","name":"Bombolaio e Legnaia","shop":"gas"},"relations":[],"meta":{},"wkt":"Polygon( 8.9625648 39.2859142, 8.9622287 39.2853064, 8.9628778 39.2851881, 8.9631701 39.285651, 8.9625559 39.2858918, 8.9625648 39.2859142)"},{"type":"way","id":493442462,"tags":{"building":"yes","name":"Dico","shop":"supermarket"},"relations":[],"meta":{},"wkt":"Polygon( 8.9410178 39.2996441, 8.9413316 39.2994822, 8.9416347 39.2998122, 8.9413289 39.2999845, 8.9410178 39.2996441)"},{"type":"way","id":499914738,"tags":{"landuse":"commercial","name":"Cortexandra Retail Park","shop":"mall"},"relations":[],"meta":{},"wkt":"Polygon( 9.0672624 39.2945124, 9.0679867 39.2925885, 9.0684427 39.2927047, 9.0685098 39.2925469, 9.069065 39.2929912, 9.0696132 39.2934456, 9.0693613 39.293692, 9.0691438 39.2939077, 9.0681121 39.2949175, 9.0672624 39.2945124)"},{"type":"way","id":500442133,"tags":{"building":"commercial","shop":"mall"},"relations":[],"meta":{},"wkt":"Polygon( 9.0695489 39.2871157, 9.0707035 39.2859109, 9.0713096 39.2862812, 9.0701358 39.2874662, 9.0695489 39.2871157)"},{"type":"way","id":500641882,"tags":{"building":"commercial","name":"Chateau d'Ax","shop":"furniture"},"relations":[],"meta":{},"wkt":"Polygon( 9.0893615 39.2576317, 9.0894508 39.2574736, 9.0898006 39.2575765, 9.0896811 39.2577237, 9.0893615 39.2576317)"},{"type":"way","id":521329163,"tags":{"building":"commercial","name":"Pam","shop":"supermarket"},"relations":[],"meta":{},"wkt":"Polygon( 8.99583 39.2989716, 8.9959867 39.2991013, 8.9954941 39.2994576, 8.9954751 39.2994713, 8.9953184 39.2993416, 8.9955935 39.2991427, 8.99583 39.2989716)"},{"type":"way","id":521831535,"tags":{"building":"commercial","name":"EuroSpin","name:en":"EuroSpin","opening_hours":"Mo-Sa 08:30-20:00; Su 08:30-13:30","shop":"supermarket","website":"https://www.eurospin.it/"},"relations":[],"meta":{},"wkt":"Polygon( 8.9897445 39.2931771, 8.9898556 39.2934294, 8.9891953 39.2936036, 8.9890841 39.2933514, 8.9897445 39.2931771)"},{"type":"way","id":550304866,"tags":{"building":"yes","shop":"kiosk"},"relations":[],"meta":{},"wkt":"Polygon( 8.9550185 39.290147, 8.9550849 39.2901275, 8.9551425 39.2901744, 8.9550921 39.2902041, 8.9550185 39.290147)"},{"type":"node","id":2060046375,"tags":{"amenity":"fuel","brand":"Esso","fuel:diesel":"yes","fuel:octane_95":"yes","fuel:octane_98":"yes","shop":"no"},"relations":[],"meta":{},"wkt":"Point(9.0968807 39.2343535)"},{"type":"node","id":2093202295,"tags":{"addr:housenumber":"34","addr:postcode":"09048","addr:street":"Via Mara","name":"Saponeria di Rita Serpi","shop":"convenience"},"relations":[],"meta":{},"wkt":"Point(9.2060226 39.3009563)"},{"type":"node","id":2093202297,"tags":{"addr:housenumber":"55 A","addr:postcode":"09048","addr:street":"Via Mara","name":"Back Flip - Mountain bike Shop","shop":"bicycle"},"relations":[],"meta":{},"wkt":"Point(9.2055774 39.3011743)"},{"type":"node","id":2118352253,"tags":{"shop":"hairdresser"},"relations":[],"meta":{},"wkt":"Point(9.1103806 39.2393459)"},{"type":"node","id":2144132323,"tags":{"addr:city":"Quartu Sant'Elena","addr:housenumber":"2","addr:street":"Via Enrico Pessina","name":"Amelia Pam","shop":"supermarket","wheelchair":"yes"},"relations":[],"meta":{},"wkt":"Point(9.1872768 39.2326653)"},{"type":"node","id":2144132326,"tags":{"shop":"supermarket","wheelchair":"yes"},"relations":[],"meta":{},"wkt":"Point(9.1906946 39.2318748)"},{"type":"node","id":2145764424,"tags":{"name":"Panificio Panarte","shop":"bakery","wheelchair":"no"},"relations":[],"meta":{},"wkt":"Point(9.1853865 39.2391513)"},{"type":"node","id":2176989491,"tags":{"addr:city":"Quartu Sant'Elena","addr:housenumber":"75","addr:postcode":"09045","addr:street":"Via Arrigo Boito","name":"Tabacchi","opening_hours":"Mo-Sa 7.15-13.30; 16.15-20.30","shop":"kiosk"},"relations":[],"meta":{},"wkt":"Point(9.1755713 39.2366224)"},{"type":"node","id":2178289048,"tags":{"shop":"kiosk","wheelchair":"no"},"relations":[],"meta":{},"wkt":"Point(9.1759773 39.2357498)"},{"type":"node","id":2183993302,"tags":{"name":"Pasticceria Pirani","shop":"confectionery","wheelchair":"no"},"relations":[],"meta":{},"wkt":"Point(9.1767004 39.2372603)"},{"type":"node","id":2201764507,"tags":{"shop":"clothes"},"relations":[],"meta":{},"wkt":"Point(9.0663214 39.29534)"},{"type":"node","id":2201765732,"tags":{"name":"Zona market","shop":"supermarket"},"relations":[],"meta":{},"wkt":"Point(9.06689 39.2936047)"},{"type":"node","id":2270304578,"tags":{"name":"Lavanderia Calimero","shop":"laundry","wheelchair":"no"},"relations":[],"meta":{},"wkt":"Point(9.1825641 39.2348148)"},{"type":"node","id":2284028134,"tags":{"addr:city":"Cagliari","addr:country":"IT","addr:housenumber":"15","addr:street":"Piazza San Benedetto","name":"Fioricultura Maria Cristina","phone":"+39 070 498171","shop":"florist"},"relations":[],"meta":{},"wkt":"Point(9.1246775 39.2213638)"},{"type":"node","id":2309733318,"tags":{"name":"Bijoux Planet","shop":"boutique"},"relations":[],"meta":{},"wkt":"Point(9.1087656 39.215508)"},{"type":"node","id":2310429902,"tags":{"name":"Ajo Kose di Sardegna","shop":"gift"},"relations":[],"meta":{},"wkt":"Point(9.0609083 39.2536643)"},{"type":"node","id":2310429924,"tags":{"name":"Eye Sportwear","shop":"clothes"},"relations":[],"meta":{},"wkt":"Point(9.0607934 39.2535987)"},{"type":"node","id":2310429936,"tags":{"name":"Waltale 1991 Airport Stores","shop":"clothes"},"relations":[],"meta":{},"wkt":"Point(9.060488 39.2538914)"},{"type":"node","id":2385419042,"tags":{"name":"Globo","shop":"clothes"},"relations":[],"meta":{},"wkt":"Point(9.1214567 39.2362183)"},{"type":"node","id":2455186558,"tags":{"shop":"kiosk"},"relations":[],"meta":{},"wkt":"Point(9.1136292 39.2181522)"},{"type":"node","id":2455186566,"tags":{"addr:city":"Cagliari","addr:housenumber":"9","addr:street":"Via Santa Margherita","name":"Panificio Santa Margherita","shop":"bakery"},"relations":[],"meta":{},"wkt":"Point(9.1137037 39.2182953)"},{"type":"node","id":2455188907,"tags":{"addr:city":"Cagliari","addr:housenumber":"11","addr:street":"Via Santa Margherita","shop":"tobacco"},"relations":[],"meta":{},"wkt":"Point(9.1137011 39.2183115)"},{"type":"node","id":2553060126,"tags":{"addr:housenumber":"25","addr:postcode":"09131","addr:street":"Via Giuseppe Biasi","name":"L'angolo dei sapori","shop":"convenience"},"relations":[],"meta":{},"wkt":"Point(9.1260137 39.2326967)"},{"type":"node","id":2582722335,"tags":{"name":"R.B. DI ROSSANA E BENVENUTO CADELANO S.N.C","shop":"convenience"},"relations":[],"meta":{},"wkt":"Point(9.181157 39.2904492)"},{"type":"node","id":2588438091,"tags":{"addr:housename":"Meeting di Mascia Rita","shop":"newsagent"},"relations":[],"meta":{},"wkt":"Point(9.1855694 39.2908477)"},{"type":"node","id":2607645591,"tags":{"name":"Tabacchi - Giornali e riviste","shop":"newsagent"},"relations":[],"meta":{},"wkt":"Point(9.1260833 39.2327453)"},{"type":"node","id":2714272847,"tags":{"addr:city":"Cagliari","addr:housenumber":"13","addr:street":"Via Giovanni Giolitti","name":"Le plus bon","shop":"bakery","website":"www.leplusbon.com/"},"relations":[],"meta":{},"wkt":"Point(9.1198148 39.2114031)"},{"type":"node","id":2715451869,"tags":{"addr:city":"Cagliari","addr:housenumber":"18-28","addr:street":"Via Nuoro","name":"Gieffe","operator":"Gieffe","shop":"supermarket"},"relations":[],"meta":{},"wkt":"Point(9.121061 39.2108935)"},{"type":"node","id":2723506902,"tags":{"addr:city":"Cagliari","addr:street":"Viale Armando Diaz","name":"Cronta","shop":"winery"},"relations":[],"meta":{},"wkt":"Point(9.1175942 39.2112646)"},{"type":"node","id":2725373298,"tags":{"addr:city":"Cagliari","addr:housenumber":"19","addr:street":"Via Napoli","name":"Il Suq","operator":"Il Suq srl unipersonale","phone":"+39 070 660223","shop":"supermarket","website":"http://www.ilsuq.it","wheelchair":"no"},"relations":[],"meta":{},"wkt":"Point(9.1128405 39.2146999)"},{"type":"node","id":2727015288,"tags":{"addr:city":"Cagliari","addr:street":"Via Roma","shop":"newsagent"},"relations":[],"meta":{},"wkt":"Point(9.1164179 39.212079)"},{"type":"node","id":2833196637,"tags":{"addr:city":"Cagliari","addr:housenumber":"225","addr:street":"Via della Pineta","name":"Margherita conad","shop":"supermarket"},"relations":[],"meta":{},"wkt":"Point(9.1358399 39.2056131)"},{"type":"node","id":2924425313,"tags":{"addr:city":"Cabuderra/Capoterra","addr:postcode":"09012","addr:street":"Via Teulada","name":"G.P.G. SERVICE SNC","shop":"car_repair"},"relations":[],"meta":{},"wkt":"Point(8.9850889 39.1755879)"},{"type":"node","id":2929040137,"tags":{"shop":"butcher","wheelchair":"yes"},"relations":[],"meta":{},"wkt":"Point(9.4291929 39.1392198)"},{"type":"node","id":2929040138,"tags":{"name":"Mini Market","shop":"convenience","wheelchair":"no"},"relations":[],"meta":{},"wkt":"Point(9.4288474 39.1396924)"},{"type":"node","id":2929040139,"tags":{"shop":"newsagent"},"relations":[],"meta":{},"wkt":"Point(9.4287153 39.140141)"},{"type":"node","id":2992618870,"tags":{"addr:city":"09048","addr:housenumber":"17","addr:street":"SP17","name":"Market I.L.","shop":"convenience","source":"scontrino","wheelchair":"no"},"relations":[],"meta":{},"wkt":"Point(9.4322117 39.1421529)"},{"type":"node","id":2996154858,"tags":{"name":"Bombole GPL","name:en":"LPG Vessels","shop":"hardware","wheelchair":"no"},"relations":[],"meta":{},"wkt":"Point(9.4597918 39.1956615)"},{"type":"node","id":3014209992,"tags":{"addr:city":"Capoterra","addr:housenumber":"37","addr:postcode":"09012","addr:street":"Via Bari","name":"LD market","shop":"supermarket","website":"http://www.ldmarket.it/"},"relations":[],"meta":{},"wkt":"Point(8.9648528 39.1725978)"},{"type":"node","id":3093831743,"tags":{"entrance":"main"},"relations":[],"meta":{},"wkt":"Point(9.1363084 39.2474417)"},{"type":"node","id":3095429852,"tags":{"shop":"convenience"},"relations":[],"meta":{},"wkt":"Point(9.0099444 39.131239)"},{"type":"node","id":3139868136,"tags":{"addr:housenumber":"34","addr:street":"Via Maddalena","name":"Fresco Dì","operator":"Fresco Dì Società Agricola","shop":"greengrocer"},"relations":[],"meta":{},"wkt":"Point(9.1089202 39.2174644)"},{"type":"node","id":3139872462,"tags":{"name":"Runner","shop":"bicycle","wheelchair":"no"},"relations":[],"meta":{},"wkt":"Point(9.1079895 39.2198271)"},{"type":"node","id":3240930214,"tags":{"shop":"deli"},"relations":[],"meta":{},"wkt":"Point(9.1085651 39.2195372)"},{"type":"node","id":3279366486,"tags":{"addr:city":"Assemini","addr:housenumber":"112","addr:postcode":"09032","addr:street":"Via Sardegna","name":"Super Pan","shop":"supermarket"},"relations":[],"meta":{},"wkt":"Point(9.013921 39.2905438)"},{"type":"node","id":3348350949,"tags":{"addr:city":"Cagliari","addr:housenumber":"67","addr:street":"Via Giovanni Battista Pergolesi","name":"Despar Mini Market","opening_hours":"08:00 - 22:30","operator":"Despar","shop":"convenience"},"relations":[],"meta":{},"wkt":"Point(9.1295594 39.2210153)"},{"type":"node","id":3348373461,"tags":{"addr:city":"Monserrato","addr:housenumber":"11","addr:postcode":"09042","addr:street":"Via San Gottardo","name":"I Cherchi","shop":"convenience"},"relations":[],"meta":{},"wkt":"Point(9.1460956 39.2584509)"},{"type":"node","id":3350225707,"tags":{"addr:city":"Cagliari","addr:housenumber":"26","addr:street":"Via Luigi Einaudi","name":"Bottega del Mondo Ass. Oscar Romero","note":"Negozio di alimentari e artigianato del circuito del commercio equo e solidale.","shop":"yes","website":"http://www.orequo.it/"},"relations":[],"meta":{},"wkt":"Point(9.1199171 39.2165229)"},{"type":"node","id":3353918460,"tags":{"shop":"kiosk"},"relations":[],"meta":{},"wkt":"Point(9.1084125 39.2394898)"},{"type":"node","id":3353932653,"tags":{"addr:city":"Cagliari","addr:housenumber":"47","addr:street":"Via Carlo Baudi di Vesme","name":"Amelia Pam","shop":"supermarket"},"relations":[],"meta":{},"wkt":"Point(9.1108401 39.2388956)"},{"type":"node","id":3362115033,"tags":{"addr:city":"Cagliari","addr:housenumber":"181","addr:street":"Corso Vittorio Emanuele II","name":"Bottega del Mondo Sucania","note":"Punto vendita di prodotti del Commercio Equo e Solidale","shop":"gift","website":"http://web.tiscali.it/sucania/"},"relations":[],"meta":{},"wkt":"Point(9.1099221 39.2188918)"},{"type":"node","id":3375220440,"tags":{"addr:city":"Cagliari","addr:housenumber":"43","addr:postcode":"09131","addr:street":"Via Giudice Chiano","name":"Extreme Bike Shop","shop":"sports","website":"http://www.extremebikes.it/"},"relations":[],"meta":{},"wkt":"Point(9.1218351 39.2300405)"},{"type":"node","id":3375220776,"tags":{"addr:city":"Cagliari","addr:housenumber":"61","addr:postcode":"09127","addr:street":"Via Basilicata","name":"CopyLeader Srl","shop":"copyshop"},"relations":[],"meta":{},"wkt":"Point(9.1134121 39.2298828)"},{"type":"node","id":3375227843,"tags":{"addr:city":"Cagliari","addr:housenumber":"6","addr:postcode":"09131","addr:street":"Via Pietro Cavaro","name":"BC","shop":"sports"},"relations":[],"meta":{},"wkt":"Point(9.1290373 39.2251033)"},{"type":"node","id":3375228306,"tags":{"name":"La Foglia","shop":"pastry"},"relations":[],"meta":{},"wkt":"Point(9.1129987 39.2181753)"},{"type":"node","id":3484294357,"tags":{"addr:city":"Assemini","addr:postcode":"09032","addr:street":"Strada Assemini - Sestu","name":"L'autoservizio snc","shop":"car_repair","website":"http://www.lautoservizio.it/"},"relations":[],"meta":{},"wkt":"Point(9.0245727 39.2877791)"},{"type":"node","id":3590657056,"tags":{"addr:full":"S.S. 195 km 39,700 Santa Margherita di Pula","addr:place":"Santa Margherita di Pula","name":"Market la Pineta","opening_hours":"\"only main season\"","shop":"supermarket"},"relations":[],"meta":{},"wkt":"Point(8.9265736 38.933926)"},{"type":"node","id":3609597389,"tags":{"shop":"convenience"},"relations":[],"meta":{},"wkt":"Point(9.3793204 39.172167)"},{"type":"node","id":3613145683,"tags":{"addr:housenumber":"10","addr:street":"Via Pola","name":"Wipeout","note":"angolo Via Goffedo Mameli","opening_hours":"Mo 17:00-20:30, Tu-Sa 10:00-13:30, 17:00-20:30","phone":"+39 0703110547","shop":"sports","sport":"skateboard;surf;kitesurf;snowboard;sup;windsurf","website":"http://www.wipeout.it/"},"relations":[],"meta":{},"wkt":"Point(9.105637 39.2205314)"},{"type":"node","id":3664672972,"tags":{"name":"Solanas Vini","shop":"wine"},"relations":[],"meta":{},"wkt":"Point(9.4272939 39.1389573)"},{"type":"node","id":3749501629,"tags":{"shop":"convenience"},"relations":[],"meta":{},"wkt":"Point(9.1115196 39.218452)"},{"type":"node","id":3780626819,"tags":{"addr:housenumber":"4","addr:postcode":"09032","addr:street":"Via Eleonora D'Arborea","level":"0","name":"Pam","shop":"supermarket"},"relations":[],"meta":{},"wkt":"Point(9.0063963 39.2856064)"},{"type":"node","id":3780631956,"tags":{"addr:housenumber":"4","addr:postcode":"09032","addr:street":"Via Eleonora D'Arborea","name":"Assistenza Computer","shop":"yes"},"relations":[],"meta":{},"wkt":"Point(9.0066806 39.2855939)"},{"type":"node","id":3780633971,"tags":{"addr:postcode":"09032","addr:street":"Via Eleonora D'Arborea","level":"0","shop":"clothes"},"relations":[],"meta":{},"wkt":"Point(9.0065894 39.2851538)"},{"type":"node","id":3780634372,"tags":{"addr:city":"Assemini","addr:postcode":"09032","name":"LD Market","shop":"supermarket"},"relations":[],"meta":{},"wkt":"Point(9.0151878 39.2831791)"},{"type":"node","id":3780636790,"tags":{"addr:city":"Assemini","addr:housenumber":"99","addr:postcode":"09032","addr:street":"Corso America","name":"PC Service","repair":"yes","shop":"computer"},"relations":[],"meta":{},"wkt":"Point(9.0142588 39.2837287)"},{"type":"node","id":3799048363,"tags":{"cuisine":"fish","name":"Su scabecciu e sa frittura","shop":"deli"},"relations":[],"meta":{},"wkt":"Point(9.1135317 39.2156284)"},{"type":"node","id":3957217769,"tags":{"addr:housenumber":"224","addr:street":"Via Dante Alighieri","name":"Mercerie Piu","shop":"haberdashery"},"relations":[],"meta":{},"wkt":"Point(9.1250707 39.2258161)"},{"type":"node","id":4054680919,"tags":{"amenity":"fuel","brand":"Q8","shop":"convenience"},"relations":[],"meta":{},"wkt":"Point(9.1202697 39.2645213)"},{"type":"node","id":4099950780,"tags":{"addr:city":"Casteddu/Cagliari","addr:housenumber":"9","addr:street":"Viale Regina Elena","name":"Incaspisano","operator":"Incaspisano","shop":"stationery"},"relations":[],"meta":{},"wkt":"Point(9.1169846 39.2159906)"},{"type":"node","id":4099962529,"tags":{"name":"Libreria Il Bastione","shop":"books","wheelchair":"limited"},"relations":[],"meta":{},"wkt":"Point(9.1164588 39.2154842)"},{"type":"node","id":4099999704,"tags":{"name":"Lidl","shop":"supermarket"},"relations":[],"meta":{},"wkt":"Point(9.1396869 39.2347911)"},{"type":"node","id":4100041785,"tags":{"addr:city":"Cagliari","addr:housenumber":"19","addr:postcode":"09128","addr:street":"Via Pasquale Paoli","name":"Feltrinelli Point","shop":"books"},"relations":[],"meta":{},"wkt":"Point(9.1225736 39.2195506)"},{"type":"node","id":4100072905,"tags":{"books":"comic","name":"Succa","shop":"books"},"relations":[],"meta":{},"wkt":"Point(9.1220904 39.2161028)"},{"type":"node","id":4121652419,"tags":{"addr:city":"Sestu","addr:housenumber":"25","addr:postcode":"09028","addr:street":"Via Pietro Meloni","name":"Drogheria Loi Teresa S.n.c.","opening_hours":"Mo-Su 08:30-13:00;Mo-Fr 16:30-20:00;Sa 08:00-13:00","phone":"+39 070 238358","shop":"supermarket"},"relations":[],"meta":{},"wkt":"Point(9.088711 39.3042942)"},{"type":"node","id":4133305484,"tags":{"shop":"bakery"},"relations":[],"meta":{},"wkt":"Point(9.1732313 39.2377162)"},{"type":"node","id":4133311993,"tags":{"name":"Ninny","shop":"convenience"},"relations":[],"meta":{},"wkt":"Point(9.1734231 39.2380927)"},{"type":"node","id":4167721548,"tags":{"addr:city":"Quartu Sant'Elena","addr:street":"Via Guglielmo Marconi","name":"Conad Superstore","operator":"CONAD Soc. Coop.","shop":"supermarket"},"relations":[],"meta":{},"wkt":"Point(9.1949841 39.2484799)"},{"type":"node","id":4167721549,"tags":{"addr:city":"Quartu Sant'Elena","addr:street":"Via Guglielmo Marconi","name":"Brico Io","shop":"doityourself"},"relations":[],"meta":{},"wkt":"Point(9.1947611 39.2482761)"},{"type":"node","id":4177882889,"tags":{"addr:city":"Quartu Sant'Elena","addr:housenumber":"4","addr:postcode":"09045","addr:street":"Via Pietro Mascagni","name":"Marie Patisserie","shop":"pastry"},"relations":[],"meta":{},"wkt":"Point(9.1743939 39.2396187)"},{"type":"node","id":4213395454,"tags":{"addr:city":"Cagliari","addr:housenumber":"3","addr:street":"Via Ischia","name":"Gieffe","shop":"supermarket","wheelchair":"yes"},"relations":[],"meta":{},"wkt":"Point(9.1601009 39.201503)"},{"type":"node","id":4213401091,"tags":{"addr:city":"Cagliari","addr:housenumber":"4","addr:street":"Via Talete","name":"Gieffe","shop":"supermarket"},"relations":[],"meta":{},"wkt":"Point(9.1335775 39.236694)"},{"type":"node","id":4213412890,"tags":{"addr:city":"Selargius","addr:housenumber":"3","addr:place":"Su Planu","addr:street":"Via Monte Gran San Bernardo","name":"Gieffe","shop":"supermarket"},"relations":[],"meta":{},"wkt":"Point(9.1030614 39.2579716)"},{"type":"node","id":4213412992,"tags":{"addr:city":"Cagliari","addr:housenumber":"13","addr:place":"San Bartolomeo","addr:street":"Via Francesco Alziator","name":"Gieffe","shop":"supermarket"},"relations":[],"meta":{},"wkt":"Point(9.1391826 39.1991707)"},{"type":"node","id":4213412993,"tags":{"addr:city":"Cagliari","addr:housenumber":"22","addr:street":"Via Arcangelo Corelli","name":"Gieffe","shop":"supermarket"},"relations":[],"meta":{},"wkt":"Point(9.128452 39.2228061)"},{"type":"node","id":4213453689,"tags":{"addr:city":"Cagliari","addr:housenumber":"60","addr:place":"Santa Gilla","addr:street":"Via San Simone","name":"Auchan","shop":"supermarket"},"relations":[],"meta":{},"wkt":"Point(9.091201 39.232179)"},{"type":"node","id":4213453690,"tags":{"addr:city":"Cagliari","addr:housenumber":"27","addr:street":"Via Dante Alighieri","name":"Gieffe","shop":"supermarket"},"relations":[],"meta":{},"wkt":"Point(9.1251432 39.2188595)"},{"type":"node","id":4213453789,"tags":{"addr:city":"Cagliari","addr:housenumber":"35","addr:place":"Pirri","addr:street":"Via Dolianova","name":"Auchan","shop":"supermarket","wheelchair":"yes"},"relations":[],"meta":{},"wkt":"Point(9.1361551 39.2475737)"},{"type":"node","id":4213453790,"tags":{"addr:city":"Quartu Sant'Elena","addr:housenumber":"1","addr:street":"Via Is Pardinas","contact:phone":"+39 070 53260620","name":"Gieffe","shop":"supermarket"},"relations":[],"meta":{},"wkt":"Point(9.246555 39.225157)"},{"type":"node","id":4213453889,"tags":{"addr:city":"Cagliari","addr:housenumber":"25","addr:street":"Via Giovanni Battista Tuveri","name":"Gieffe","shop":"supermarket"},"relations":[],"meta":{},"wkt":"Point(9.1287835 39.2186135)"},{"type":"node","id":4213453989,"tags":{"addr:city":"Cagliari","addr:housenumber":"87","addr:street":"Via Dante Alighieri","name":"Gieffe","operator":"Gieffe S.r.l.","phone":"+39 070 53260670","shop":"supermarket"},"relations":[],"meta":{},"wkt":"Point(9.1252845 39.2226934)"},{"type":"node","id":4213454089,"tags":{"addr:city":"Cagliari","addr:housenumber":"1b","addr:place":"Pirri","addr:street":"Via della Resistenza","name":"Gieffe","shop":"supermarket"},"relations":[],"meta":{},"wkt":"Point(9.1310068 39.2454802)"},{"type":"node","id":4213454189,"tags":{"addr:city":"Sinnai","addr:housenumber":"16","addr:street":"Via Giotto","name":"Gieffe","shop":"supermarket"},"relations":[],"meta":{},"wkt":"Point(9.195669 39.304862)"},{"type":"node","id":4213455202,"tags":{"addr:city":"Cagliari","addr:housenumber":"101","addr:street":"Via Sant'Alenixedda","name":"Super Pan","shop":"supermarket"},"relations":[],"meta":{},"wkt":"Point(9.1239815 39.2259885)"},{"type":"node","id":4213455203,"tags":{"addr:city":"Assemini","addr:housenumber":"217","addr:street":"Via Carmine","name":"Super Pan","shop":"supermarket"},"relations":[],"meta":{},"wkt":"Point(9.0201661 39.2805694)"},{"type":"node","id":4213461094,"tags":{"addr:city":"Assemini","addr:street":"Via Trieste","name":"Super Pan","shop":"supermarket"},"relations":[],"meta":{},"wkt":"Point(8.9933404 39.2926861)"},{"type":"node","id":4213496990,"tags":{"addr:city":"Cagliari","addr:street":"Via Giovanni Cinquini","name":"Super Pan","shop":"supermarket"},"relations":[],"meta":{},"wkt":"Point(9.1068942 39.2422079)"},{"type":"node","id":4213505890,"tags":{"addr:city":"Cagliari","addr:housenumber":"18","addr:street":"Via Santa Gilla","name":"Super Pan","shop":"supermarket","wheelchair":"yes"},"relations":[],"meta":{},"wkt":"Point(9.0992241 39.2265762)"},{"type":"node","id":4213506489,"tags":{"addr:city":"Sestu","addr:street":"ss 131","name":"Iper Pan","shop":"supermarket"},"relations":[],"meta":{},"wkt":"Point(9.0666009 39.3049395)"},{"type":"node","id":4213506589,"tags":{"addr:city":"Decimomannu","addr:street":"Via Ugo Foscolo","name":"Nonna Isa","shop":"supermarket"},"relations":[],"meta":{},"wkt":"Point(8.9646831 39.3088895)"},{"type":"node","id":4213506590,"tags":{"addr:city":"Cagliari","addr:street":"Via Filippo Figari","name":"Super Pan","shop":"supermarket"},"relations":[],"meta":{},"wkt":"Point(9.126002 39.2317746)"},{"type":"node","id":4213506591,"tags":{"addr:city":"Cagliari","addr:housenumber":"4","addr:street":"Via Calamattia","name":"Super Pan","shop":"supermarket"},"relations":[],"meta":{},"wkt":"Point(9.1224894 39.2385129)"},{"type":"node","id":4213506592,"tags":{"addr:city":"Selargius","addr:street":"Via Piero della Francesca","name":"Super Pan","shop":"supermarket"},"relations":[],"meta":{},"wkt":"Point(9.1034259 39.2531377)"},{"type":"node","id":4213506689,"tags":{"addr:city":"Cagliari","addr:housenumber":"39","addr:street":"Via Baldassarre Castiglione","name":"Super Pan","shop":"supermarket"},"relations":[],"meta":{},"wkt":"Point(9.1300295 39.2304967)"},{"type":"node","id":4213523193,"tags":{"addr:city":"Selargius","addr:street":"Via San Nicolò","name":"Super Pan","shop":"supermarket"},"relations":[],"meta":{},"wkt":"Point(9.1765691 39.2591835)"},{"type":"node","id":4213523292,"tags":{"addr:city":"Cagliari","addr:housenumber":"161","addr:street":"Viale Guglielmo Marconi","name":"Iper Pan","shop":"supermarket"},"relations":[],"meta":{},"wkt":"Point(9.1390288 39.2343294)"},{"type":"node","id":4213532192,"tags":{"addr:street":"Viale Guglielmo Marconi","name":"Carrefour","shop":"supermarket"},"relations":[],"meta":{},"wkt":"Point(9.165916 39.2439448)"},{"type":"node","id":4213548889,"tags":{"addr:city":"Quartu Sant'Elena","addr:street":"Via Fiume","name":"Super Pan","shop":"supermarket"},"relations":[],"meta":{},"wkt":"Point(9.2053801 39.2352998)"},{"type":"node","id":4213559889,"tags":{"addr:city":"Elmas","addr:street":"Via dell'Arma Azzurra","name":"Nonna Isa","shop":"supermarket"},"relations":[],"meta":{},"wkt":"Point(9.049902 39.2661804)"},{"type":"node","id":4213586593,"tags":{"addr:housenumber":"21","addr:street":"Via dei Valenzani","name":"Conad Superstore","operator":"CONAD","shop":"supermarket"},"relations":[],"meta":{},"wkt":"Point(9.1211898 39.2351859)"},{"type":"node","id":4213587392,"tags":{"addr:city":"Cagliari","addr:housenumber":"111","addr:street":"Via Is Mirrionis","name":"Conad City","shop":"supermarket"},"relations":[],"meta":{},"wkt":"Point(9.108515 39.236088)"},{"type":"node","id":4213587393,"tags":{"addr:city":"Sinnai","addr:housenumber":"87","addr:street":"Via della Libertà","name":"Gieffe Despar","shop":"supermarket"},"relations":[],"meta":{},"wkt":"Point(9.2075465 39.2984779)"},{"type":"node","id":4213695244,"tags":{"addr:city":"Sinnai","addr:place":"Zona Industriale Sienis","name":"Conad Superstore","shop":"supermarket"},"relations":[],"meta":{},"wkt":"Point(9.2158607 39.2914466)"},{"type":"node","id":4213695317,"tags":{"addr:city":"Cagliari","addr:housenumber":"7","addr:street":"Via S'Arrulloni","name":"Conad City","shop":"convenience"},"relations":[],"meta":{},"wkt":"Point(9.1485481 39.1984563)"},{"type":"node","id":4213702051,"tags":{"addr:city":"Maracalogonis","addr:housenumber":"1","addr:street":"Via Umberto I","name":"Margherita conad","shop":"convenience"},"relations":[],"meta":{},"wkt":"Point(9.2283077 39.2877813)"},{"type":"node","id":4213808390,"tags":{"addr:city":"Cagliari","addr:housenumber":"81","addr:street":"Via Is Maglias","name":"Amelia Pam","shop":"supermarket"},"relations":[],"meta":{},"wkt":"Point(9.1023429 39.2332469)"},{"type":"node","id":4213811246,"tags":{"addr:city":"Cagliari","addr:housenumber":"108","addr:street":"Via Goffredo Mameli","name":"Amelia Pam","shop":"supermarket"},"relations":[],"meta":{},"wkt":"Point(9.1080014 39.2189388)"},{"type":"node","id":4213811247,"tags":{"addr:city":"Assemini","addr:housenumber":"1","addr:street":"Via Giorgio Asproni","name":"Pam","shop":"supermarket"},"relations":[],"meta":{},"wkt":"Point(9.0004855 39.2835395)"},{"type":"node","id":4213811248,"tags":{"addr:city":"Settimo San Pietro","addr:street":"Via della Libertà","name":"Pam","shop":"convenience"},"relations":[],"meta":{},"wkt":"Point(9.1856482 39.2930376)"},{"type":"node","id":4213812790,"tags":{"addr:city":"Cagliari","addr:housenumber":"28","addr:street":"Piazza Giovanni XXIII","name":"Amelia Pam","shop":"supermarket"},"relations":[],"meta":{},"wkt":"Point(9.1268496 39.2271236)"},{"type":"node","id":4213814889,"tags":{"addr:city":"Pirri","addr:housenumber":"159","addr:street":"Via Santa Maria Chiara","name":"Amelia Pam","shop":"supermarket","wheelchair":"yes"},"relations":[],"meta":{},"wkt":"Point(9.120084 39.2411014)"},{"type":"node","id":4213814890,"tags":{"addr:city":"Cagliari","addr:housenumber":"42","addr:street":"Via Pierluigi da Palestrina","name":"Crai","shop":"convenience"},"relations":[],"meta":{},"wkt":"Point(9.13008 39.2219095)"},{"type":"node","id":4213814891,"tags":{"addr:city":"Assemini","addr:housenumber":"5","addr:street":"Via Cagliari","name":"Crai","shop":"supermarket"},"relations":[],"meta":{},"wkt":"Point(9.0036713 39.2880465)"},{"type":"node","id":4213816620,"tags":{"addr:city":"Settimo San Pietro","addr:housenumber":"15","addr:street":"Via Antonio Gramsci","name":"Pam","shop":"convenience"},"relations":[],"meta":{},"wkt":"Point(9.186744 39.2889565)"},{"type":"node","id":4213816621,"tags":{"addr:city":"Sinnai","addr:housenumber":"1","addr:street":"Via Sant'Elena","name":"Pam","shop":"supermarket"},"relations":[],"meta":{},"wkt":"Point(9.2111539 39.3025687)"},{"type":"node","id":4213816991,"tags":{"addr:city":"Cagliari","addr:housenumber":"59","addr:street":"Via Mentana","name":"Metà","shop":"convenience"},"relations":[],"meta":{},"wkt":"Point(9.1329159 39.2404864)"},{"type":"node","id":4213817313,"tags":{"addr:city":"Quartu Sant'Elena","addr:housenumber":"102","addr:street":"Via Italia","name":"Amelia Pam","shop":"supermarket"},"relations":[],"meta":{},"wkt":"Point(9.2102825 39.2361741)"},{"type":"node","id":4213827894,"tags":{"addr:city":"Assemini","addr:housenumber":"74","addr:street":"Via Piave","name":"Pam","shop":"supermarket"},"relations":[],"meta":{},"wkt":"Point(9.0003408 39.2954318)"},{"type":"node","id":4213830010,"tags":{"addr:city":"Cagliari","addr:housenumber":"10","addr:street":"Via dei Colombi","name":"Amelia Pam","shop":"supermarket"},"relations":[],"meta":{},"wkt":"Point(9.1327542 39.2096741)"},{"type":"node","id":4213830011,"tags":{"addr:city":"Sinnai","addr:street":"Via Giacomo Puccini","name":"Pam","shop":"convenience"},"relations":[],"meta":{},"wkt":"Point(9.2004177 39.2978966)"},{"type":"node","id":4215114791,"tags":{"addr:city":"Monserrato","addr:street":"Via Monte Arci","name":"Simply Market","shop":"supermarket"},"relations":[],"meta":{},"wkt":"Point(9.1495761 39.2543902)"},{"type":"node","id":4215175793,"tags":{"addr:city":"Sinnai","addr:housenumber":"67","addr:street":"Via Ninasuni","name":"Simply Market","shop":"supermarket"},"relations":[],"meta":{},"wkt":"Point(9.2041138 39.3043535)"},{"type":"node","id":4215565998,"tags":{"addr:city":"Cagliari","addr:housenumber":"73","addr:street":"Via Francesco Cocco Ortu","name":"Fresco Dì","shop":"convenience"},"relations":[],"meta":{},"wkt":"Point(9.1226463 39.2234418)"},{"type":"node","id":4215591593,"tags":{"addr:city":"Cagliari","addr:housenumber":"1","addr:street":"Via Is Maglias","name":"Nonna Isa","shop":"supermarket"},"relations":[],"meta":{},"wkt":"Point(9.0998948 39.2365722)"},{"type":"node","id":4215591594,"tags":{"addr:city":"Cagliari","addr:housenumber":"108","addr:street":"Viale Elmas","name":"Nonna Isa","shop":"supermarket"},"relations":[],"meta":{},"wkt":"Point(9.0905094 39.242454)"},{"type":"node","id":4228901255,"tags":{"addr:city":"Cagliari","addr:housenumber":"10","addr:street":"Piazza della Repubblica","name":"Yogurtlandia","shop":"dairy","source":"Regione Autonoma della Sardegna (www.sardegnageoportale.it)"},"relations":[],"meta":{},"wkt":"Point(9.1255682 39.2169256)"},{"type":"node","id":4228908282,"tags":{"addr:city":"Cagliari","addr:housenumber":"110","addr:street":"Via Giovanni Battista Tuveri","name":"Medisard","operator":"Giramondo","shop":"travel_agency","source":"Regione Autonoma della Sardegna (www.sardegnageoportale.it)"},"relations":[],"meta":{},"wkt":"Point(9.129284 39.2192472)"},{"type":"node","id":4229049658,"tags":{"addr:city":"Cagliari","addr:housenumber":"2","addr:street":"Via Logudoro","name":"Il mago del pulito","opening_hours":"08:30-13:00,16:30-20:00","phone":"3388786488","shop":"laundry","source":"Regione Autonoma della Sardegna (www.sardegnageoportale.it)"},"relations":[],"meta":{},"wkt":"Point(9.1208251 39.2141239)"},{"type":"node","id":4229087819,"tags":{"addr:city":"Cagliari","addr:housenumber":"250","addr:street":"Corso Vittorio Emanuele II","name":"Recut","shop":"hairdresser","source":"Regione Autonoma della Sardegna (www.sardegnageoportale.it)","wheelchair":"no"},"relations":[],"meta":{},"wkt":"Point(9.108951 39.2194252)"},{"type":"node","id":4229098870,"tags":{"addr:city":"Cagliari","addr:housenumber":"27","addr:street":"Via Giovanni Battista Tuveri","name":"Despar","operator":"Gieffe S.r.l.","shop":"supermarket","source":"Regione Autonoma della Sardegna (www.sardegnageoportale.it)"},"relations":[],"meta":{},"wkt":"Point(9.1288218 39.2186869)"},{"type":"node","id":4229537827,"tags":{"addr:city":"Cagliari","addr:housenumber":"58 b","addr:street":"Via Giovanni Battista Tuveri","name":"Il fornaio","shop":"bakery","source":"Regione Autonoma della Sardegna (www.sardegnageoportale.it)"},"relations":[],"meta":{},"wkt":"Point(9.127834 39.218292)"},{"type":"node","id":4229553798,"tags":{"addr:city":"Cagliari","addr:housenumber":"54A","addr:street":"Via Giovanni Battista Tuveri","name":"Saponi e Profumi","operator":"Saponi e Profumi","shop":"cosmetics","source":"Regione Autonoma della Sardegna (www.sardegnageoportale.it)"},"relations":[],"meta":{},"wkt":"Point(9.1275498 39.2181281)"},{"type":"node","id":4229580804,"tags":{"addr:city":"Cagliari","addr:housenumber":"50","addr:street":"Via Dante Alighieri","name":"Marcello","shop":"clothes","source":"Regione Autonoma della Sardegna (www.sardegnageoportale.it)"},"relations":[],"meta":{},"wkt":"Point(9.1247358 39.2168276)"},{"type":"node","id":4229587629,"tags":{"addr:city":"Cagliari","addr:housenumber":"52A","addr:street":"Via Dante Alighieri","name":"Panificio Pasticceria Sardegna","shop":"bakery","source":"Regione Autonoma della Sardegna (www.sardegnageoportale.it)"},"relations":[],"meta":{},"wkt":"Point(9.1247404 39.2169255)"},{"type":"node","id":4229590042,"tags":{"addr:city":"Cagliari","addr:housenumber":"56","addr:street":"Via Giovanni Battista Tuveri","shop":"tobacco","source":"Regione Autonoma della Sardegna (www.sardegnageoportale.it)"},"relations":[],"meta":{},"wkt":"Point(9.1277378 39.2182299)"},{"type":"node","id":4229609947,"tags":{"addr:city":"Cagliari","addr:housenumber":"65","addr:street":"Via Sidney Sonnino","name":"Nonna Isa","operator":"Camporosso srl","phone":"+39 070 670167","shop":"supermarket","source":"Regione Autonoma della Sardegna (www.sardegnageoportale.it)"},"relations":[],"meta":{},"wkt":"Point(9.1194222 39.2129812)"},{"type":"node","id":4229617995,"tags":{"addr:city":"Cagliari","addr:housenumber":"86","addr:street":"Via Giovanni Battista Tuveri","name":"Nuova rekord","shop":"laundry","source":"Regione Autonoma della Sardegna (www.sardegnageoportale.it)"},"relations":[],"meta":{},"wkt":"Point(9.1288032 39.2189014)"},{"type":"node","id":4229618994,"tags":{"addr:city":"Cagliari","addr:housenumber":"64","addr:street":"Via Giovanni Battista Tuveri","name":"Parafarmacia Araba Fenice","shop":"medical_supply","source":"Regione Autonoma della Sardegna (www.sardegnageoportale.it)"},"relations":[],"meta":{},"wkt":"Point(9.1280708 39.2184382)"},{"type":"node","id":4229619990,"tags":{"addr:city":"Cagliari","addr:housenumber":"66","addr:street":"Via Giovanni Battista Tuveri","name":"officina autorizzata Alfa Romeo","operator":"Alfa Romeo","shop":"car_repair","source":"Regione Autonoma della Sardegna (www.sardegnageoportale.it)"},"relations":[],"meta":{},"wkt":"Point(9.1280999 39.2184522)"},{"type":"node","id":4229634286,"tags":{"addr:city":"Cagliari","addr:housenumber":"74","addr:street":"Via Giovanni Maria Angioy","name":"Ferramenta-Coltelleria","operator":"Clemente Binelli &C. Srl","shop":"hardware","source":"Regione Autonoma della Sardegna (www.sardegnageoportale.it)"},"relations":[],"meta":{},"wkt":"Point(9.1121768 39.2171247)"},{"type":"node","id":4229647104,"tags":{"addr:city":"Cagliari","addr:housenumber":"8","addr:street":"Piazza Tristani","shop":"supermarket","source":"Regione Autonoma della Sardegna (www.sardegnageoportale.it)"},"relations":[],"meta":{},"wkt":"Point(9.1189533 39.2251334)"},{"type":"node","id":4229666300,"tags":{"addr:city":"Cagliari","addr:housenumber":"90","addr:street":"Via Giovanni Battista Tuveri","name":"Macelleria Dessì","shop":"butcher","source":"Regione Autonoma della Sardegna (www.sardegnageoportale.it)"},"relations":[],"meta":{},"wkt":"Point(9.1288698 39.2189506)"},{"type":"node","id":4229666623,"tags":{"addr:city":"Cagliari","addr:housenumber":"9A","addr:street":"Via Sebastiano Satta","name":"Margherita","operator":"Conad","phone":"+39 070 670665","shop":"supermarket","source":"Regione Autonoma della Sardegna (www.sardegnageoportale.it)"},"relations":[],"meta":{},"wkt":"Point(9.1219786 39.2164979)"},{"type":"node","id":4229674494,"tags":{"addr:city":"Cagliari","addr:housenumber":"96","addr:street":"Via Giovanni Battista Tuveri","name":"Supermercato Gruppo Isa","operator":"Gruppo Isa","shop":"supermarket","source":"Regione Autonoma della Sardegna (www.sardegnageoportale.it)"},"relations":[],"meta":{},"wkt":"Point(9.1289825 39.2190368)"},{"type":"node","id":4258089714,"tags":{"addr:housenumber":"19","addr:postcode":"09128","addr:street":"Via Giovanni Pascoli","email":"ilpanificiomeloni@alice.it","name":"DA.MARÒ Pane&Dolcezze","opening_hours":"Mo-Su 07:00-14:00","phone":"+39 070 480233","shop":"bakery"},"relations":[],"meta":{},"wkt":"Point(9.1264979 39.2236816)"},{"type":"node","id":4258089901,"tags":{"addr:housenumber":"Box 188","addr:postcode":"09128","addr:street":"Via Francesco Cocco Ortu","email":"Damaro.meloni@gmail.com","name":"DA.MARÒ Pane&Dolcezze","opening_hours":"Mo-Sa 07:00-14:00","phone":"+39 070 454131","shop":"bakery"},"relations":[],"meta":{},"wkt":"Point(9.1231727 39.2229555)"},{"type":"node","id":4258090105,"tags":{"addr:housenumber":"64","addr:postcode":"09128","addr:street":"Piazza Giovanni XXIII","email":"ilpanificiomeloni@alice.it","name":"DA.MARÒ Pane&Dolcezze","opening_hours":"Mo-Su 07:00-14:00","phone":"+39 070 482006","shop":"bakery"},"relations":[],"meta":{},"wkt":"Point(9.1258769 39.2266592)"},{"type":"node","id":4258502891,"tags":{"addr:housenumber":"84","addr:postcode":"09125","addr:street":"Viale Bonaria","email":"damaro.meloni@gmail.com","name":"DA.MARÒ Pane&Dolcezze","opening_hours":"Mo-Sa 07:00-14:00","phone":"+39 070 684783","shop":"bakery"},"relations":[],"meta":{},"wkt":"Point(9.1198803 39.2109489)"},{"type":"node","id":4258503490,"tags":{"addr:housenumber":"295","addr:postcode":"09123","addr:street":"Corso Vittorio Emanuele II","email":"Damaro.meloni@gmail.com","internet_access":"wlan","name":"DA.MARÒ Pane&Dolcezze","opening_hours":"Mo-Su 07:00-14:00","phone":"+39 070 6670284","shop":"confectionery","wheelchair":"limited"},"relations":[],"meta":{},"wkt":"Point(9.1082077 39.2198877)"},{"type":"node","id":4273939094,"tags":{"addr:city":"Casteddu/Cagliari","addr:housenumber":"15","addr:postcode":"09121-09131, 09134","addr:street":"Via Mandrolisai","name":"Sitor","phone":"+39 070 288948","shop":"medical_supply","toilets:wheelchair":"yes","wheelchair":"yes"},"relations":[],"meta":{},"wkt":"Point(9.1018015 39.2392722)"},{"type":"node","id":4274005392,"tags":{"addr:city":"Casteddu/Cagliari","addr:housenumber":"72D","addr:postcode":"09121-09131, 09134","addr:street":"Via Roma","name":"Zoo market","shop":"pet","wheelchair":"yes"},"relations":[],"meta":{},"wkt":"Point(9.1056758 39.2185105)"},{"type":"node","id":4278074531,"tags":{"name":"Maria Francesca Delogu","shop":"convenience"},"relations":[],"meta":{},"wkt":"Point(9.1099919 39.2187038)"},{"type":"node","id":4395359169,"tags":{"name":"Pesceria Sandro Marini","shop":"seafood"},"relations":[],"meta":{},"wkt":"Point(8.9263364 38.9337681)"},{"type":"node","id":4438870890,"tags":{"name":"Ringo","shop":"hairdresser"},"relations":[],"meta":{},"wkt":"Point(9.1117384 39.2180698)"},{"type":"node","id":4438870894,"tags":{"shop":"laundry"},"relations":[],"meta":{},"wkt":"Point(9.1101766 39.2170771)"},{"type":"node","id":4440523602,"tags":{"name":"Lavasecco Roberta","shop":"dry_cleaning"},"relations":[],"meta":{},"wkt":"Point(9.1080895 39.2199978)"},{"type":"node","id":4445845530,"tags":{"name":"Lo squisito","shop":"deli"},"relations":[],"meta":{},"wkt":"Point(9.1237089 39.2226602)"},{"type":"node","id":4445938918,"tags":{"addr:city":"Cagliari","addr:housenumber":"91","addr:street":"Via Dante Alighieri","name":"Intimissimi","shop":"clothes"},"relations":[],"meta":{},"wkt":"Point(9.1252714 39.2229959)"},{"type":"node","id":4445938919,"tags":{"addr:housenumber":"179A","addr:street":"Via Sidney Sonnino","name":"Kasanova","phone":"+39 070 684729","shop":"houseware"},"relations":[],"meta":{},"wkt":"Point(9.1213099 39.217326)"},{"type":"node","id":4446335162,"tags":{"shop":"newsagent"},"relations":[],"meta":{},"wkt":"Point(9.1303319 39.2204776)"},{"type":"node","id":4449240591,"tags":{"name":"Libreria Universitaria Bonilli","shop":"books","website":"http://www.libreriabonilli.it/"},"relations":[],"meta":{},"wkt":"Point(9.111911 39.2194608)"},{"type":"node","id":4449256152,"tags":{"addr:housenumber":"9","addr:street":"Via Santa Margherita","contact:phone":"+39 070 670468","name":"Coccodì Il dolce e il salato","ref:vatin":"IT01683830929","shop":"bakery"},"relations":[],"meta":{},"wkt":"Point(9.1137509 39.218417)"},{"type":"node","id":4471060124,"tags":{"addr:city":"Quartu Sant'Elena","addr:housenumber":"73","addr:postcode":"09045","addr:street":"Via Fiume","name":"Amelia Pam","shop":"supermarket"},"relations":[],"meta":{},"wkt":"Point(9.1954114 39.2382152)"},{"type":"node","id":4471060125,"tags":{"addr:city":"Quartu Sant'Elena","addr:housenumber":"6","addr:postcode":"09045","addr:street":"Via Giovanni Cimabue","name":"Amelia Pam","shop":"supermarket","wheelchair":"limited"},"relations":[],"meta":{},"wkt":"Point(9.1900187 39.2460038)"},{"type":"node","id":4471060126,"tags":{"addr:city":"Quartu Sant'Elena","addr:housenumber":"41","addr:postcode":"09045","addr:street":"Via Cagliari","name":"Conad City","shop":"supermarket","wheelchair":"yes"},"relations":[],"meta":{},"wkt":"Point(9.1810933 39.2430171)"},{"type":"node","id":4471060127,"tags":{"addr:city":"Quartu Sant'Elena","addr:housenumber":"128","addr:postcode":"09045","addr:street":"Via Giambattista Vico","name":"Fioricoltura Althea","operator":"Deiana Roberto","phone":"+39 070815008","shop":"florist","wheelchair":"no"},"relations":[],"meta":{},"wkt":"Point(9.1851774 39.234349)"},{"type":"node","id":4471060129,"tags":{"addr:city":"Quartu Sant'Elena","addr:housenumber":"2","addr:postcode":"09045","addr:street":"Via Giuseppe Parini","name":"Market Gieffe","shop":"supermarket"},"relations":[],"meta":{},"wkt":"Point(9.1802032 39.2379734)"},{"type":"node","id":4471060131,"tags":{"addr:city":"Quartu Sant'Elena","addr:housenumber":"29","addr:postcode":"09045","addr:street":"Via Ugo Foscolo","name":"Nonna Isa","shop":"convenience","wheelchair":"no"},"relations":[],"meta":{},"wkt":"Point(9.1842253 39.2353715)"},{"type":"node","id":4471098300,"tags":{"addr:city":"Quartu Sant'Elena","addr:housenumber":"211","addr:postcode":"09045","addr:street":"Via Guglielmo Marconi","name":"Super Pan","shop":"supermarket","wheelchair":"yes"},"relations":[],"meta":{},"wkt":"Point(9.1813005 39.2420183)"},{"type":"node","id":4471683759,"tags":{"addr:city":"Selargius","addr:housenumber":"60","addr:postcode":"09047","addr:street":"Via Trieste","name":"Conad Superstore","shop":"supermarket"},"relations":[],"meta":{},"wkt":"Point(9.1519497 39.2528399)"},{"type":"node","id":4471688945,"tags":{"addr:city":"Selargius","addr:housenumber":"18","addr:postcode":"09047","addr:street":"Piazza Matteo Maria Boiardo"},"relations":[],"meta":{},"wkt":"Point(9.1061834 39.2546168)"},{"type":"node","id":4471693440,"tags":{"addr:city":"Selargius","addr:housenumber":"30","addr:postcode":"09047","addr:street":"Piazza Matteo Maria Boiardo"},"relations":[],"meta":{},"wkt":"Point(9.1058772 39.2549595)"},{"type":"node","id":4472375094,"tags":{"addr:city":"Quartucciu","addr:housenumber":"145","addr:postcode":"09044","addr:street":"Via Nazionale","name":"Metà","shop":"convenience"},"relations":[],"meta":{},"wkt":"Point(9.1807107 39.2546508)"},{"type":"node","id":4472389865,"tags":{"addr:city":"Quartucciu","addr:housenumber":"18","addr:postcode":"09044","addr:street":"Via Quartu","name":"Sigma","shop":"convenience"},"relations":[],"meta":{},"wkt":"Point(9.1780335 39.2506911)"},{"type":"node","id":4475562284,"tags":{"addr:city":"Sestu","addr:housenumber":"35","addr:postcode":"09028","addr:street":"Via Gaetano Salvemini","name":"Crai","shop":"convenience"},"relations":[],"meta":{},"wkt":"Point(9.0888276 39.3069311)"},{"type":"node","id":4475562285,"tags":{"addr:city":"Sestu","addr:housenumber":"1","addr:postcode":"09028","addr:street":"Via Costituzione","name":"Gieffe","shop":"supermarket"},"relations":[],"meta":{},"wkt":"Point(9.0864424 39.2934421)"},{"type":"node","id":4475580965,"tags":{"addr:city":"Sestu","addr:housenumber":"280","addr:postcode":"09028","addr:street":"Via Monserrato","name":"Usai Isa","shop":"supermarket"},"relations":[],"meta":{},"wkt":"Point(9.0956199 39.2917811)"},{"type":"node","id":4475580966,"tags":{"addr:city":"Sestu","addr:housenumber":"103","addr:postcode":"09028","addr:street":"Via Monserrato","name":"Usai Isa","shop":"supermarket"},"relations":[],"meta":{},"wkt":"Point(9.0942665 39.2969739)"},{"type":"node","id":4475580967,"tags":{"addr:city":"Sestu","addr:housenumber":"19","addr:postcode":"09028","addr:street":"Via Gorizia","name":"Usai Isa","shop":"supermarket"},"relations":[],"meta":{},"wkt":"Point(9.0935288 39.3013401)"},{"type":"node","id":4479540257,"tags":{"addr:city":"Decimomannu","addr:housenumber":"87","addr:postcode":"09033","addr:street":"Via Nazionale","name":"Conad City","shop":"supermarket"},"relations":[],"meta":{},"wkt":"Point(8.963875 39.3098069)"},{"type":"node","id":4482268895,"tags":{"addr:city":"Uta","addr:housenumber":"42","addr:postcode":"09010","addr:street":"Via Torino","name":"LD Discount","shop":"supermarket"},"relations":[],"meta":{},"wkt":"Point(8.9488524 39.2964244)"},{"type":"node","id":4482283312,"tags":{"addr:city":"Uta","addr:housenumber":"42A","addr:postcode":"09010","addr:street":"Via Roma","name":"Panificio Serreli","shop":"bakery"},"relations":[],"meta":{},"wkt":"Point(8.9561291 39.2898958)"},{"type":"node","id":4496805505,"tags":{"addr:city":"Sinnai","addr:housenumber":"1","addr:postcode":"09048","addr:street":"Via Concas","email":"kontakt@sardinien-roadbook.de","name":"Sardinien-Roadbook","phone":"+39 331 7680340","shop":"travel_agency","website":"http://www.sardinien-roadbook.de"},"relations":[],"meta":{},"wkt":"Point(9.2010419 39.3005246)"},{"type":"node","id":4562802951,"tags":{"addr:city":"Quartu Sant'Elena","addr:housenumber":"113","addr:postcode":"09045","addr:street":"Via Guglielmo Marconi","brand":"KTM","description":"KTM dealer","email":"planetmotors.ktm@gmail.com","name":"Planet Motors","opening_hours":"Mo-Fr 09:00-13:00,16:00-20:00; Sa 09:00-13:00; Su,PH off","operator":"Planet Motors S.r.l.","phone":"+39 70 881179","shop":"motorcycle","website":"http://www.planetmotors.it"},"relations":[],"meta":{},"wkt":"Point(9.176404 39.2420237)"},{"type":"node","id":4748725323,"tags":{"name":"Cocco Libreria","shop":"books","wheelchair":"limited"},"relations":[],"meta":{},"wkt":"Point(9.1154967 39.21588)"},{"type":"node","id":4748843522,"tags":{"name":"S'Isula","shop":"organic","wheelchair":"limited"},"relations":[],"meta":{},"wkt":"Point(9.1149417 39.2181467)"},{"type":"node","id":4849549459,"tags":{"name":"Vecchia Edicola","shop":"kiosk"},"relations":[],"meta":{},"wkt":"Point(8.9550657 39.2901632)"},{"type":"node","id":4849579735,"tags":{"shop":"kiosk"},"relations":[],"meta":{},"wkt":"Point(8.9572806 39.2893016)"},{"type":"node","id":4849587164,"tags":{"name":"Fruttivendolo","shop":"greengrocer"},"relations":[],"meta":{},"wkt":"Point(8.9507167 39.2892611)"},{"type":"node","id":4850820830,"tags":{"addr:city":"Cagliari","addr:housenumber":"88","addr:street":"Via San Benedetto","name":"Amelia Pam","shop":"supermarket"},"relations":[],"meta":{},"wkt":"Point(9.1287586 39.2246565)"},{"type":"node","id":4850856133,"tags":{"addr:city":"Cagliari","addr:housenumber":"51","addr:postcode":"09131","addr:street":"Via Giudice Guglielmo","name":"Vivo","shop":"supermarket","website":"http://www.brendolan.net/"},"relations":[],"meta":{},"wkt":"Point(9.1209755 39.22921)"},{"type":"node","id":4863984547,"tags":{"addr:housenumber":"30","addr:street":"Via Vincenzo Sulis","email":"info@donneconceptstore.com","name":"Donne Concept Store","operator":"Donne SRL","shop":"fashion"},"relations":[],"meta":{},"wkt":"Point(9.11777 39.2167358)"},{"type":"node","id":4910975902,"tags":{"name":"Unieuro","shop":"electronics"},"relations":[],"meta":{},"wkt":"Point(9.0685015 39.2936825)"},{"type":"node","id":4910975903,"tags":{"name":"Pittarosso","shop":"shoes"},"relations":[],"meta":{},"wkt":"Point(9.0679253 39.2941579)"},{"type":"node","id":4914949129,"tags":{"name":"jysk","shop":"furniture"},"relations":[],"meta":{},"wkt":"Point(9.0677853 39.2942923)"},{"type":"node","id":4914949135,"tags":{"name":"Prenatal","shop":"baby_goods"},"relations":[],"meta":{},"wkt":"Point(9.0736552 39.2823245)"},{"type":"node","id":4914956236,"tags":{"name":"Mondo Camerette","shop":"furniture"},"relations":[],"meta":{},"wkt":"Point(9.070898 39.2864671)"},{"type":"node","id":4916312857,"tags":{"addr:city":"Cagliari","addr:housenumber":"35","addr:postcode":"09125","addr:street":"Via Sidney Sonnino","name":"Poltronesofà","operator":"Poltronesofà","shop":"furniture"},"relations":[],"meta":{},"wkt":"Point(9.1188134 39.2114129)"},{"type":"node","id":4916320840,"tags":{"addr:city":"Cagliari","addr:housenumber":"169","addr:postcode":"09131","addr:street":"Viale Guglielmo Marconi","name":"Poltronesofà","operator":"Poltronesofà","shop":"furniture"},"relations":[],"meta":{},"wkt":"Point(9.1416946 39.2362075)"},{"type":"node","id":4916340773,"tags":{"name":"maurys","shop":"chemist"},"relations":[],"meta":{},"wkt":"Point(9.0955521 39.2481431)"},{"type":"node","id":4916359655,"tags":{"name":"Risparmio Casa","shop":"chemist"},"relations":[],"meta":{},"wkt":"Point(9.0929705 39.2516089)"},{"type":"node","id":4916380790,"tags":{"name":"Toys Center","shop":"toys"},"relations":[],"meta":{},"wkt":"Point(9.0603676 39.3107)"},{"type":"node","id":4916404372,"tags":{"addr:city":"Cagliari","addr:housenumber":"9","addr:postcode":"09127","addr:street":"Via Sebastiano Satta","name":"Divani&Divani","shop":"furniture"},"relations":[],"meta":{},"wkt":"Point(9.1220536 39.2166031)"},{"type":"node","id":4916418398,"tags":{"name":"Bricofer","shop":"doityourself"},"relations":[],"meta":{},"wkt":"Point(9.1205039 39.2391911)"},{"type":"node","id":4916608921,"tags":{"addr:city":"Cagliari","addr:housenumber":"275","addr:postcode":"09122","addr:street":"Viale Sant'Avendrace","name":"Berloni","shop":"furniture"},"relations":[],"meta":{},"wkt":"Point(9.0980184 39.2321773)"},{"type":"node","id":4916630216,"tags":{"name":"edue","shop":"furniture"},"relations":[],"meta":{},"wkt":"Point(9.1425273 39.2366785)"},{"type":"node","id":4916640058,"tags":{"addr:city":"Cagliari","addr:housenumber":"35","addr:postcode":"09134","addr:street":"Via Dolianova","name":"Eva Arredamenti Outlet","shop":"furniture"},"relations":[],"meta":{},"wkt":"Point(9.1349281 39.2492732)"},{"type":"node","id":4916679525,"tags":{"name":"Mobil discount","shop":"furniture"},"relations":[],"meta":{},"wkt":"Point(9.1114341 39.2346045)"},{"type":"node","id":4919047214,"tags":{"name":"Market La Cantoniera","shop":"supermarket"},"relations":[],"meta":{},"wkt":"Point(8.93531 38.9411029)"},{"type":"node","id":5122501621,"tags":{"name":"L'Unione sarda","shop":"newsagent"},"relations":[],"meta":{},"wkt":"Point(9.119989 39.2238207)"},{"type":"node","id":5122526921,"tags":{"name":"Pasticceria Manuel","shop":"bakery"},"relations":[],"meta":{},"wkt":"Point(9.1199028 39.2239872)"},{"type":"node","id":5122530622,"tags":{"name":"Autocarrozzeria","shop":"car_parts"},"relations":[],"meta":{},"wkt":"Point(9.1203371 39.2238711)"},{"type":"node","id":5124251723,"tags":{"name":"Betuas Primizie","shop":"greengrocer"},"relations":[],"meta":{},"wkt":"Point(9.0020078 39.0071438)"},{"type":"node","id":5125908621,"tags":{"name":"L'Unione sarda","shop":"newsagent"},"relations":[],"meta":{},"wkt":"Point(9.1077212 39.2361797)"},{"type":"node","id":5127039721,"tags":{"addr:housenumber":"47","name:en":"Tabacchi","shop":"gift"},"relations":[],"meta":{},"wkt":"Point(9.0008543 39.0108138)"},{"type":"node","id":5209855527,"tags":{"name":"Hard Discount","shop":"supermarket"},"relations":[],"meta":{},"wkt":"Point(8.9726922 39.3110468)"},{"type":"node","id":5209892335,"tags":{"addr:housenumber":"44","addr:postcode":"09033","addr:street":"Via delle Aie","name":"SuperPan","shop":"supermarket"},"relations":[],"meta":{},"wkt":"Point(8.973224 39.3115636)"},{"type":"node","id":5210688822,"tags":{"name":"Soha","name:en":"Soha Jewelry","shop":"jewelry"},"relations":[],"meta":{},"wkt":"Point(9.1180849 39.2170082)"},{"type":"node","id":5221446476,"tags":{"shop":"bakery"},"relations":[],"meta":{},"wkt":"Point(9.001987 39.0130859)"},{"type":"node","id":5231590023,"tags":{"addr:city":"Pula","addr:housenumber":"1","addr:postcode":"09010","addr:street":"Via Sant'Efisio","name":"Arte Sarda","operator":"Sollai R. e C.","shop":"gift","website":"artesardasollai.it"},"relations":[],"meta":{},"wkt":"Point(9.0006745 39.0047938)"},{"type":"node","id":5231590024,"tags":{"shop":"supermarket"},"relations":[],"meta":{},"wkt":"Point(9.0014484 39.0042804)"},{"type":"node","id":5233218648,"tags":{"name":"CTM point","shop":"ticket"},"relations":[],"meta":{},"wkt":"Point(9.1099352 39.215143)"},{"type":"node","id":5249381821,"tags":{"addr:housenumber":"83","addr:postcode":"09121","addr:street":"Via Doberdò","name":"Mozzarilandia","opening_hours":"Mo-Fr 07:30-13:30, 17:30-20:00; Sa 07:30-13:30","phone":"+393277413948","shop":"cheese","website":"http://www.mozzarilandia.com"},"relations":[],"meta":{},"wkt":"Point(9.1035059 39.2355406)"},{"type":"node","id":5277897233,"tags":{"shop":"hairdresser"},"relations":[],"meta":{},"wkt":"Point(8.9322891 38.9342104)"},{"type":"node","id":5329283530,"tags":{"shop":"kiosk"},"relations":[],"meta":{},"wkt":"Point(9.1488807 39.200454)"},{"type":"node","id":5401631499,"tags":{"addr:city":"Cagliari","addr:housenumber":"134","addr:street":"Via Giuseppe Garibaldi","name":"Bertola Skate","shop":"skateboard"},"relations":[],"meta":{},"wkt":"Point(9.1191279 39.2168303)"},{"type":"node","id":5412101521,"tags":{"name":"EuroSpin","name:en":"EuroSpin","opening_hours":"Mo-Sa 08:30-20:30; Su 08:30-13:00","shop":"supermarket","website":"https://www.eurospin.it/"},"relations":[],"meta":{},"wkt":"Point(9.1944623 39.2474087)"},{"type":"node","id":5412363599,"tags":{"name":"EuroSpin","name:en":"EuroSpin","opening_hours":"Mo-Su 08:30-20:30","shop":"supermarket","website":"https://www.eurospin.it/"},"relations":[],"meta":{},"wkt":"Point(9.0810585 39.285673)"},{"type":"node","id":5412363643,"tags":{"name":"EuroSpin","name:en":"EuroSpin","opening_hours":"Mo-Sa 08:30-21:00; Su 08:30-13:30,16:30-20:00","shop":"supermarket","website":"https://www.eurospin.it/"},"relations":[],"meta":{},"wkt":"Point(9.0917712 39.2416578)"},{"type":"node","id":5552806521,"tags":{"name":"Scuola Sub MM","shop":"sports","website":"http://www.manni-diving.net"},"relations":[],"meta":{},"wkt":"Point(9.4083154 39.1447698)"},{"type":"node","id":5566991521,"tags":{"name":"Ferramenta Spiga","shop":"hardware","wheelchair":"no"},"relations":[],"meta":{},"wkt":"Point(9.1050976 39.2203333)"}]