[{"type":"node","id":72990657,"tags":{"alt_name":"Casteddu","capital":"4","ele":"23","gfoss_id":"7406","is_in":"Cagliari, Sardegna, Italy","is_in:continent":"Europe","is_in:country":"Italy","is_in:country_code":"IT","is_in:iso_3166_2":"IT-CA","name":"Casteddu/Cagliari","name:ar":"كالياري","name:ca":"Càller","name:es":"Cagliari","name:fa":"کالیاری","name:it":"Cagliari","name:prefix":"city","name:ru":"Кальяри","name:sc":"Casteddu","name:uk":"Кальярі","name:zh":"卡利亚里","place":"city","population":"154478","postal_code":"09121-09131, 09134","ref:LOCODE":"ITCAG","source":"geodati.gfoss.it","website":"http://www.comune.cagliari.it/portale/","wikidata":"Q1897","wikipedia":"en:Cagliari"},"relations":[],"meta":{},"wkt":"Point(9.1128513 39.2169525)"},{"type":"node","id":72994199,"tags":{"alt_name":"L'Alguer","gfoss_id":"7210","int_name":"Alghero","name":"l'Alguer/Alghero","name:ca":"L'Alguer","name:es":"Alguer","name:it":"Alghero","name:ru":"Альгеро","name:sc":"S'Alighera","place":"city","population":"43800","postal_code":"07041","ref:LOCODE":"ITAHO","source":"geodati.gfoss.it","website":"http://www.comune.alghero.ss.it/","wikidata":"Q166282","wikipedia":"it:Alghero","wikipedia:ca":"L'Alguer","wikipedia:sc":"S'Alighera"},"relations":[],"meta":{},"wkt":"Point(8.3151473 40.5600205)"},{"type":"node","id":2615891334,"tags":{"alt_name:sc":"Tàttari","capital":"6","gfoss_id":"7271","name":"Sassari","name:ca":"Sàsser","name:co":"Sassari","name:fr":"Sassari","name:hu":"Sassari","name:it":"Sassari","name:ru":"Сассари","name:sc":"Tàtari","name:uk":"Сассарі","name:zh":"薩薩里","place":"city","population":"126576","postal_code":"07100, 07040","ref:ISTAT":"090064","ref:LOCODE":"ITQSS","ref:catasto":"I452","source":"geodati.gfoss.it","website":"http://www.comune.sassari.it/","wikidata":"Q13629","wikipedia":"it:Sassari","wikipedia:sc":"Tàtari"},"relations":[],"meta":{},"wkt":"Point(8.5610074 40.7232643)"}]