[{"type":"node","id":431256685,"tags":{"amenity":"bar"},"relations":[],"meta":{},"wkt":"Point(9.257745 40.5790465)"},{"type":"way","id":102705580,"tags":{"amenity":"bar","building":"yes","name":"Da Boe Bar"},"relations":[],"meta":{},"wkt":"Polygon(9.7709155 40.4231381,9.7708396 40.4231166,9.77087 40.4230538,9.7708453 40.4230468,9.7708649 40.4230063,9.7708806 40.4230107,9.7709125 40.4229441,9.7708926 40.4229379,9.7709124 40.422897,9.7709477 40.4229084,9.7709515 40.4229005,9.7710794 40.4229368,9.7710597 40.4229774,9.7710347 40.4229703,9.7709954 40.4230509,9.7708892 40.4230207,9.7708799 40.4230399,9.7709531 40.4230606,9.7709155 40.4231381)"},{"type":"way","id":125610288,"tags":{"amenity":"bar","building":"yes"},"relations":[],"meta":{},"wkt":"Polygon(9.156104 41.2399618,9.1560664 41.2399188,9.1561297 41.2398876,9.1561672 41.2399306,9.156104 41.2399618)"},{"type":"way","id":153779969,"tags":{"amenity":"bar","building":"yes","name":"Gennas"},"relations":[],"meta":{},"wkt":"Polygon(8.5716034 39.555714,8.5715648 39.5555931,8.5716088 39.5555848,8.5715921 39.5555325,8.571892 39.5554756,8.5718753 39.5554231,8.5719945 39.5554004,8.5720782 39.5556623,8.5718702 39.5557018,8.5718587 39.5556655,8.5716034 39.555714)"},{"type":"way","id":164725474,"tags":{"amenity":"bar","building":"yes"},"relations":[],"meta":{},"wkt":"Polygon(8.48991 40.1113154,8.4898 40.1112919,8.4898452 40.1111702,8.4899152 40.1111872,8.489948 40.1112248,8.48991 40.1113154)"},{"type":"way","id":166296749,"tags":{"amenity":"bar","building":"yes"},"relations":[],"meta":{},"wkt":"Polygon(9.6300585 40.1782592,9.6300608 40.1781299,9.6302651 40.178132,9.6302645 40.1781668,9.6303061 40.1781673,9.6303054 40.1782071,9.6302606 40.1782066,9.6302596 40.1782614,9.6300585 40.1782592)"},{"type":"way","id":172330063,"tags":{"amenity":"bar","building":"yes"},"relations":[],"meta":{},"wkt":"Polygon(9.5951651 39.3501024,9.5952507 39.3500495,9.5953536 39.3500582,9.595381 39.3500605,9.5954562 39.3501326,9.5954428 39.3502238,9.5953996 39.3502504,9.5953534 39.3502789,9.595246 39.3502708,9.5951937 39.3503003,9.5951699 39.3502789,9.5952098 39.3502495,9.5951594 39.3501973,9.5951632 39.3501347,9.5951651 39.3501024)"},{"type":"way","id":172351195,"tags":{"amenity":"bar","building":"yes","name":"Il Pappafico"},"relations":[],"meta":{},"wkt":"Polygon(9.6384711 39.4493041,9.6384686 39.4492294,9.6385075 39.4492286,9.6385059 39.4491802,9.6386393 39.4491775,9.638645 39.4493465,9.6385145 39.4493492,9.6385129 39.4493032,9.6384711 39.4493041)"},{"type":"way","id":176092755,"tags":{"amenity":"bar","building":"yes","name":"Il Muretto Lounge Café"},"relations":[],"meta":{},"wkt":"Polygon(9.1647779 40.7860266,9.1647177 40.7859175,9.1647879 40.7858953,9.1648481 40.7860044,9.1647779 40.7860266)"},{"type":"way","id":178636331,"tags":{"amenity":"bar","building":"hut","internet_access":"wlan","internet_access:fee":"no","name":"Guaranà","official_name":"Ciringhito Guaranà S.a.s.","phone":"+39 345 0621468","ref:vatin":"IT01009770957","website":"http://www.facebook.com/guarana.chioscobar"},"relations":[],"meta":{},"wkt":"Polygon(8.3993359 40.0453235,8.3994164 40.0452243,8.3995292 40.0452779,8.3994487 40.0453771,8.3993359 40.0453235)"},{"type":"way","id":178636478,"tags":{"amenity":"bar","building":"hut","name":"Sottovento","official_name":"S.E.U. Center 2000 Cardeo G.S. & C.","ref:vatin":"IT00644760951"},"relations":[],"meta":{},"wkt":"Polygon(8.3959908 40.0434569,8.3959096 40.0433938,8.395945 40.0433657,8.3959057 40.0433376,8.395945 40.0433005,8.3959856 40.0433306,8.3960484 40.0432835,8.3961296 40.0433456,8.3959908 40.0434569)"},{"type":"way","id":197101626,"tags":{"amenity":"bar","building":"yes","name":"Pink bar"},"relations":[],"meta":{},"wkt":"Polygon(8.6459531 39.7188052,8.6458834 39.7187288,8.6459772 39.718671,8.646061 39.7187667,8.6459909 39.7188049,8.6459772 39.7187845,8.6459531 39.7188052)"},{"type":"way","id":198020743,"tags":{"amenity":"bar","name":"Snack Bar"},"relations":[],"meta":{},"wkt":"Polygon(8.5964465 40.8364189,8.5964406 40.8362345,8.5964685 40.836202,8.5967134 40.8362002,8.5967448 40.8362266,8.5967448 40.8364022,8.5967123 40.8364294,8.5964882 40.8364277,8.5964465 40.8364189)"},{"type":"way","id":200063266,"tags":{"amenity":"bar","building":"house","name":"Oasi beach"},"relations":[],"meta":{},"wkt":"Polygon(9.5640982 41.0066824,9.5641307 41.0065808,9.564255 41.0066035,9.5642225 41.0067051,9.5640982 41.0066824)"},{"type":"way","id":217680279,"tags":{"amenity":"bar","building":"yes"},"relations":[],"meta":{},"wkt":"Polygon(9.5757241 39.4386194,9.5756907 39.4385338,9.5758252 39.4385026,9.5758585 39.4385882,9.5757241 39.4386194)"},{"type":"way","id":225106521,"tags":{"amenity":"bar","building":"commercial"},"relations":[],"meta":{},"wkt":"Polygon(8.5490457 39.8101489,8.5489817 39.8099371,8.5492551 39.8098883,8.5492617 39.8099103,8.5493333 39.8098975,8.5493592 39.8099834,8.5492191 39.8100084,8.5492273 39.8100354,8.5491151 39.8100554,8.5491384 39.8101324,8.5490457 39.8101489)"},{"type":"way","id":228240438,"tags":{"amenity":"bar","building":"yes","name":"Il Moro"},"relations":[],"meta":{},"wkt":"Polygon(9.5989884 39.3604924,9.598982 39.3603842,9.599116 39.3603794,9.5991224 39.3604877,9.5989884 39.3604924)"},{"type":"way","id":230540556,"tags":{"amenity":"bar","building":"yes","name":"Bar"},"relations":[],"meta":{},"wkt":"Polygon(9.6765875 40.821918,9.6765853 40.8218889,9.6765781 40.8217976,9.676668 40.821795,9.6766692 40.8218085,9.6766785 40.821916,9.6765875 40.821918)"},{"type":"way","id":231464286,"tags":{"amenity":"bar","building":"yes","name":"Chiosco estivo"},"relations":[],"meta":{},"wkt":"Polygon(9.6052196 39.3173634,9.6050955 39.317288,9.6051812 39.3172012,9.6052993 39.3172789,9.6052196 39.3173634)"},{"type":"way","id":233235162,"tags":{"amenity":"bar"},"relations":[],"meta":{},"wkt":"Polygon(8.5523603 39.8184218,8.5523632 39.8180909,8.5525772 39.8180932,8.5525747 39.8184218,8.5523603 39.8184218)"},{"type":"way","id":235008660,"tags":{"amenity":"bar","building":"yes","name":"Hazard"},"relations":[],"meta":{},"wkt":"Polygon(8.5436288 39.3104433,8.5436711 39.3103599,8.5438705 39.3104203,8.5438283 39.3105037,8.5436288 39.3104433)"},{"type":"way","id":235748345,"tags":{"amenity":"bar","building":"yes","name":"Central Bar"},"relations":[],"meta":{},"wkt":"Polygon(9.6706674 40.7713108,9.6706643 40.7711904,9.6707716 40.7711889,9.6707747 40.7713093,9.6706674 40.7713108)"},{"type":"way","id":235890250,"tags":{"amenity":"bar","name":"Sa Casermetta","wheelchair":"yes"},"relations":[],"meta":{},"wkt":"Polygon(9.1881743 39.3099101,9.1880086 39.3099083,9.1880319 39.3096788,9.1882187 39.3096752,9.1882234 39.3098017,9.1882143 39.3098431,9.1882047 39.3098866,9.1881743 39.3099101)"},{"type":"way","id":244453327,"tags":{"amenity":"bar","name":"Cormorano Yacht Bar"},"relations":[],"meta":{},"wkt":"Polygon(8.4026536 40.8392761,8.4025303 40.8391399,8.4027821 40.8390095,8.4029054 40.8391457,8.4026536 40.8392761)"},{"type":"way","id":247304397,"tags":{"amenity":"bar","building":"roof","name":"Cucamonga","name:it":"Cucamonga"},"relations":[],"meta":{},"wkt":"Polygon(9.6717529 39.7556845,9.6717333 39.7556769,9.6717282 39.7556643,9.6717384 39.7556496,9.6717537 39.7556459,9.6717728 39.7556529,9.6717784 39.7556661,9.6717662 39.7556818,9.6717529 39.7556845)"},{"type":"way","id":248798108,"tags":{"amenity":"bar","building":"yes","name":"Bar dello Sport","opening_hours":"Mo-Su 00:00-00:30,05:30-24:00"},"relations":[],"meta":{},"wkt":"Polygon(8.6875289 39.9311639,8.6874951 39.9310502,8.6877929 39.9309981,8.6878267 39.9311118,8.6875289 39.9311639)"},{"type":"way","id":251356387,"tags":{"amenity":"bar","name":"Jolly Cafè"},"relations":[],"meta":{},"wkt":"Polygon(9.1635143 40.7865657,9.1636179 40.7864395,9.1636566 40.7864533,9.1636444 40.786478,9.1636606 40.7864934,9.1636525 40.7865072,9.1636728 40.7865149,9.1636057 40.7865965,9.1635143 40.7865657)"},{"type":"way","id":251621823,"tags":{"amenity":"bar","building":"yes","shop":"kiosk"},"relations":[],"meta":{},"wkt":"Polygon(8.7670973 39.7442151,8.7670997 39.7441833,8.7671122 39.7441523,8.7671478 39.7441704,8.7671369 39.7442206,8.7670973 39.7442151)"},{"type":"way","id":251687992,"tags":{"amenity":"bar"},"relations":[],"meta":{},"wkt":"Polygon(8.7706868 39.7461844,8.7706783 39.7461979,8.7706786 39.7462158,8.7705013 39.7461864,8.7705091 39.7460542,8.7705158 39.7460288,8.7705774 39.7460646,8.7705452 39.7461026,8.770543 39.7461054,8.770689 39.7461829,8.7706868 39.7461844)"},{"type":"way","id":259938640,"tags":{"amenity":"bar"},"relations":[],"meta":{},"wkt":"Polygon(9.1646395 40.7865055,9.1646545 40.7865065,9.1646819 40.7865668,9.1645199 40.786613,9.1645025 40.7866112,9.1644614 40.7865499,9.1646395 40.7865055)"},{"type":"way","id":259938642,"tags":{"amenity":"bar","name":"Bar Centrale"},"relations":[],"meta":{},"wkt":"Polygon(9.164094 40.7865383,9.1642958 40.7864696,9.1643316 40.7865256,9.1641276 40.786595,9.164094 40.7865383)"},{"type":"way","id":259938643,"tags":{"amenity":"bar","building":"yes","name":"Friend's Bar"},"relations":[],"meta":{},"wkt":"Polygon(9.1630793 40.7865616,9.1631067 40.7865078,9.1632276 40.786538,9.1631977 40.7865946,9.1630793 40.7865616)"},{"type":"way","id":259938644,"tags":{"amenity":"bar","building":"yes"},"relations":[],"meta":{},"wkt":"Polygon(9.1651342 40.7860289,9.165102 40.7859595,9.1652114 40.7859271,9.165241 40.7859889,9.1651342 40.7860289)"},{"type":"way","id":260134751,"tags":{"amenity":"bar","name":"Caffetteria della Piazza"},"relations":[],"meta":{},"wkt":"Polygon(9.1639797 40.7861481,9.1640062 40.7860731,9.1640906 40.7860882,9.1640654 40.786164,9.1639797 40.7861481)"},{"type":"way","id":260140130,"tags":{"amenity":"bar","building":"yes","name":"King's Bar"},"relations":[],"meta":{},"wkt":"Polygon(9.6052499 41.0025073,9.605263 41.0024516,9.6054249 41.0024756,9.6054065 41.0025288,9.6052499 41.0025073)"},{"type":"way","id":260946445,"tags":{"amenity":"bar","building":"yes","name":"Bobo Beach","outdoor_seating":"yes"},"relations":[],"meta":{},"wkt":"Polygon(9.5784972 39.2595507,9.5784415 39.2594487,9.5785206 39.2594229,9.5785762 39.2595249,9.5784972 39.2595507)"},{"type":"way","id":260948890,"tags":{"amenity":"bar","building":"yes","name":"Roger Rabbit","outdoor_seating":"yes"},"relations":[],"meta":{},"wkt":"Polygon(9.5740923 39.2502346,9.5739367 39.2502337,9.5739378 39.2501244,9.5740345 39.2501249,9.5740342 39.2501518,9.5740931 39.2501521,9.5740923 39.2502346)"},{"type":"way","id":261214534,"tags":{"amenity":"bar","building":"yes"},"relations":[],"meta":{},"wkt":"Polygon(9.5702123 39.2366776,9.5702498 39.2366443,9.5702471 39.2366204,9.5703343 39.2366142,9.5703853 39.2366578,9.570396 39.2367233,9.5703571 39.2367648,9.5703155 39.2367648,9.570274 39.2367555,9.570223 39.2367285,9.5702123 39.2366776)"},{"type":"way","id":261498159,"tags":{"amenity":"bar","building":"yes","leisure":"outdoor_seating","name":"Il Ginepro","outdoor_seating":"yes"},"relations":[],"meta":{},"wkt":"Polygon(9.5801917 39.2633022,9.5803852 39.2632333,9.5804483 39.2633395,9.5802548 39.2634084,9.5801917 39.2633022)"},{"type":"way","id":271124221,"tags":{"amenity":"bar","building":"yes","cuisine":"italian"},"relations":[],"meta":{},"wkt":"Polygon(8.5720398 39.0976395,8.5720654 39.0975614,8.5720666 39.0975576,8.5720417 39.0975487,8.5720191 39.0975383,8.5720393 39.0974936,8.5720546 39.0974715,8.5720741 39.0974772,8.5720872 39.097453,8.5721185 39.0974599,8.5721759 39.0974737,8.5723051 39.0975103,8.5722624 39.0976051,8.5721976 39.0976782,8.5720398 39.0976395)"},{"type":"way","id":273557612,"tags":{"amenity":"bar","building":"yes","name":"Piano Bar"},"relations":[],"meta":{},"wkt":"Polygon(9.4444698 41.1314822,9.444424 41.1314976,9.4444109 41.1314601,9.4443707 41.1314619,9.4443597 41.1314071,9.4444237 41.1314026,9.4444135 41.131343,9.4445258 41.1313279,9.4445425 41.1313754,9.4444815 41.1314155,9.4444567 41.1314609,9.4444698 41.1314822)"},{"type":"way","id":274991453,"tags":{"amenity":"bar","building":"yes"},"relations":[],"meta":{},"wkt":"Polygon(9.5880567 39.5746236,9.5879727 39.574565,9.5881184 39.5744466,9.5882024 39.5745064,9.5880567 39.5746236)"},{"type":"way","id":276767962,"tags":{"amenity":"bar","building":"yes","name":"Vela sport"},"relations":[],"meta":{},"wkt":"Polygon(9.6383524 39.4499603,9.6385183 39.4499253,9.6385708 39.4500738,9.6384049 39.4501088,9.6383524 39.4499603)"},{"type":"way","id":279144355,"tags":{"amenity":"bar","building":"yes"},"relations":[],"meta":{},"wkt":"Polygon(8.2077503 40.9667939,8.2076694 40.9668705,8.2075961 40.9668256,8.2076037 40.9668187,8.2075609 40.9667927,8.2076051 40.9667509,8.2076498 40.9667781,8.2076789 40.9667505,8.2077503 40.9667939)"},{"type":"way","id":279204704,"tags":{"amenity":"bar","building":"yes"},"relations":[],"meta":{},"wkt":"Polygon(8.5934364 39.8987473,8.5934048 39.8987801,8.5933089 39.8987597,8.5933037 39.8987489,8.5932953 39.898718,8.5934384 39.898715,8.5934364 39.8987473)"},{"type":"way","id":279205133,"tags":{"amenity":"bar","building":"yes","shop":"tobacco"},"relations":[],"meta":{},"wkt":"Polygon(8.6003911 39.8935686,8.600206 39.8936391,8.6001487 39.8935497,8.6002199 39.8935226,8.6002248 39.8935303,8.6002861 39.893507,8.6002811 39.8934993,8.6003338 39.8934792,8.6003911 39.8935686)"},{"type":"way","id":287807443,"tags":{"amenity":"bar","building":"commercial","name":"M & M"},"relations":[],"meta":{},"wkt":"Polygon(8.517562 39.9057455,8.517507 39.9056458,8.5176371 39.9056035,8.5176922 39.9057032,8.517562 39.9057455)"},{"type":"way","id":294120890,"tags":{"amenity":"bar","building":"commercial","name":"Central Bar","name:sc":"Tzilleri de Zucca","website":"https://www.facebook.com/centralbar.bauladu"},"relations":[],"meta":{},"wkt":"Polygon(8.6716729 40.0205291,8.6715954 40.0204608,8.6716992 40.0204071,8.6717561 40.0204668,8.6716729 40.0205291)"},{"type":"way","id":295306999,"tags":{"amenity":"bar","building":"yes"},"relations":[],"meta":{},"wkt":"Polygon(8.9552697 39.2921172,8.9552215 39.292189,8.9551881 39.292226,8.9551202 39.2921937,8.9551458 39.2921386,8.9551401 39.2921319,8.9551861 39.2920685,8.9552697 39.2921172)"},{"type":"way","id":295697137,"tags":{"amenity":"bar","building":"yes","name":"Quirra"},"relations":[],"meta":{},"wkt":"Polygon(9.6072861 39.5152087,9.6071769 39.5152102,9.6071742 39.5150917,9.6072833 39.5150902,9.6072861 39.5152087)"},{"type":"way","id":295894118,"tags":{"amenity":"bar","building":"yes","ice_cream":"yes","name":"Da Donato","outdoor_seating":"yes","restaurant":"yes"},"relations":[],"meta":{},"wkt":"Polygon(9.5723275 39.2515537,9.5722814 39.2515777,9.5722304 39.2515772,9.5721791 39.251557,9.5721637 39.2515337,9.5721641 39.2514914,9.5721834 39.2514651,9.5722177 39.2514395,9.5722124 39.251399,9.5722866 39.2513991,9.5723449 39.2514193,9.5723779 39.2514541,9.5723853 39.2514801,9.5723894 39.2515206,9.5723649 39.2515119,9.5723275 39.2515537)"},{"type":"way","id":296350235,"tags":{"amenity":"bar","building":"yes"},"relations":[],"meta":{},"wkt":"Polygon(8.4645312 40.3128483,8.464706 40.3129231,8.4646011 40.3130583,8.4644281 40.3129821,8.4645312 40.3128483)"},{"type":"way","id":296351168,"tags":{"amenity":"bar","building":"yes"},"relations":[],"meta":{},"wkt":"Polygon(8.4641702 40.3130778,8.4640926 40.3130705,8.4640304 40.3130428,8.4640431 40.3128484,8.4641917 40.3128675,8.4641775 40.3129289,8.4641823 40.3130274,8.4642528 40.3130837,8.4642236 40.3131007,8.4641702 40.3130778)"},{"type":"way","id":304762113,"tags":{"amenity":"bar","building":"yes"},"relations":[],"meta":{},"wkt":"Polygon(8.1886125 40.6435138,8.1885675 40.6435672,8.1885098 40.6435393,8.1885548 40.6434858,8.1886125 40.6435138)"},{"type":"way","id":317151410,"tags":{"addr:city":"Simaghis/Simaxis","addr:country":"IT","addr:postcode":"09088","addr:street":"Via San Simaco","amenity":"bar","building":"yes"},"relations":[],"meta":{},"wkt":"Polygon(8.6892304 39.9308841,8.6892897 39.930971,8.6893359 39.9309525,8.6893712 39.9310043,8.6893337 39.9310193,8.689309 39.9310293,8.6892954 39.9310093,8.6892481 39.9310283,8.689167 39.9309095,8.6892304 39.9308841)"},{"type":"way","id":319017831,"tags":{"addr:city":"Torregrande","addr:postcode":"09170","addr:street":"Lungomare Eleonora d'Arborea","amenity":"bar","building":"yes","name":"Lab","operator":"LAB di Lucia Ghisu","ref:vatin":"IT01166270957"},"relations":[],"meta":{},"wkt":"Polygon(8.5091415 39.9078561,8.5091721 39.9079861,8.5090032 39.9080095,8.5089726 39.9078794,8.5091415 39.9078561)"},{"type":"way","id":324040049,"tags":{"amenity":"bar","building":"yes","name":"Nino's Bar","name:sc":"Tzilleri de Nino"},"relations":[],"meta":{},"wkt":"Polygon(8.6715033 40.02093,8.6716207 40.0209939,8.6714823 40.0210977,8.6713974 40.0210576,8.6713842 40.02105,8.6714919 40.0209414,8.6715033 40.02093)"},{"type":"way","id":361528762,"tags":{"amenity":"bar","building":"yes"},"relations":[],"meta":{},"wkt":"Polygon(9.5969466 39.3497782,9.5969185 39.3497249,9.5969692 39.3496752,9.5970408 39.3496871,9.5970725 39.3497424,9.5970227 39.3497866,9.5969466 39.3497782)"},{"type":"way","id":367227826,"tags":{"amenity":"bar","building":"yes","name":"Gionco","outdoor_seating":"yes","stroller":"yes","wheelchair":"yes"},"relations":[],"meta":{},"wkt":"Polygon(9.5185406 39.1126989,9.5185728 39.1126455,9.5186388 39.1126694,9.5186066 39.1127229,9.5185406 39.1126989)"},{"type":"way","id":367227827,"tags":{"amenity":"bar","building":"yes","name":"Chiosco Notteri","outdoor_seating":"yes"},"relations":[],"meta":{},"wkt":"Polygon(9.5184134 39.113573,9.5183838 39.1134559,9.5184208 39.1134503,9.5184503 39.1135674,9.5184134 39.113573)"},{"type":"way","id":367227842,"tags":{"amenity":"bar","building":"yes"},"relations":[],"meta":{},"wkt":"Polygon(9.5676728 39.2183072,9.5677259 39.2182981,9.5677672 39.2183164,9.567779 39.2183712,9.5677525 39.218401,9.5677023 39.2184101,9.5676433 39.2183918,9.5676256 39.2183392,9.5676728 39.2183072)"},{"type":"way","id":367278310,"tags":{"amenity":"bar","building":"yes"},"relations":[],"meta":{},"wkt":"Polygon(8.4498568 39.5416162,8.4498602 39.5416266,8.4498581 39.5416373,8.4498509 39.5416465,8.4498397 39.5416529,8.4498262 39.5416555,8.4498124 39.5416539,8.4498005 39.5416483,8.4497922 39.5416397,8.4497888 39.5416292,8.4497909 39.5416186,8.4497981 39.5416094,8.4498093 39.541603,8.4498228 39.5416004,8.4498366 39.541602,8.4498486 39.5416076,8.4498568 39.5416162)"},{"type":"way","id":367278311,"tags":{"amenity":"bar","building":"yes"},"relations":[],"meta":{},"wkt":"Polygon(8.449943 39.541711,8.4499447 39.5417233,8.44994 39.5417352,8.4499299 39.5417448,8.4499158 39.5417506,8.4498998 39.5417519,8.4498845 39.5417483,8.449872 39.5417405,8.4498644 39.5417296,8.4498628 39.5417173,8.4498674 39.5417055,8.4498776 39.5416959,8.4498917 39.54169,8.4499077 39.5416888,8.449923 39.5416923,8.4499354 39.5417001,8.449943 39.541711)"},{"type":"way","id":397403086,"tags":{"amenity":"bar","name":"Sunshine Rep","outdoor_seating":"yes"},"relations":[],"meta":{},"wkt":"Polygon(9.5798006 39.2624003,9.5797546 39.2623215,9.5798566 39.2622858,9.5799027 39.2623645,9.5798006 39.2624003)"},{"type":"way","id":398100005,"tags":{"amenity":"bar","building":"yes","outdoor_seating":"yes"},"relations":[],"meta":{},"wkt":"Polygon(9.5534429 39.135475,9.5534928 39.1353997,9.5535506 39.1354228,9.5535006 39.1354981,9.5534429 39.135475)"},{"type":"way","id":398100007,"tags":{"amenity":"bar","building":"yes","name":"I Due Mari","outdoor_seating":"yes"},"relations":[],"meta":{},"wkt":"Polygon(9.555631 39.1327451,9.5556414 39.1326716,9.5557451 39.1326804,9.5557347 39.1327539,9.555631 39.1327451)"},{"type":"way","id":398116952,"tags":{"amenity":"bar","building":"yes","cocktails":"yes","name":"Vanity","outdoor_seating":"yes","outdoor_seating:comfort":"lounge","payment:cash":"yes","payment:maestro":"yes","payment:mastercard":"yes","payment:visa":"yes","tv":"yes","wheelchair":"yes"},"relations":[],"meta":{},"wkt":"Polygon(9.4294274 39.1345313,9.4293834 39.1344567,9.4295572 39.134395,9.4296012 39.1344697,9.4294274 39.1345313)"},{"type":"way","id":398116955,"tags":{"amenity":"bar","building":"yes","name":"White Box","outdoor_seating":"yes","wheelchair":"yes"},"relations":[],"meta":{},"wkt":"Polygon(9.4307623 39.1339156,9.4307188 39.1338594,9.4307795 39.1338312,9.430823 39.1338874,9.4307623 39.1339156)"},{"type":"way","id":400630302,"tags":{"amenity":"bar","building":"yes"},"relations":[],"meta":{},"wkt":"Polygon(8.8294807 40.1227337,8.8294676 40.1226856,8.829547 40.122673,8.82956 40.1227211,8.8294807 40.1227337)"},{"type":"way","id":415743954,"tags":{"amenity":"bar","cuisine":"italian","name":"Chiosco Kennedy"},"relations":[],"meta":{},"wkt":"Polygon(8.636947 39.7228878,8.6369406 39.7228284,8.6369513 39.7228277,8.6369433 39.7227524,8.6370716 39.7227444,8.6370778 39.722803,8.6370813 39.7228359,8.6370859 39.7228791,8.636947 39.7228878)"},{"type":"way","id":426016049,"tags":{"addr:city":"Gèsturi/Gesturi","addr:housenumber":"4","addr:postcode":"09020","addr:street":"Via Nazionale","amenity":"bar","building":"yes","name":"BAR COCCO DI SERRU MAURA E C. SAS","phone":"+39 070 9369108","smoking":"outside"},"relations":[],"meta":{},"wkt":"Polygon(9.0215658 39.7320759,9.0216394 39.7320934,9.0215833 39.7322458,9.0215042 39.7322303,9.0215658 39.7320759)"},{"type":"way","id":447356243,"tags":{"amenity":"bar","building":"yes","name":"El Peyote"},"relations":[],"meta":{},"wkt":"Polygon(8.6613119 39.4913014,8.6612841 39.4912677,8.6612379 39.4912332,8.6611633 39.4911764,8.6612578 39.4911223,8.6612345 39.4910885,8.6613003 39.4910581,8.6613656 39.4911345,8.6614455 39.4911875,8.6614145 39.4912139,8.6613119 39.4913014)"},{"type":"way","id":447769194,"tags":{"amenity":"bar","building":"yes"},"relations":[],"meta":{},"wkt":"Polygon(9.5850667 40.9611327,9.5850852 40.9610636,9.5852123 40.961083,9.5851937 40.9611521,9.5850667 40.9611327)"},{"type":"way","id":447769196,"tags":{"amenity":"bar","building":"yes"},"relations":[],"meta":{},"wkt":"Polygon(9.5834399 40.961137,9.5833814 40.9610982,9.5834943 40.9610011,9.5835528 40.9610399,9.5834399 40.961137)"},{"type":"way","id":489086587,"tags":{"amenity":"bar","building":"yes","name":"Oasi Beach Seaside","phone":"+39 0781 1896483"},"relations":[],"meta":{},"wkt":"Polygon(8.3793552 39.3734753,8.379263 39.3734212,8.3793295 39.3733616,8.3794136 39.3734167,8.3793552 39.3734753)"},{"type":"way","id":490963790,"tags":{"addr:city":"Laconi","addr:housenumber":"59","addr:postcode":"08034","addr:street":"Corso Giuseppe Garibaldi","amenity":"bar","amenity_1":"cafe","building":"yes","name":"Bar Centrale","phone":"+39 0782 869685","smoking":"outside"},"relations":[],"meta":{},"wkt":"Polygon(9.0520912 39.8541252,9.052107 39.8541586,9.0520477 39.8541935,9.0520146 39.854147,9.0519551 39.8540631,9.0519172 39.8540098,9.0519528 39.8539848,9.0520912 39.8541252)"},{"type":"node","id":2053019874,"tags":{"amenity":"bar","source":"Federica Curreli"},"relations":[],"meta":{},"wkt":"Point(8.9894719 40.3854366)"},{"type":"node","id":2055806756,"tags":{"amenity":"bar","name":"Bar S'incontru"},"relations":[],"meta":{},"wkt":"Point(8.8357172 40.2832544)"},{"type":"node","id":2055811576,"tags":{"amenity":"bar","name":"Bar Salaris"},"relations":[],"meta":{},"wkt":"Point(8.8356286 40.2835347)"},{"type":"node","id":2055814415,"tags":{"amenity":"bar","name":"Il Corso degli Eventi Cafè"},"relations":[],"meta":{},"wkt":"Point(8.8347596 40.2825628)"},{"type":"node","id":2060585114,"tags":{"amenity":"bar","name":"Paradise"},"relations":[],"meta":{},"wkt":"Point(8.5921907 40.7879298)"},{"type":"node","id":2063198324,"tags":{"amenity":"bar"},"relations":[],"meta":{},"wkt":"Point(9.3535854 40.2035097)"},{"type":"node","id":2063198339,"tags":{"amenity":"bar"},"relations":[],"meta":{},"wkt":"Point(9.3575873 40.2037719)"},{"type":"node","id":2063358972,"tags":{"amenity":"bar"},"relations":[],"meta":{},"wkt":"Point(8.5762587 40.7246425)"},{"type":"node","id":2063359403,"tags":{"amenity":"bar"},"relations":[],"meta":{},"wkt":"Point(8.5728898 40.7253743)"},{"type":"node","id":2063473543,"tags":{"amenity":"bar","name":"Bar Better"},"relations":[],"meta":{},"wkt":"Point(8.5516648 40.7467709)"},{"type":"node","id":2093537766,"tags":{"amenity":"bar","name":"Bar stazione","wifi":"no"},"relations":[],"meta":{},"wkt":"Point(9.132105 39.6601759)"},{"type":"node","id":2093717657,"tags":{"amenity":"bar","name":"La Taverna del Ducato"},"relations":[],"meta":{},"wkt":"Point(9.1307668 39.6592157)"},{"type":"node","id":2093737331,"tags":{"amenity":"bar","name":"Bar Monica e Roberto"},"relations":[],"meta":{},"wkt":"Point(9.1297717 39.6582741)"},{"type":"node","id":2093790541,"tags":{"amenity":"bar","name":"Bar","wifi":"free"},"relations":[],"meta":{},"wkt":"Point(9.1300506 39.6579396)"},{"type":"node","id":2093833956,"tags":{"amenity":"bar","name":"Bar Marras"},"relations":[],"meta":{},"wkt":"Point(9.1291977 39.6558023)"},{"type":"node","id":2095053535,"tags":{"amenity":"bar","name":"Little Bar"},"relations":[],"meta":{},"wkt":"Point(8.6378799 39.7212354)"},{"type":"node","id":2095923805,"tags":{"amenity":"bar","internet_access":"no","name":"Bar Centrale di Loddo Landerino","smoking":"no"},"relations":[],"meta":{},"wkt":"Point(9.173674 39.2512798)"},{"type":"node","id":2098666410,"tags":{"amenity":"bar","name":"Bar"},"relations":[],"meta":{},"wkt":"Point(9.130768 39.6529001)"},{"type":"node","id":2099647060,"tags":{"amenity":"bar","name":"My Dream"},"relations":[],"meta":{},"wkt":"Point(9.1289706 39.6537574)"},{"type":"node","id":2112740801,"tags":{"amenity":"bar","name":"Cafè 2000"},"relations":[],"meta":{},"wkt":"Point(8.5537712 40.7224454)"},{"type":"node","id":2113805831,"tags":{"amenity":"bar"},"relations":[],"meta":{},"wkt":"Point(9.6407946 40.0370652)"},{"type":"node","id":2113805856,"tags":{"amenity":"bar"},"relations":[],"meta":{},"wkt":"Point(9.6405721 40.0376857)"},{"type":"node","id":2113805890,"tags":{"amenity":"bar"},"relations":[],"meta":{},"wkt":"Point(9.6407922 40.0373348)"},{"type":"node","id":2131075380,"tags":{"amenity":"bar"},"relations":[],"meta":{},"wkt":"Point(8.5563522 40.7203779)"},{"type":"node","id":2135116677,"tags":{"amenity":"bar","name":"Bar da Natalia"},"relations":[],"meta":{},"wkt":"Point(8.8178349 40.849988)"},{"type":"node","id":2135128586,"tags":{"amenity":"bar","name":"Roxy Bar"},"relations":[],"meta":{},"wkt":"Point(8.8149434 40.8518951)"},{"type":"node","id":2144156823,"tags":{"amenity":"bar","name":"Robinson Cafè"},"relations":[],"meta":{},"wkt":"Point(9.1879909 39.2321241)"},{"type":"node","id":2168129426,"tags":{"addr:housename":"Mediateca del Mediterraneo","addr:housenumber":"164","addr:postcode":"09123","addr:street":"Via Goffredo Mameli","amenity":"bar","name":"Sette Vizi s.r.l.","source":"survey","wheelchair":"limited","wifi":"yes"},"relations":[],"meta":{},"wkt":"Point(9.1046189 39.2216442)"},{"type":"node","id":2177664597,"tags":{"amenity":"bar"},"relations":[],"meta":{},"wkt":"Point(8.6660856 40.6503037)"},{"type":"node","id":2177664651,"tags":{"amenity":"bar"},"relations":[],"meta":{},"wkt":"Point(8.6663379 40.6496137)"},{"type":"node","id":2177665600,"tags":{"amenity":"bar"},"relations":[],"meta":{},"wkt":"Point(8.6654177 40.6499455)"},{"type":"node","id":2178122020,"tags":{"amenity":"bar","wheelchair":"yes"},"relations":[],"meta":{},"wkt":"Point(9.1781516 39.2395159)"},{"type":"node","id":2178286226,"tags":{"amenity":"bar","name":"Fruit Bar","wheelchair":"no"},"relations":[],"meta":{},"wkt":"Point(9.1760458 39.2414398)"},{"type":"node","id":2193193491,"tags":{"addr:street":"Via Giotto","amenity":"bar","name":"Cocktail Cafè"},"relations":[],"meta":{},"wkt":"Point(9.6989404 40.5701235)"},{"type":"node","id":2197938176,"tags":{"addr:street":"Via roma","amenity":"bar","name":"Bar da Gigi","wifi":"no"},"relations":[],"meta":{},"wkt":"Point(8.6748375 40.741896)"},{"type":"node","id":2197970769,"tags":{"addr:housenumber":"1","addr:street":"Via Roma","amenity":"bar","name":"Bar Mirage","wifi":"no"},"relations":[],"meta":{},"wkt":"Point(8.6702643 40.7421033)"},{"type":"node","id":2226691343,"tags":{"amenity":"bar","name":"Sezione"},"relations":[],"meta":{},"wkt":"Point(8.9754676 39.4920032)"},{"type":"node","id":2226691416,"tags":{"amenity":"bar"},"relations":[],"meta":{},"wkt":"Point(8.9748659 39.4917021)"},{"type":"node","id":2226691433,"tags":{"amenity":"bar"},"relations":[],"meta":{},"wkt":"Point(8.97602 39.4948157)"},{"type":"node","id":2248508255,"tags":{"amenity":"bar","name":"Garden "},"relations":[],"meta":{},"wkt":"Point(9.6359082 40.283354)"},{"type":"node","id":2253250589,"tags":{"amenity":"bar","name":"Bar Fancello"},"relations":[],"meta":{},"wkt":"Point(9.5890901 40.2967078)"},{"type":"node","id":2255690934,"tags":{"amenity":"bar","name":"Su Recreu"},"relations":[],"meta":{},"wkt":"Point(9.6369139 40.2836661)"},{"type":"node","id":2257952986,"tags":{"amenity":"bar"},"relations":[],"meta":{},"wkt":"Point(9.5862713 40.2942325)"},{"type":"node","id":2258142635,"tags":{"amenity":"bar"},"relations":[],"meta":{},"wkt":"Point(9.6363107 40.2849091)"},{"type":"node","id":2258142636,"tags":{"amenity":"bar","name":"Music Cafe"},"relations":[],"meta":{},"wkt":"Point(9.6374102 40.2843036)"},{"type":"node","id":2258462859,"tags":{"amenity":"bar"},"relations":[],"meta":{},"wkt":"Point(9.4951088 40.4050961)"},{"type":"node","id":2267770326,"tags":{"amenity":"bar"},"relations":[],"meta":{},"wkt":"Point(8.56567 40.7208955)"},{"type":"node","id":2267771689,"tags":{"amenity":"bar","name":"Raphael"},"relations":[],"meta":{},"wkt":"Point(8.5639505 40.7204177)"},{"type":"node","id":2270504204,"tags":{"amenity":"bar"},"relations":[],"meta":{},"wkt":"Point(9.5910857 40.2893757)"},{"type":"node","id":2274962025,"tags":{"amenity":"bar"},"relations":[],"meta":{},"wkt":"Point(8.5695406 40.7198086)"},{"type":"node","id":2277752526,"tags":{"amenity":"bar"},"relations":[],"meta":{},"wkt":"Point(9.5421834 39.2095802)"},{"type":"node","id":2279686197,"tags":{"amenity":"bar"},"relations":[],"meta":{},"wkt":"Point(8.561405 40.7135155)"},{"type":"node","id":2299960364,"tags":{"amenity":"bar","name":"Chiosco La Duna"},"relations":[],"meta":{},"wkt":"Point(9.6586637 39.6929811)"},{"type":"node","id":2302254106,"tags":{"amenity":"bar","name":"Fango","wheelchair":"yes"},"relations":[],"meta":{},"wkt":"Point(9.1813036 39.2373115)"},{"type":"node","id":2306435220,"tags":{"addr:housenumber":"117","addr:street":"Corso Umberto I","amenity":"bar","name":"Antonello Bar Caffè"},"relations":[],"meta":{},"wkt":"Point(8.5678082 40.1894202)"},{"type":"node","id":2306435225,"tags":{"amenity":"bar","name":"Bar Zodiak"},"relations":[],"meta":{},"wkt":"Point(8.5679462 40.1892668)"},{"type":"node","id":2306435226,"tags":{"addr:housenumber":"126","addr:street":"Corso Umberto I","amenity":"bar","name":"Bar del Corso"},"relations":[],"meta":{},"wkt":"Point(8.5674307 40.1887846)"},{"type":"node","id":2306435252,"tags":{"amenity":"bar","name":"Play bar"},"relations":[],"meta":{},"wkt":"Point(8.5671969 40.1873807)"},{"type":"node","id":2310429918,"tags":{"amenity":"bar","name":"Bar Gelateria Corda"},"relations":[],"meta":{},"wkt":"Point(8.5389752 39.9958467)"},{"type":"node","id":2310429933,"tags":{"amenity":"bar","name":"Sa Barritta"},"relations":[],"meta":{},"wkt":"Point(8.5395774 39.9950849)"},{"type":"node","id":2310429935,"tags":{"amenity":"bar","name":"Snack Bar Gelateria Da Ivana"},"relations":[],"meta":{},"wkt":"Point(8.5397366 39.9952425)"},{"type":"node","id":2310429937,"tags":{"amenity":"bar"},"relations":[],"meta":{},"wkt":"Point(8.965754 39.3047796)"},{"type":"node","id":2310430294,"tags":{"amenity":"bar"},"relations":[],"meta":{},"wkt":"Point(8.5382976 39.9761832)"},{"type":"node","id":2328813865,"tags":{"addr:postcode":"09131","addr:street":"Via Giuseppe Biasi","amenity":"bar","name":"Bar Nobel","wifi":"yes"},"relations":[],"meta":{},"wkt":"Point(9.1261518 39.2328719)"},{"type":"node","id":2338728322,"tags":{"amenity":"bar","name":"Bar Tabacchi"},"relations":[],"meta":{},"wkt":"Point(9.0009139 40.5810432)"},{"type":"node","id":2338728373,"tags":{"amenity":"bar"},"relations":[],"meta":{},"wkt":"Point(9.0006615 40.5807456)"},{"type":"node","id":2339153397,"tags":{"amenity":"bar","name":"Bar"},"relations":[],"meta":{},"wkt":"Point(8.4865185 39.7136367)"},{"type":"node","id":2352589789,"tags":{"amenity":"bar"},"relations":[],"meta":{},"wkt":"Point(9.6444941 39.8413222)"},{"type":"node","id":2352589790,"tags":{"amenity":"bar"},"relations":[],"meta":{},"wkt":"Point(9.6442366 39.8415858)"},{"type":"node","id":2363416664,"tags":{"amenity":"bar"},"relations":[],"meta":{},"wkt":"Point(9.5900883 40.2890191)"},{"type":"node","id":2376226594,"tags":{"amenity":"bar"},"relations":[],"meta":{},"wkt":"Point(9.5836615 40.294218)"},{"type":"node","id":2376231496,"tags":{"amenity":"bar"},"relations":[],"meta":{},"wkt":"Point(9.5850643 40.2959529)"},{"type":"node","id":2378815143,"tags":{"amenity":"bar"},"relations":[],"meta":{},"wkt":"Point(9.5775164 39.7001188)"},{"type":"node","id":2397088532,"tags":{"amenity":"bar"},"relations":[],"meta":{},"wkt":"Point(9.6150134 40.890554)"},{"type":"node","id":2431676183,"tags":{"amenity":"bar","name":"Electra Cafè"},"relations":[],"meta":{},"wkt":"Point(8.5331115 39.3136733)"},{"type":"node","id":2433590364,"tags":{"amenity":"bar","name":"Alex Bar","source":"Conosco personalmente"},"relations":[],"meta":{},"wkt":"Point(9.1165559 39.2302154)"},{"type":"node","id":2445360585,"tags":{"amenity":"bar"},"relations":[],"meta":{},"wkt":"Point(8.4209656 39.3323186)"},{"type":"node","id":2512686467,"tags":{"addr:city":"Cagliari","addr:street":"Via Sassari","amenity":"bar","name":"Sax by Marcella"},"relations":[],"meta":{},"wkt":"Point(9.1109452 39.2174792)"},{"type":"node","id":2516902049,"tags":{"amenity":"bar"},"relations":[],"meta":{},"wkt":"Point(9.283692 40.2113407)"},{"type":"node","id":2516902056,"tags":{"addr:city":"Mamoiada","addr:housenumber":"63","addr:postcode":"08024","addr:street":"Via Vittorio Emanuele II","amenity":"bar","name":"Bar Mele","phone":"+39 0784 56240"},"relations":[],"meta":{},"wkt":"Point(9.2814591 40.2136637)"},{"type":"node","id":2516911476,"tags":{"amenity":"bar","name":"S'Arvureddu"},"relations":[],"meta":{},"wkt":"Point(9.2853404 40.2149167)"},{"type":"node","id":2516911479,"tags":{"amenity":"bar"},"relations":[],"meta":{},"wkt":"Point(9.2841128 40.2143959)"},{"type":"node","id":2517682755,"tags":{"amenity":"bar","name":"Bar Piazza Garibaldi"},"relations":[],"meta":{},"wkt":"Point(8.401988 40.8381799)"},{"type":"node","id":2517682756,"tags":{"addr:housenumber":"19","addr:street":"Piazza Chiesa","amenity":"bar","contact:phone":"+39 079 925022","name":"Bar Sport Pizzeria","opening_hours":"We off","operator":"Masia Pierpaolo","ref:vatin":"IT01833600909"},"relations":[],"meta":{},"wkt":"Point(8.5846772 40.4843045)"},{"type":"node","id":2517682757,"tags":{"addr:housenumber":"1","addr:street":"Via Libio","amenity":"bar","name":"Degustoz Wine & Cocktail's Bar"},"relations":[],"meta":{},"wkt":"Point(8.4021537 40.8385966)"},{"type":"node","id":2517733819,"tags":{"amenity":"bar","name":"Frank's Bar"},"relations":[],"meta":{},"wkt":"Point(9.2838524 40.2127259)"},{"type":"node","id":2517758861,"tags":{"amenity":"bar"},"relations":[],"meta":{},"wkt":"Point(9.2840459 40.2125766)"},{"type":"node","id":2517877160,"tags":{"amenity":"bar","name":"Bar Gallery"},"relations":[],"meta":{},"wkt":"Point(9.2799522 40.2162289)"},{"type":"node","id":2517885043,"tags":{"amenity":"bar","name":"Bar da Enzo","note":"Also known as \"Bar da Burrazza\"","wheelchair":"yes"},"relations":[],"meta":{},"wkt":"Point(9.2837628 40.2136917)"},{"type":"node","id":2517894814,"tags":{"amenity":"bar","name":"Blue's Bar"},"relations":[],"meta":{},"wkt":"Point(9.2837892 40.2134204)"},{"type":"node","id":2517927973,"tags":{"amenity":"bar","name":"Jolly Blue"},"relations":[],"meta":{},"wkt":"Point(9.2838808 40.2119889)"},{"type":"node","id":2519763866,"tags":{"addr:city":"Cagliari","addr:housenumber":"50","addr:street":"Via Sassari","amenity":"bar","name":"Inu wine bar","phone":"+39 070 6670414","website":"http://www.inusardinianwinebar.it"},"relations":[],"meta":{},"wkt":"Point(9.1102505 39.2167493)"},{"type":"node","id":2519809027,"tags":{"amenity":"bar","name":"Bar Gelateria - Vineria"},"relations":[],"meta":{},"wkt":"Point(9.5282679 39.9209888)"},{"type":"node","id":2519809028,"tags":{"amenity":"bar","name":"Bar"},"relations":[],"meta":{},"wkt":"Point(9.5271769 39.9185358)"},{"type":"node","id":2544163331,"tags":{"amenity":"bar","name":"Bar Antonella"},"relations":[],"meta":{},"wkt":"Point(9.4419934 40.4857955)"},{"type":"node","id":2544803124,"tags":{"amenity":"bar","name":"Sassofono Blu"},"relations":[],"meta":{},"wkt":"Point(9.5711356 39.2496514)"},{"type":"node","id":2544803130,"tags":{"amenity":"bar","name":"Igloo"},"relations":[],"meta":{},"wkt":"Point(9.5699329 39.2501882)"},{"type":"node","id":2578703516,"tags":{"amenity":"bar","name":"Statzu Achille"},"relations":[],"meta":{},"wkt":"Point(8.7713465 39.7468781)"},{"type":"node","id":2578703706,"tags":{"amenity":"bar"},"relations":[],"meta":{},"wkt":"Point(8.7706859 39.746093)"},{"type":"node","id":2582351083,"tags":{"addr:city":"Cagliari","amenity":"bar","name":"Mojito"},"relations":[],"meta":{},"wkt":"Point(9.114341 39.2182123)"},{"type":"node","id":2596625310,"tags":{"addr:city":"Osilo","addr:housename":"Camarillo Brillo","addr:housenumber":"21","addr:postcode":"07033","addr:street":"Piazza San Valentino","amenity":"bar","name":"Camarillo Brillo","phone":"+39 079 42499"},"relations":[],"meta":{},"wkt":"Point(8.6743751 40.7410689)"},{"type":"node","id":2614784002,"tags":{"amenity":"bar","name":"Kingston"},"relations":[],"meta":{},"wkt":"Point(8.7783478 39.6839015)"},{"type":"node","id":2614784837,"tags":{"addr:city":"Mogoro","addr:housenumber":"235","addr:street":"Via Antonio Gramsci","amenity":"bar","name":"Ladies cafè"},"relations":[],"meta":{},"wkt":"Point(8.7791148 39.6855426)"},{"type":"node","id":2614785123,"tags":{"amenity":"bar","name":"Idem Cafè"},"relations":[],"meta":{},"wkt":"Point(8.7796217 39.685588)"},{"type":"node","id":2614787401,"tags":{"amenity":"bar","name":"Magic Bar"},"relations":[],"meta":{},"wkt":"Point(8.7799651 39.6875634)"},{"type":"node","id":2614788548,"tags":{"amenity":"bar","name":"Bar Centrale"},"relations":[],"meta":{},"wkt":"Point(8.776505 39.6845394)"},{"type":"node","id":2614791125,"tags":{"amenity":"bar","name":"La rosa dei venti"},"relations":[],"meta":{},"wkt":"Point(8.7753356 39.6840317)"},{"type":"node","id":2614792971,"tags":{"amenity":"bar","name":"Cafè gitano"},"relations":[],"meta":{},"wkt":"Point(8.7752524 39.6824443)"},{"type":"node","id":2614794729,"tags":{"amenity":"bar","name":"Bar Capri"},"relations":[],"meta":{},"wkt":"Point(8.7776262 39.6832349)"},{"type":"node","id":2614795480,"tags":{"amenity":"bar","name":"Chiosco Sant'Antioco"},"relations":[],"meta":{},"wkt":"Point(8.7798658 39.6859719)"},{"type":"node","id":2721614591,"tags":{"amenity":"bar","name":"Caffè Dettori","outdoor_seating":"yes","wheelchair":"no"},"relations":[],"meta":{},"wkt":"Point(9.1137924 39.2157546)"},{"type":"node","id":2721614593,"tags":{"amenity":"bar","name":"Cafè De Candia"},"relations":[],"meta":{},"wkt":"Point(9.1161507 39.2166415)"},{"type":"node","id":2728841789,"tags":{"addr:city":"Nuoro","addr:housenumber":"1","addr:postcode":"08100","addr:street":"Via Mughina","amenity":"bar","name":"Fantasy Bar"},"relations":[],"meta":{},"wkt":"Point(9.3311186 40.3194349)"},{"type":"node","id":2728904242,"tags":{"addr:city":"Nuoro","addr:housenumber":"19","addr:postcode":"08100","addr:street":"Via Convento","amenity":"bar","name":"Rally Bar"},"relations":[],"meta":{},"wkt":"Point(9.3318453 40.3181168)"},{"type":"node","id":2739057502,"tags":{"amenity":"bar"},"relations":[],"meta":{},"wkt":"Point(9.5820397 40.9756969)"},{"type":"node","id":2739057505,"tags":{"amenity":"bar"},"relations":[],"meta":{},"wkt":"Point(9.5784456 40.9756645)"},{"type":"node","id":2839994958,"tags":{"amenity":"bar","name":"Sea Lounge"},"relations":[],"meta":{},"wkt":"Point(9.1484095 41.242672)"},{"type":"node","id":2850014231,"tags":{"addr:city":"Tortolì","addr:postcode":"08048","amenity":"bar","name":"Basaura","smoking":"outside"},"relations":[],"meta":{},"wkt":"Point(9.6901722 39.9170567)"},{"type":"node","id":2850106165,"tags":{"amenity":"bar","name":"La Pigna","opening_hours":"24/24","smoking":"outside"},"relations":[],"meta":{},"wkt":"Point(9.6964496 39.9375167)"},{"type":"node","id":2857321900,"tags":{"amenity":"bar","facebook":"https://www.facebook.com/blauskybaralghero","level":"9","name":"Blau SkyBar&Events","smoking":"no","website":"http://www.hotelcatalunya.it/blau-alghero.html"},"relations":[],"meta":{},"wkt":"Point(8.3171724 40.5608743)"},{"type":"node","id":2899234736,"tags":{"amenity":"bar"},"relations":[],"meta":{},"wkt":"Point(8.4503861 39.6809915)"},{"type":"node","id":2947574677,"tags":{"amenity":"bar","name":"badestrand"},"relations":[],"meta":{},"wkt":"Point(8.984352 41.0869241)"},{"type":"node","id":2947578942,"tags":{"amenity":"bar"},"relations":[],"meta":{},"wkt":"Point(8.2076649 40.616188)"},{"type":"node","id":2967725667,"tags":{"addr:city":"Orgosolo","addr:housenumber":"7","addr:postcode":"08027","addr:street":"Via Nuoro","amenity":"bar","name":"Bar degli artisti/Internet Cafè","phone":"+39 0784 402165","smoking":"outside","website":"https://www.facebook.com/pages/Internet-caffè-orgosolo"},"relations":[],"meta":{},"wkt":"Point(9.3506052 40.2061411)"},{"type":"node","id":2968725399,"tags":{"amenity":"bar","name":"Bar Sport"},"relations":[],"meta":{},"wkt":"Point(8.277835 40.7356914)"},{"type":"node","id":2996154857,"tags":{"amenity":"bar","note":"Bar, Pasticceria, Panetteria","wheelchair":"no"},"relations":[],"meta":{},"wkt":"Point(9.4596601 39.1957147)"},{"type":"node","id":3006194633,"tags":{"amenity":"bar","name":"Caffè al Duomo"},"relations":[],"meta":{},"wkt":"Point(8.5583454 40.7270452)"},{"type":"node","id":3044509201,"tags":{"amenity":"bar","name":"Caffè Tomoka"},"relations":[],"meta":{},"wkt":"Point(8.5674983 40.1898546)"},{"type":"node","id":3057815550,"tags":{"amenity":"bar","name":"Bar Roma"},"relations":[],"meta":{},"wkt":"Point(8.5860023 40.4844427)"},{"type":"node","id":3064588934,"tags":{"amenity":"bar"},"relations":[],"meta":{},"wkt":"Point(9.1524414 40.8517887)"},{"type":"node","id":3093280826,"tags":{"amenity":"bar","name":"Caffè Barcellona","outdoor_seating":"yes","toilets:wheelchair":"no","wheelchair":"no"},"relations":[],"meta":{},"wkt":"Point(9.114166 39.2154841)"},{"type":"node","id":3093285330,"tags":{"amenity":"bar","name":"Tiffany","outdoor_seating":"yes"},"relations":[],"meta":{},"wkt":"Point(9.1136167 39.2167217)"},{"type":"node","id":3196917255,"tags":{"amenity":"bar","name":"Smaila's Porto Rotondo"},"relations":[],"meta":{},"wkt":"Point(9.5425051 41.0252534)"},{"type":"node","id":3276959658,"tags":{"amenity":"bar"},"relations":[],"meta":{},"wkt":"Point(8.4013978 39.9190511)"},{"type":"node","id":3350178344,"tags":{"amenity":"bar"},"relations":[],"meta":{},"wkt":"Point(9.40188 39.1546279)"},{"type":"node","id":3354763462,"tags":{"amenity":"bar","name":"Bar Lobina"},"relations":[],"meta":{},"wkt":"Point(9.1128351 39.2394396)"},{"type":"node","id":3528511910,"tags":{"addr:city":"Fluminimaggiore","addr:housenumber":"298","addr:postcode":"09010","addr:street":"Via Vittorio Emanuele","amenity":"bar","name":"Bar Satta"},"relations":[],"meta":{},"wkt":"Point(8.4969066 39.437341)"},{"type":"node","id":3587725394,"tags":{"amenity":"bar","name":"Oasi"},"relations":[],"meta":{},"wkt":"Point(9.4412971 39.6790996)"},{"type":"node","id":3587787194,"tags":{"amenity":"bar","name":"Il Capriccio"},"relations":[],"meta":{},"wkt":"Point(9.4411686 39.6791963)"},{"type":"node","id":3607817226,"tags":{"amenity":"bar","name":"Chiosco Baia Marina"},"relations":[],"meta":{},"wkt":"Point(9.6792704 39.8268678)"},{"type":"node","id":3609637726,"tags":{"amenity":"bar"},"relations":[],"meta":{},"wkt":"Point(8.4948611 40.8202412)"},{"type":"node","id":3609637736,"tags":{"amenity":"bar"},"relations":[],"meta":{},"wkt":"Point(8.503487 40.8207829)"},{"type":"node","id":3609649713,"tags":{"amenity":"bar"},"relations":[],"meta":{},"wkt":"Point(8.555734 40.829624)"},{"type":"node","id":3609649716,"tags":{"amenity":"bar","name":"Titanic"},"relations":[],"meta":{},"wkt":"Point(8.4678371 40.8186753)"},{"type":"node","id":3666761467,"tags":{"amenity":"bar","name":"Bar"},"relations":[],"meta":{},"wkt":"Point(8.4967459 39.43742)"},{"type":"node","id":3666761470,"tags":{"amenity":"bar"},"relations":[],"meta":{},"wkt":"Point(8.4991264 39.435781)"},{"type":"node","id":3666761473,"tags":{"amenity":"bar"},"relations":[],"meta":{},"wkt":"Point(8.4981453 39.4362075)"},{"type":"node","id":3721833435,"tags":{"amenity":"bar","name":"Harry's Bar"},"relations":[],"meta":{},"wkt":"Point(9.3630733 41.1928452)"},{"type":"node","id":3746224684,"tags":{"amenity":"bar","cuisine":"sandwich"},"relations":[],"meta":{},"wkt":"Point(8.9363702 38.9349126)"},{"type":"node","id":3746229924,"tags":{"amenity":"bar","cuisine":"sandwich"},"relations":[],"meta":{},"wkt":"Point(8.8715786 38.8896289)"},{"type":"node","id":3759536115,"tags":{"addr:city":"Cagliari","addr:country":"IT","addr:housenumber":"90","addr:street":"Via San Domenico","amenity":"bar","name":"Bar Florio","phone":"+39 035 27460921"},"relations":[],"meta":{},"wkt":"Point(9.119472 39.2184187)"},{"type":"node","id":3802331725,"tags":{"addr:city":"Pozzomaggiore","addr:housenumber":"24","addr:postcode":"07018","addr:street":"Piazza Maggiore","amenity":"bar","name":"Bar Arru","operator":"Corongiu Piercarlo","outdoor_seating":"yes","ref:vatin":"02503140903"},"relations":[],"meta":{},"wkt":"Point(8.6588054 40.3978612)"},{"type":"node","id":3802331726,"tags":{"amenity":"bar","name":"Bar Cuccuru Laura"},"relations":[],"meta":{},"wkt":"Point(8.663591 40.3989577)"},{"type":"node","id":3802331727,"tags":{"amenity":"bar","name":"Bar Cuccuru Salvatore"},"relations":[],"meta":{},"wkt":"Point(8.6598141 40.397728)"},{"type":"node","id":3802331728,"tags":{"amenity":"bar","name":"Bar Falchi"},"relations":[],"meta":{},"wkt":"Point(8.6552501 40.3950752)"},{"type":"node","id":3802331729,"tags":{"addr:city":"Pozzomaggiore","addr:postcode":"07018","addr:street":"Via Grande","amenity":"bar","name":"Bar La Nuova Taverna","operator":"CU. MI. snc","outdoor_seating":"yes","ref:vatin":"02443390907"},"relations":[],"meta":{},"wkt":"Point(8.6581653 40.3989533)"},{"type":"node","id":3802331730,"tags":{"amenity":"bar","name":"Bar Leoni Mario"},"relations":[],"meta":{},"wkt":"Point(8.6584134 40.3984496)"},{"type":"node","id":3802331731,"tags":{"amenity":"bar","name":"Bar Leoni Salvatore","tobacco":"yes"},"relations":[],"meta":{},"wkt":"Point(8.6585653 40.3988676)"},{"type":"node","id":3802331732,"tags":{"amenity":"bar","name":"Bar Oppes","tobacco":"yes"},"relations":[],"meta":{},"wkt":"Point(8.6585155 40.3978208)"},{"type":"node","id":3802331733,"tags":{"amenity":"bar","name":"Bar Su Meriagu"},"relations":[],"meta":{},"wkt":"Point(8.6599768 40.3994748)"},{"type":"node","id":3802331734,"tags":{"amenity":"bar","name":"Bar Sweet Dreams"},"relations":[],"meta":{},"wkt":"Point(8.6504629 40.3936461)"},{"type":"node","id":3802331735,"tags":{"amenity":"bar","name":"Bar Urru"},"relations":[],"meta":{},"wkt":"Point(8.6585442 40.397321)"},{"type":"node","id":3802331746,"tags":{"amenity":"bar","name":"Gito Bar"},"relations":[],"meta":{},"wkt":"Point(8.6589203 40.3977103)"},{"type":"node","id":3802332177,"tags":{"amenity":"bar"},"relations":[],"meta":{},"wkt":"Point(8.6589943 40.3985008)"},{"type":"node","id":3804582416,"tags":{"amenity":"bar","name":"Kill Time"},"relations":[],"meta":{},"wkt":"Point(8.6585769 40.3993177)"},{"type":"node","id":3806919203,"tags":{"amenity":"bar"},"relations":[],"meta":{},"wkt":"Point(9.3938618 39.8100977)"},{"type":"node","id":3806919204,"tags":{"amenity":"bar"},"relations":[],"meta":{},"wkt":"Point(9.3949508 39.8097804)"},{"type":"node","id":3818550144,"tags":{"amenity":"bar"},"relations":[],"meta":{},"wkt":"Point(9.124156 39.2706292)"},{"type":"node","id":3844532841,"tags":{"amenity":"bar","name":"Excalibur"},"relations":[],"meta":{},"wkt":"Point(8.6846346 40.9016096)"},{"type":"node","id":3875818730,"tags":{"amenity":"bar","name":"Cormoran","outdoor_seating":"yes"},"relations":[],"meta":{},"wkt":"Point(9.4857938 39.136037)"},{"type":"node","id":4054004902,"tags":{"amenity":"bar","food":"yes","name":"Bar Incognito","outdoor_seating":"yes"},"relations":[],"meta":{},"wkt":"Point(9.1133429 39.2178092)"},{"type":"node","id":4054004913,"tags":{"amenity":"bar","name":"Sax Beach","outdoor_seating":"yes"},"relations":[],"meta":{},"wkt":"Point(9.1910049 39.2214799)"},{"type":"node","id":4054004914,"tags":{"amenity":"bar","name":"Zen","wheelchair":"yes"},"relations":[],"meta":{},"wkt":"Point(9.216215 39.2285996)"},{"type":"node","id":4097355112,"tags":{"amenity":"bar","name":"Babilonia"},"relations":[],"meta":{},"wkt":"Point(9.6983385 39.9217062)"},{"type":"node","id":4097753682,"tags":{"amenity":"bar"},"relations":[],"meta":{},"wkt":"Point(9.6728366 39.9322228)"},{"type":"node","id":4198756625,"tags":{"amenity":"bar","name":"Bar"},"relations":[],"meta":{},"wkt":"Point(9.5851686 40.8999959)"},{"type":"node","id":4207202908,"tags":{"addr:city":"Nuoro","addr:housenumber":"119","addr:postcode":"08100","addr:street":"Corso Giuseppe Garibaldi","amenity":"bar","name":"Carta Francesco","phone":"+39 340 4127702","source":"Regione Autonoma della Sardegna (www.sardegnageoportale.it)"},"relations":[],"meta":{},"wkt":"Point(9.3330437 40.3210922)"},{"type":"node","id":4207291139,"tags":{"addr:city":"Nuoro","addr:housenumber":"71","addr:postcode":"08100","addr:street":"Corso Giuseppe Garibaldi","alt_name":"Bar Majore","amenity":"bar","facebook":"https://www.facebook.com/caffetettamanzi1875/","name":"Caffè Tettamanzi","opening_hours":"Mo-Sa 06:00-02:00; Su 16:00-23:45","smoking":"outside","source":"Regione Autonoma della Sardegna (www.sardegnageoportale.it)","wikidata":"Q20009080","wikipedia":"it:Caffè Tettamanzi"},"relations":[],"meta":{},"wkt":"Point(9.3344156 40.3212459)"},{"type":"node","id":4209730255,"tags":{"amenity":"bar","name":"Bar Central"},"relations":[],"meta":{},"wkt":"Point(8.768799 40.4167315)"},{"type":"node","id":4212022450,"tags":{"amenity":"bar","name":"Bar"},"relations":[],"meta":{},"wkt":"Point(8.7900627 40.9216486)"},{"type":"node","id":4212026873,"tags":{"amenity":"bar","name":"Bar"},"relations":[],"meta":{},"wkt":"Point(8.7840014 40.9195209)"},{"type":"node","id":4223196991,"tags":{"amenity":"bar"},"relations":[],"meta":{},"wkt":"Point(8.97125 39.1788052)"},{"type":"node","id":4223606903,"tags":{"amenity":"bar"},"relations":[],"meta":{},"wkt":"Point(9.6922619 40.7630156)"},{"type":"node","id":4230228526,"tags":{"amenity":"bar","name":"Bar Collu"},"relations":[],"meta":{},"wkt":"Point(8.6615769 39.4933675)"},{"type":"node","id":4230233519,"tags":{"amenity":"bar"},"relations":[],"meta":{},"wkt":"Point(8.6623225 39.4951372)"},{"type":"node","id":4230236627,"tags":{"amenity":"bar"},"relations":[],"meta":{},"wkt":"Point(8.6636958 39.4895671)"},{"type":"node","id":4260233951,"tags":{"addr:city":"Baja Sardinia","addr:postcode":"07021","addr:street":"Piazzetta Due Vele","amenity":"bar","name":"Barracuda"},"relations":[],"meta":{},"wkt":"Point(9.4784436 41.1399753)"},{"type":"node","id":4260455750,"tags":{"addr:city":"Arzachena","addr:housenumber":"1","addr:postcode":"07021","addr:street":"Viale Costa Smeralda","amenity":"bar","name":"Enoteca Demuro","shop":"wine"},"relations":[],"meta":{},"wkt":"Point(9.4033355 41.0691685)"},{"type":"node","id":4279220568,"tags":{"amenity":"bar","name":"Didobeach"},"relations":[],"meta":{},"wkt":"Point(8.4130961 39.4320471)"},{"type":"node","id":4279221016,"tags":{"amenity":"bar"},"relations":[],"meta":{},"wkt":"Point(8.4685544 39.57782)"},{"type":"node","id":4284105680,"tags":{"amenity":"bar"},"relations":[],"meta":{},"wkt":"Point(9.792368 40.4463863)"},{"type":"node","id":4324537279,"tags":{"amenity":"bar"},"relations":[],"meta":{},"wkt":"Point(9.6575671 39.6936881)"},{"type":"node","id":4329790529,"tags":{"addr:city":"Seneghe","addr:housenumber":"115","addr:postcode":"09070","addr:street":"Corso Umberto","amenity":"bar","name":"Bar dello Sport"},"relations":[],"meta":{},"wkt":"Point(8.6131748 40.0808765)"},{"type":"node","id":4351611211,"tags":{"amenity":"bar","cuisine":"coffee_shop;breakfast;tea;pasta;sandwich;italian","name":"Stabilimento Balneare Pineta","opening_hours":"Mo-Su 09:00-19:00","phone":"+39 349 1572002"},"relations":[],"meta":{},"wkt":"Point(8.3070437 40.5858565)"},{"type":"node","id":4351677589,"tags":{"amenity":"bar","name":"Bar Anellino"},"relations":[],"meta":{},"wkt":"Point(8.5621526 40.6771394)"},{"type":"node","id":4365007094,"tags":{"addr:city":"Carbonia","addr:housenumber":"1","addr:postcode":"09013","addr:street":"Via Roma","amenity":"bar","name":"Neb Cafe"},"relations":[],"meta":{},"wkt":"Point(8.5248326 39.1653428)"},{"type":"node","id":4366297590,"tags":{"amenity":"bar","name":"Caffè Bistrò"},"relations":[],"meta":{},"wkt":"Point(8.5269446 39.164084)"},{"type":"node","id":4373352185,"tags":{"amenity":"bar","name":"Jo Lounge Bar"},"relations":[],"meta":{},"wkt":"Point(8.5255315 39.1676149)"},{"type":"node","id":4381915390,"tags":{"amenity":"bar","name:en":"Yatching Bar"},"relations":[],"meta":{},"wkt":"Point(9.5242829 40.9150993)"},{"type":"node","id":4389742193,"tags":{"amenity":"bar","name":"Is Fradis Beach Club","name:it":"Is Fradis Beach Club"},"relations":[],"meta":{},"wkt":"Point(9.562181 39.1940943)"},{"type":"node","id":4393183961,"tags":{"addr:city":"Tortolì","addr:housenumber":"80","addr:postcode":"08048","addr:street":"Via Monsignor Virgilio","amenity":"bar","name":"Bella Vista Bio Caffè","opening_hours":"06:00-04:00","phone":"+39 339 3973600","smoking":"outside","website":"http://bellavistacafe.it/"},"relations":[],"meta":{},"wkt":"Point(9.6690412 39.9273861)"},{"type":"node","id":4393205487,"tags":{"amenity":"bar"},"relations":[],"meta":{},"wkt":"Point(9.6936066 39.9198238)"},{"type":"node","id":4393273535,"tags":{"amenity":"bar","name":"Green bar"},"relations":[],"meta":{},"wkt":"Point(9.6784897 39.9287248)"},{"type":"node","id":4393273537,"tags":{"amenity":"bar","name":"India Cafè"},"relations":[],"meta":{},"wkt":"Point(9.6719508 39.9278046)"},{"type":"node","id":4393273552,"tags":{"amenity":"bar","name":"Skipper"},"relations":[],"meta":{},"wkt":"Point(9.6669703 39.9270521)"},{"type":"node","id":4393586988,"tags":{"amenity":"bar","name":"Bar Europa","smoking":"outside"},"relations":[],"meta":{},"wkt":"Point(9.6658753 39.9271848)"},{"type":"node","id":4393588801,"tags":{"amenity":"bar","name":"Carpe Diem"},"relations":[],"meta":{},"wkt":"Point(9.6648865 39.9270258)"},{"type":"node","id":4394929481,"tags":{"amenity":"bar","name":"Caffè & Caffè"},"relations":[],"meta":{},"wkt":"Point(9.6621102 39.9262342)"},{"type":"node","id":4394929484,"tags":{"amenity":"bar","disused":"yes","name":"La Siesta"},"relations":[],"meta":{},"wkt":"Point(9.6619863 39.9265221)"},{"type":"node","id":4394929487,"tags":{"amenity":"bar","name":"Cafè Nostalgia","smoking":"outside"},"relations":[],"meta":{},"wkt":"Point(9.6625628 39.9263364)"},{"type":"node","id":4394929591,"tags":{"amenity":"bar","name":"La Piazzetta"},"relations":[],"meta":{},"wkt":"Point(9.6579143 39.9263367)"},{"type":"node","id":4397284881,"tags":{"amenity":"bar","name":"Punto di Incontro"},"relations":[],"meta":{},"wkt":"Point(9.6648441 39.9266874)"},{"type":"node","id":4400725154,"tags":{"abandoned":"yes","amenity":"bar","name":"Mai-Tai","smoking":"outside"},"relations":[],"meta":{},"wkt":"Point(9.7035753 39.9238843)"},{"type":"node","id":4400725155,"tags":{"amenity":"bar","name":"Bouganville","shop":"tobacco","smoking":"outside"},"relations":[],"meta":{},"wkt":"Point(9.7053464 39.9257529)"},{"type":"node","id":4400725156,"tags":{"amenity":"bar","name":"Symposion Lounge Bar","opening_hours":"18:00-01:00","phone":"+39 0782 667080","smoking":"outside"},"relations":[],"meta":{},"wkt":"Point(9.7071374 39.9252314)"},{"type":"node","id":4400725206,"tags":{"addr:city":"Tortolì","addr:housenumber":"38","addr:postcode":"08048","addr:street":"Via Porto Frailis","amenity":"bar","name":"Incontro Divino","opening_hours":"18:00-02:00","smoking":"outside"},"relations":[],"meta":{},"wkt":"Point(9.7062817 39.9278979)"},{"type":"node","id":4400792237,"tags":{"amenity":"bar","disused":"yes","name":"Bar Boi","smoking":"outside"},"relations":[],"meta":{},"wkt":"Point(9.6559154 39.9264927)"},{"type":"node","id":4400843750,"tags":{"amenity":"bar","name":"La Corte","tourism":"hotel"},"relations":[],"meta":{},"wkt":"Point(9.6576671 39.9263948)"},{"type":"node","id":4401061713,"tags":{"amenity":"bar","name":"Da Franco"},"relations":[],"meta":{},"wkt":"Point(9.663566 39.927509)"},{"type":"node","id":4401092843,"tags":{"amenity":"bar","name":"Bar Gennargentu"},"relations":[],"meta":{},"wkt":"Point(9.6599381 39.9311298)"},{"type":"node","id":4403953398,"tags":{"amenity":"bar","cuisine":"international","name":"Phi Beach Club","name:it":"Phi Beach Club","opening_hours":"Mo-Su 13:00-01:00"},"relations":[],"meta":{},"wkt":"Point(9.4672636 41.1423256)"},{"type":"node","id":4404142036,"tags":{"amenity":"bar"},"relations":[],"meta":{},"wkt":"Point(9.6697909 39.9278155)"},{"type":"node","id":4404184591,"tags":{"amenity":"bar"},"relations":[],"meta":{},"wkt":"Point(9.654832 39.9266677)"},{"type":"node","id":4406539637,"tags":{"amenity":"bar","name":"Lo Sport è Vita","phone":"+39 0782 624827","smoking":"outside"},"relations":[],"meta":{},"wkt":"Point(9.6682592 39.9246019)"},{"type":"node","id":4413084125,"tags":{"amenity":"bar"},"relations":[],"meta":{},"wkt":"Point(9.2697652 41.1971245)"},{"type":"node","id":4415387812,"tags":{"amenity":"bar","name":"Bar The Garden","outdoor_seating":"yes"},"relations":[],"meta":{},"wkt":"Point(9.6708476 40.7720958)"},{"type":"node","id":4417210512,"tags":{"amenity":"bar"},"relations":[],"meta":{},"wkt":"Point(9.4777558 41.1403265)"},{"type":"node","id":4429185414,"tags":{"amenity":"bar"},"relations":[],"meta":{},"wkt":"Point(9.6661525 40.7703926)"},{"type":"node","id":4430692583,"tags":{"addr:city":"Pau","addr:housenumber":"4","addr:postcode":"09090","addr:street":"Via Santa Prisca","amenity":"bar","email":"caffeletterario@casaborrelli.it","facebook":"https://www.facebook.com/Casa-Borrelli-Biblioteca-Caff%C3%A8-Letterario-272785469772838/","name":"Casa Borrelli - Caffè Letterario","opening_hours":"Tu-Su 08:30-14:30,16:00-22:00","operator":"SISAR Servizi di Archiviazione","phone":"+39 0783 93 90 90","website":"http://casaborrelli.it","wifi":"free"},"relations":[],"meta":{},"wkt":"Point(8.8023055 39.7927428)"},{"type":"node","id":4438870386,"tags":{"amenity":"bar","name":"Oblomow"},"relations":[],"meta":{},"wkt":"Point(9.1117663 39.2180602)"},{"type":"node","id":4438870896,"tags":{"amenity":"bar","name":"Kubrick"},"relations":[],"meta":{},"wkt":"Point(9.111776 39.2178176)"},{"type":"node","id":4439109993,"tags":{"amenity":"bar","name":"Niu"},"relations":[],"meta":{},"wkt":"Point(9.1119037 39.2177633)"},{"type":"node","id":4449240589,"tags":{"amenity":"bar","name":"Bar Rotondo"},"relations":[],"meta":{},"wkt":"Point(9.1129238 39.2214647)"},{"type":"node","id":4449240590,"tags":{"amenity":"bar","name":"Da Robertino Bar"},"relations":[],"meta":{},"wkt":"Point(9.1121026 39.2200045)"},{"type":"node","id":4473478460,"tags":{"addr:city":"Alghero","addr:housenumber":"4","addr:postcode":"07041","addr:street":"Via Lido","amenity":"bar","internet_access":"wlan","name":"Alghero Holiday's Club"},"relations":[],"meta":{},"wkt":"Point(8.3164769 40.574047)"},{"type":"node","id":4473478476,"tags":{"addr:city":"Alghero","addr:housenumber":"48","addr:postcode":"07041","addr:street":"Via Alberto La Marmora","amenity":"bar","level":"0","name":"Cosmopolitan","phone":"+39 340 666 2335","smoking":"outside","website":"https://www.facebook.com/barcosmopolitan.alghero"},"relations":[],"meta":{},"wkt":"Point(8.318074 40.5596971)"},{"type":"node","id":4473484690,"tags":{"addr:city":"Alghero","addr:housenumber":"5","addr:postcode":"07041","addr:street":"Via Alberto La Marmora","amenity":"bar","level":"0","name":"Imperial Bar","phone":"+39 079 984761","smoking":"outside"},"relations":[],"meta":{},"wkt":"Point(8.3166213 40.5612801)"},{"type":"node","id":4473484694,"tags":{"addr:city":"Alghero","addr:housenumber":"6","addr:postcode":"07041","addr:street":"Lungomare Dante Alighieri","amenity":"bar","name":"L'Arca Music Bar","old_name":"L'Arca"},"relations":[],"meta":{},"wkt":"Point(8.3158592 40.5542834)"},{"type":"node","id":4473532107,"tags":{"addr:city":"Alghero","addr:housenumber":"7","addr:postcode":"07041","addr:street":"Piazza Santa Croce","amenity":"bar","contact:mobile":"+39 344 209 4615","facebook":"https://it-it.facebook.com/santacrocealghero/","name":"Santacroce Lounge Café","phone":"+39 079 973 6083","smoking":"outside"},"relations":[],"meta":{},"wkt":"Point(8.3114788 40.5598289)"},{"type":"node","id":4477759192,"tags":{"amenity":"bar","cuisine":"sandwich;donut;breakfast;tea;coffee_shop","internet_access":"wlan","name":"Mu.Ma","name:it":"Mu.Ma"},"relations":[],"meta":{},"wkt":"Point(9.589778 40.888296)"},{"type":"node","id":4520785490,"tags":{"amenity":"bar"},"relations":[],"meta":{},"wkt":"Point(9.499482 40.9201908)"},{"type":"node","id":4535905547,"tags":{"addr:city":"Nuoro","addr:postcode":"08100","addr:street":"Piazza Goffredo Mameli","amenity":"bar","email":"eventi@exmenuoro.it","facebook":"https://www.facebook.com/nobelventisei","name":"Nobel '26","phone":"+39 0784 195 1633","website":"http://www.exmenuoro.it/"},"relations":[],"meta":{},"wkt":"Point(9.3333351 40.3193244)"},{"type":"node","id":4549035932,"tags":{"addr:city":"San Teodoro","addr:housenumber":"32","addr:postcode":"08020","addr:street":"Via Antonio Gramsci","amenity":"bar","name":"Peppe","phone":"348 9757620"},"relations":[],"meta":{},"wkt":"Point(9.6668381 40.7750566)"},{"type":"node","id":4564676070,"tags":{"amenity":"bar"},"relations":[],"meta":{},"wkt":"Point(9.3841274 41.1809545)"},{"type":"node","id":4580861489,"tags":{"amenity":"bar","name:en":"Jerry's Beach & Bar"},"relations":[],"meta":{},"wkt":"Point(9.5225831 41.0526908)"},{"type":"node","id":4614259390,"tags":{"amenity":"bar","name":"Special One Caffè","name:it":"Special One Caffè"},"relations":[],"meta":{},"wkt":"Point(9.5440307 39.8936954)"},{"type":"node","id":4620902596,"tags":{"addr:city":"Nuoro","addr:housenumber":"8","addr:postcode":"08100","addr:street":"Piazza Giuseppe Mazzini","amenity":"bar","facebook":"https://www.facebook.com/Bar-nuovo-nuoro-page-1421391731500555/","name":"Bar Nuovo","opening_hours":"06:00-02:00","outdoor_seating":"yes","phone":"+39 0784 232086","smoking":"outside"},"relations":[],"meta":{},"wkt":"Point(9.3349087 40.3214178)"},{"type":"node","id":4703272564,"tags":{"amenity":"bar","name":"Zanzibar"},"relations":[],"meta":{},"wkt":"Point(8.6354252 39.7193333)"},{"type":"node","id":4757702671,"tags":{"amenity":"bar","name":"Bar Tharros"},"relations":[],"meta":{},"wkt":"Point(8.5301994 39.9300783)"},{"type":"node","id":4811252323,"tags":{"addr:housenumber":"3 B/C","addr:postcode":"08048","addr:street":"Via Monsignor Virgilio","amenity":"bar","name":"Cremeria e Gelateria","name:it":"Cremeria e Gelateria","opening_hours":"Mo-Su 08:00-22:00"},"relations":[],"meta":{},"wkt":"Point(9.662151 39.9265478)"},{"type":"node","id":4849766979,"tags":{"addr:city":"Sìligo","addr:postcode":"07040","addr:street":"Via Francesco Cossiga","amenity":"bar","ele":"440","name":"Biddau","opening_hours":"Mo-Sa_08:00-24:00","outdoor_seating":"yes","smoking":"no"},"relations":[],"meta":{},"wkt":"Point(8.7271611 40.5754952)"}]