[{"type":"relation","id":2864199,"tags":{"building":"yes","name":"Museo Civico Archeologico di Cuglieri","old_name":"Convento dei Cappuccini","tourism":"museum","type":"multipolygon"},"relations":[],"meta":{}},{"type":"relation","id":2984741,"tags":{"tourism":"museum","type":"multipolygon"},"relations":[],"meta":{}},{"type":"relation","id":3163211,"tags":{"addr:city":"Nuoro","addr:housenumber":"1","addr:postcode":"08100","addr:street":"Via Mannu","alt_name":"Museo Archeologico Nazionale","building":"yes","charge":"2€","email":"sar-sar.sedenuoro@beniculturali.it","facebook":"https://www.facebook.com/Museo-Archeologico-Nazionale-Giorgio-Asproni-Nuoro-1453448494910944/","fee":"yes","name":"Museo Nazionale Archeologico di Nuoro","name:en":"National Archaeological Museum of Nuoro","name:it":"Museo Nazionale Archeologico di Nuoro","name:sc":"Museu Natzionale Archeològicu de Nùgoro","opening_hours":"Tu,Th 09:00-13:00,15:00-17:00; We,Fr,Sa 09:00-13:00","phone":"+39 39 0784 31688","tourism":"museum","type":"multipolygon","website":"http://www.museoarcheologiconuoro.beniculturali.it","website_1":"http://www.museoarcheologiconuoro.it/","wikidata":"Q16580648","wikipedia":"it:Museo nazionale archeologico di Nuoro"},"relations":[],"meta":{}},{"type":"relation","id":3411583,"tags":{"addr:city":"Nuoro","addr:housenumber":"27","addr:postcode":"08100","addr:street":"Via Sebastiano Satta","building":"yes","charge":"5€","email":"info@museoman.it","facebook":"https://www.facebook.com/MAN_Museo-dArte-Provincia-di-Nuoro-53837474214/","fee":"yes","instagram":"https://www.instagram.com/man_museo/","name":"MAN - Museo d'Arte della Provincia di Nuoro","opening_hours":"Jun-Aug Tu-Su 10:00-20:00; Sep-May Tu-Su 10:00-13:00,15:00-19:00; ","phone":"+39 0784 252110","tourism":"museum","twitter":"https://twitter.com/MAN_MUSEO","type":"multipolygon","website":"http://museoman.it","wheelchair":"yes","wikidata":"Q3867857","wikipedia":"it:Museo d'arte della provincia di Nuoro"},"relations":[],"meta":{}},{"type":"relation","id":3792740,"tags":{"name":"Padiglione I.S.O.L.A","tourism":"museum","type":"multipolygon"},"relations":[],"meta":{}},{"type":"relation","id":3935522,"tags":{"addr:city":"Cabras","addr:postcode":"09072","addr:street":"Via Tharros","building":"yes","charge":"5€","contact:fax":"+39 0783370019","contact:phone":"+39 0783290636","description":"Storia e archeologia del Sinis","email":"cooperativa@penisoladelsinis.it","facebook":"https://www.facebook.com/MuseoCivicoCabras","fee":"yes","instagram":"https://www.instagram.com/museocabras/","name":"Museo civico Giovanni Marongiu","opening_hours":"9:00-13:00; Jan-May,Sep-Dec 15:00-19:00; Jun-Aug 16:00-20:00; ","tourism":"museum","twitter":"https://twitter.com/MuseodiCabras","type":"multipolygon","website":"http://www.museocabras.it","website_1":"http://www.penisoladelsinis.it","wikidata":"Q3867670","wikipedia":"it:Museo archeologico comunale Giovanni Marongiu"},"relations":[],"meta":{}},{"type":"relation","id":3947951,"tags":{"addr:city":"Borore","addr:country":"IT","addr:housenumber":"11","addr:postcode":"08016","addr:street":"Viale Beccarini","building":"public","contact:website":"http://www.museodelpanerituale.it/","name":"Museo del pane rituale","tourism":"museum","type":"multipolygon"},"relations":[],"meta":{}}]