[{"type":"node","id":72990672,"tags":{"alt_name":"Nùgoro","capital":"6","gfoss_id":"7347","name":"Nùgoro/Nuoro","name:it":"Nuoro","name:ru":"Нуоро","name:sc":"Nùgoro","name:zh":"努奥罗","place":"town","population":"36678","postal_code":"08100","ref:LOCODE":"ITQNU","source":"geodati.gfoss.it","wikidata":"Q13649","wikipedia":"it:Nuoro","wikipedia:sc":"Nùgoro"},"relations":[],"meta":{},"wkt":"Point(9.3297339 40.3210601)"},{"type":"node","id":72990702,"tags":{"alt_name":"Carbònia","capital":"6","gfoss_id":"7409","is_in":"Sud Sardegna, Sardegna, Italy","name":"Carbonia","name:it":"Carbonia","name:sc":"Carbònia","name:zh":"卡尔博尼亚","place":"town","population":"30447","postal_code":"09013","source":"geodati.gfoss.it","website":"http://www.comune.carbonia.ci.it/urbiportal/home.html","wikidata":"Q13660","wikipedia":"it:Carbonia","wikipedia:sc":"Carbònia"},"relations":[],"meta":{},"wkt":"Point(8.527834 39.165332)"},{"type":"node","id":72990716,"tags":{"capital":"8","gfoss_id":"7430","is_in":"Sud Sardegna, Sardegna, Italy","name":"Igrèsias/Iglesias","name:fr":"Iglesias","name:it":"Iglesias","name:sc":"Igresias","name:zh":"伊格莱夏斯","place":"town","population":"28170","postal_code":"09016","source":"geodati.gfoss.it","wikidata":"Q13661","wikipedia":"sc:Igrèsias","wikipedia:it":"Iglesias"},"relations":[],"meta":{},"wkt":"Point(8.5341109 39.3125402)"},{"type":"node","id":72990733,"tags":{"alt_name":"Bidda de Cidru","alt_name_1":"Biddexidru","capital":"8","gfoss_id":"7489","name":"Biddacidru/Villacidro","name:it":"Villacidro","name:sc":"Biddacidru","place":"town","population":"14732","postal_code":"09039","ref:LOCODE":"ITVCD","source":"geodati.gfoss.it","website":"http://www.comune.villacidro.vs.it/","wikidata":"Q13654","wikipedia":"sc:Biddacidru"},"relations":[],"meta":{},"wkt":"Point(8.7320978 39.4559943)"},{"type":"node","id":72990751,"tags":{"alt_name":"Tortuelie","capital":"8","gfoss_id":"7389","name":"Tortolì","name:it":"Tortolì","name:sc":"Tortolì","name:zh":"托尔托利","place":"town","population":"10609","population:date":"2009-01-01","postal_code":"08048","ref:LOCODE":"ITTTB","source":"geodati.gfoss.it","source:population":"http://demo.istat.it/pop2009/index.html","website":"http://www.comuneditortoli.it/","wikidata":"Q13659","wikipedia":"it:Tortolì"},"relations":[],"meta":{},"wkt":"Point(9.6591551 39.9266045)"},{"type":"node","id":72990773,"tags":{"capital":"8","gfoss_id":"7277","name":"Tèmpiu/Tempio Pausania","name:co":"Tèmpiu","name:it":"Tempio Pausania","name:ru":"Темпио Паусания","name:sc":"Tèmpiu","name:zh":"坦皮奧袍沙尼亞","place":"town","population":"13992","ref:LOCODE":"ITZVH","source":"geodati.gfoss.it","website":"http://www.comune.tempiopausania.ot.it/index.php","wikidata":"Q13645","wikipedia":"it:Tempio Pausania","wikipedia:sc":"Tèmpiu"},"relations":[],"meta":{},"wkt":"Point(9.1035159 40.8973821)"},{"type":"node","id":72990791,"tags":{"gfoss_id":"7400","is_in":"Cagliari, Sardegna, Italy","name":"Assèmini/Assemini","name:it":"Assemini","name:sc":"Assèmini","place":"town","population":"23973","postal_code":"09032","source":"geodati.gfoss.it","website":"http://www.comune.assemini.ca.it/","wikidata":"Q283609","wikipedia":"sc:Assèmini","wikipedia:it":"Assemini"},"relations":[],"meta":{},"wkt":"Point(9.001542 39.291538)"},{"type":"node","id":72990822,"tags":{"gfoss_id":"7408","is_in":"Cagliari, Sardegna, Italy","name":"Cabuderra/Capoterra","name:it":"Capoterra","name:sc":"Cabuderra","place":"town","population":"21391","postal_code":"09012","source":"geodati.gfoss.it","website":"http://www.comune.capoterra.ca.it/","wikidata":"Q283723","wikipedia":"sc:Cabuderra"},"relations":[],"meta":{},"wkt":"Point(8.971843 39.176336)"},{"type":"node","id":72990899,"tags":{"gfoss_id":"7429","name":"Gùspini/Guspini","name:it":"Guspini","name:sc":"Gùspini","place":"town","population":"12695","postal_code":"09036","ref:LOCODE":"ITZKC","source":"geodati.gfoss.it","website":"http://www.comune.guspini.vs.it/","wikidata":"Q287739","wikipedia":"it:Guspini","wikipedia:sc":"Gùspini"},"relations":[],"meta":{},"wkt":"Point(8.633131 39.54134)"},{"type":"node","id":72990954,"tags":{"alt_name":"Cuartu Sant'Aleni","gfoss_id":"7448","is_in":"Cagliari, Sardegna, Italy","name":"Quartu Sant'Elena","name:it":"Quartu Sant'Elena","name:sc":"Cuartu Sant'Aleni","place":"town","population":"68040","postal_code":"09045","postal_code_1":"09046","source":"geodati.gfoss.it","website":"http://www.comune.quartusantelena.ca.it/","wikidata":"Q284516","wikipedia":"it:Quartu Sant'Elena","wikipedia:sc":"Quartu Sant'Aleni"},"relations":[],"meta":{},"wkt":"Point(9.1880967 39.2399728)"},{"type":"node","id":72991065,"tags":{"gfoss_id":"7465","name":"Ceraxus/Selargius","name:it":"Selargius","name:sc":"Ceraxus","place":"town","population":"28911","postal_code":"09047","ref:LOCODE":"ITZTD","source":"geodati.gfoss.it","website":"http://www.comune.selargius.ca.it/","wikidata":"Q145856","wikipedia":"sc:Ceraxius"},"relations":[],"meta":{},"wkt":"Point(9.1675535 39.2569504)"},{"type":"node","id":72991192,"tags":{"alt_name":"Paulli","gfoss_id":"7506","name":"Paùli/Monserrato","name:it":"Monserrato","name:sc":"Paùli","place":"town","population":"20829","postal_code":"09042","ref:LOCODE":"ITONS","source":"geodati.gfoss.it","website":"http://www.comune.monserrato.ca.it/","wikidata":"Q284342","wikipedia":"sc:Paùli"},"relations":[],"meta":{},"wkt":"Point(9.1458562 39.25951)"},{"type":"node","id":72991529,"tags":{"gfoss_id":"7471","is_in":"Cagliari, Sardegna, Italy","name":"Sestu","name:it":"Sestu","name:sc":"Sestu","place":"town","population":"15233","postal_code":"09028","source":"geodati.gfoss.it","website":"http://www.comune.sestu.ca.it/","wikidata":"Q285089","wikipedia":"it:Sestu","wikipedia:sc":"Sestu"},"relations":[],"meta":{},"wkt":"Point(9.0929717 39.2942475)"},{"type":"node","id":72991602,"tags":{"gfoss_id":"7477","name":"Sìnnia/Sinnai","name:it":"Sinnai","name:sc":"Sìnnia","place":"town","population":"15235","postal_code":"09048","source":"geodati.gfoss.it","website":"http://www.comune.sinnai.ca.it/","wikidata":"Q285172","wikipedia":"it:Sinnai","wikipedia:sc":"Sìnnia"},"relations":[],"meta":{},"wkt":"Point(9.2035381 39.3042403)"},{"type":"node","id":72991806,"tags":{"alt_name":"Cuartuciu","gfoss_id":"7502","is_in":"Cagliari, Sardegna, Italy","name":"Cuartùciu/Quartucciu","name:it":"Quartucciu","name:sc":"Cuartùciu","place":"town","population":"10766","postal_code":"09044","source":"geodati.gfoss.it","website":"http://www.comune.quartucciu.ca.it/","wikidata":"Q284501","wikipedia":"it:Quartucciu","wikipedia:sc":"Quartùcciu"},"relations":[],"meta":{},"wkt":"Point(9.178846 39.254139)"},{"type":"node","id":72992343,"tags":{"gfoss_id":"7379","name":"Thiniscole/Siniscola","name:it":"Siniscola","name:sc":"Thiniscole","place":"town","population":"10954","postal_code":"08029","ref:LOCODE":"ITSIA","source":"geodati.gfoss.it","website":"http://www.comune.siniscola.nu.it/index.asp","wikidata":"Q295613","wikipedia":"it:Siniscola","wikipedia:sc":"Thiniscole"},"relations":[],"meta":{},"wkt":"Point(9.692238 40.571868)"},{"type":"node","id":72992684,"tags":{"gfoss_id":"7340","name":"Macumere/Macomèr","name:it":"Macomèr","name:sc":"Macumere","place":"town","population":"11116","postal_code":"08015","ref:LOCODE":"ITMCM","source":"geodati.gfoss.it","website":"http://www.comunedimacomer.it/index.asp","wikidata":"Q295248","wikipedia":"it:Macomer","wikipedia:sc":"Macumere"},"relations":[],"meta":{},"wkt":"Point(8.7813868 40.2651904)"},{"type":"node","id":72993222,"tags":{"gfoss_id":"7627","is_in":"Oristano, Sardegna, Italy","name":"Crabas/Cabras","name:it":"Cabras","name:sc":"Crabas","place":"town","population":"8804","postal_code":"09072","source":"geodati.gfoss.it","website":"http://www.comunedicabras.it/","wikidata":"Q385624","wikipedia":"sc:Crabas","wikipedia:it":"Cabras"},"relations":[],"meta":{},"wkt":"Point(8.5320543 39.9303142)"},{"type":"node","id":72993423,"tags":{"alt_name":"Terrarba","gfoss_id":"7674","is_in":"Oristano, Sardegna, Italy","name":"Terraba/Terralba","name:it":"Terralba","name:sc":"Terraba","place":"town","population":"10229","postal_code":"09098","source":"geodati.gfoss.it","website":"http://www.comune.terralba.or.it/","wikidata":"Q389264","wikipedia":"it:Terralba"},"relations":[],"meta":{},"wkt":"Point(8.6361253 39.7203011)"},{"type":"node","id":72994004,"tags":{"gfoss_id":"7265","name":"Posthudorra/Porto Torres","name:it":"Porto Torres","name:sc":"Portu Turre","name:sdc":"Posthudorra","place":"town","population":"21064","postal_code":"07046","source":"geodati.gfoss.it","website":"http://www.comune.porto-torres.ss.it/","wikidata":"Q391316","wikipedia":"it:Porto Torres","wikipedia:sc":"Portu Turre"},"relations":[],"meta":{},"wkt":"Point(8.4031462 40.8344403)"},{"type":"node","id":72994422,"tags":{"gfoss_id":"7276","name":"Sòssu/Sorso","name:co":"Sossu","name:it":"Sorso","name:sc":"Sòssu","name:sdc":"Sòssu","place":"town","population":"12842","postal_code":"07037","source":"geodati.gfoss.it","website":"http://www.comune.sorso.ss.it/"},"relations":[],"meta":{},"wkt":"Point(8.5778501 40.7965949)"},{"type":"node","id":72994513,"tags":{"gfoss_id":"7213","name":"Alzachena/Arzachena","name:co":"Alzachena","name:it":"Arzachena","name:sc":"Altzaghèna","place":"town","population":"10730","ref:LOCODE":"ITAZC","source":"geodati.gfoss.it","website":"http://www.comunearzachena.gov.it/","wikidata":"Q186538","wikipedia":"it:Arzachena"},"relations":[],"meta":{},"wkt":"Point(9.3876122 41.079898)"},{"type":"node","id":72994836,"tags":{"gfoss_id":"7259","name":"Othieri/Ozieri","name:it":"Ozieri","name:sc":"Othieri","place":"town","population":"11334","postal_code":"07014","source":"geodati.gfoss.it","website":"http://www.comune.ozieri.ss.it/","wikidata":"Q391167","wikipedia":"it:Ozieri","wikipedia:sc":"Othieri"},"relations":[],"meta":{},"wkt":"Point(9.001224 40.585962)"},{"type":"node","id":1588631899,"tags":{"gfoss_id":"7310","name":"Bosa","name:it":"Bosa","name:sc":"Bosa","place":"town","population":"7935","postal_code":"08013","ref:LOCODE":"ITBOA","source":"geodati.gfoss.it","website":"http://www.comune.bosa.or.it/","wikidata":"Q385538","wikipedia":"it:Bosa"},"relations":[],"meta":{},"wkt":"Point(8.4986123 40.2970061)"},{"type":"node","id":2376861285,"tags":{"gfoss_id":"7313","name":"Durgali/Dorgali","name:it":"Dorgali","name:sc":"Durgali","place":"town","population":"8190","postal_code":"08022","website":"http://www.dorgali.it/","wikidata":"Q294782","wikipedia":"it:Dorgali","wikipedia:sc":"Durgali"},"relations":[],"meta":{},"wkt":"Point(9.588832 40.2928022)"},{"type":"node","id":2615891332,"tags":{"addr:postcode":"07026","capital":"8","gfoss_id":"7254","name":"Terranoa/Olbia","name:co":"Tarranoa","name:it":"Olbia","name:ru":"Ольбия","name:sc":"Terranòa","name:sdn":"Terranòa","name:zh":"奧爾比亞","place":"town","population":"56512","ref:ISTAT":"104017","ref:LOCODE":"ITOLB","ref:catasto":"G015","source":"geodati.gfoss.it","website":"http://www.comune.olbia.ss.it/","wikidata":"Q13630","wikipedia":"it:Olbia","wikipedia:sc":"Terranoa"},"relations":[],"meta":{},"wkt":"Point(9.4994397 40.9240543)"},{"type":"node","id":2615891333,"tags":{"capital":"6","gfoss_id":"7647","name":"Aristanis/Oristano","name:ca":"Oristany","name:fr":"Oristano","name:it":"Oristano","name:ru":"Ористано","name:sc":"Aristanis","name:zh":"奥里斯塔诺","place":"town","population":"32156","postal_code":"09170","ref:ISTAT":"095038","ref:LOCODE":"ITQOS","ref:catasto":"G113","source":"geodati.gfoss.it","website":"http://www.comune.oristano.it/","wikidata":"Q13652","wikipedia":"it:Oristano","wikipedia:sc":"Aristanis"},"relations":[],"meta":{},"wkt":"Point(8.5916112 39.9059497)"},{"type":"node","id":4429663485,"tags":{"name":"Flumini di Quartu","place":"town","wikidata":"Q2126347","wikipedia":"it:Flumini di Quartu"},"relations":[],"meta":{},"wkt":"Point(9.2865655 39.2178029)"}]