[{"type":"node","id":3718211596,"tags":{"name":"Medau di Ulisse","place":"farm","source":"http://www.panoramio.com/photo/88737857"},"relations":[],"meta":{},"wkt":"Point(8.5984291 39.1830225)"},{"type":"way","id":304548528,"tags":{"addr:city":"Siligo","addr:postcode":"07040","addr:street":"strada vicinale \"Giuncos-Morette\"","description":"fabbricato destinato abitazione e ricovero derrete agricole","name":"PT","place":"farm"},"relations":[],"meta":{},"wkt":"Polygon(8.7370151 40.5982494,8.7369964 40.5983423,8.7368654 40.598327,8.7368841 40.5982342,8.7370151 40.5982494)"},{"type":"way","id":304548612,"tags":{"addr:city":"Sìligo","addr:postcode":"07040","addr:street":"SP 96","description":"vignetto-sughero","name":"E.P.D.","place":"farm"},"relations":[],"meta":{},"wkt":"Polygon(8.7544403 40.6170872,8.7543862 40.6171193,8.75434 40.6170761,8.7543919 40.6170462,8.7544403 40.6170872)"},{"type":"way","id":304548906,"tags":{"addr:city":"Siligo","addr:postcode":"07040","addr:street":"strada vicinale \"Giuncos-Morette\"","description":"orto","ele":"250 m/lm","name":"DG","place":"farm"},"relations":[],"meta":{},"wkt":"Polygon(8.7374176 40.59406,8.7373741 40.5940327,8.7373542 40.5940508,8.7372712 40.5940008,8.7373388 40.5939299,8.7374753 40.5940027,8.7374176 40.59406)"},{"type":"node","id":4825290525,"tags":{"addr:city":"Siligo","addr:postcode":"07040","addr:street":"SP 128","description":"Vignetto-olivetto-orto","ele":"250 m/lm","name":"EV-AF","place":"farm"},"relations":[],"meta":{},"wkt":"Point(8.7346173 40.59226)"},{"type":"node","id":4825307425,"tags":{"addr:city":"Sìligo","addr:postcode":"07040","addr:street":"SP 96","description":"vignetto-olivetto-orto-sughero","name":"GL","place":"farm"},"relations":[],"meta":{},"wkt":"Point(8.7524764 40.6152213)"},{"type":"node","id":4825312092,"tags":{"addr:city":"Sìligo","addr:postcode":"07040","addr:street":"SP 96","description":"vignetto-sugheretto","ele":"400m/lm","name":"E.P.D.","place":"farm"},"relations":[],"meta":{},"wkt":"Point(8.7545259 40.6169821)"},{"type":"node","id":4825322554,"tags":{"addr:city":"Sìligo","addr:postcode":"07040","addr:street":"strada vicinale \"Pubulos\"","description":"allevamento bovini-equini-produzione foraggi","ele":"400 m/lm","name":"Paule","place":"farm"},"relations":[],"meta":{},"wkt":"Point(8.7748375 40.6172615)"},{"type":"node","id":4834690905,"tags":{"addr:city":"Siligo","addr:postcode":"07040","addr:street":"SP 128","description":"orto - allevamento galline","ele":"250 m/lm","name":"LC-","place":"farm"},"relations":[],"meta":{},"wkt":"Point(8.735384 40.5921486)"}]