[{"type":"relation","id":2864199,"tags":{"building":"yes","name":"Museo Civico Archeologico di Cuglieri","old_name":"Convento dei Cappuccini","tourism":"museum","type":"multipolygon"},"relations":[],"meta":{},"wkt":"MULTIPOLYGON(((8.5686017 40.186251,8.5685921 40.1862343,8.5685535 40.1861553,8.5686849 40.1861178,8.5687331 40.1862128,8.5687217 40.1862162,8.5686017 40.186251)),((8.568685 40.1862673,8.5686806 40.1862588,8.568521 40.186308,8.5684957 40.1862596,8.5684603 40.1862704,8.5684364 40.1862152,8.5684063 40.1861464,8.5686906 40.186059,8.5687703 40.1860345,8.5687601 40.186013,8.5688492 40.1859864,8.5689469 40.1859573,8.5689733 40.1860053,8.5690038 40.1860612,8.5688083 40.1861021,8.5688463 40.1861809,8.5688747 40.18624,8.5688193 40.1862531,8.5688066 40.1862561,8.5688576 40.1863409,8.5688005 40.1863574,8.5687935 40.1863494,8.5687396 40.1863659,8.5687214 40.1863393,8.5687163 40.1863292,8.568685 40.1862673)))"},{"type":"relation","id":2984741,"tags":{"tourism":"museum","type":"multipolygon"},"relations":[],"meta":{},"wkt":"MULTIPOLYGON(((8.9233488 39.4196609,8.9233921 39.4196798,8.923376 39.4197041,8.9234815 39.4197569,8.9236068 39.419602,8.9234459 39.41953,8.9234302 39.4195516,8.9233488 39.4196609)),((8.923448 39.4196302,8.9234974 39.4196531,8.9235379 39.4196028,8.9234875 39.4195791,8.923448 39.4196302)))"},{"type":"relation","id":3163211,"tags":{"addr:city":"Nuoro","addr:housenumber":"1","addr:postcode":"08100","addr:street":"Via Mannu","alt_name":"Museo Archeologico Nazionale","building":"yes","charge":"2€","email":"sar-sar.sedenuoro@beniculturali.it","facebook":"https://www.facebook.com/Museo-Archeologico-Nazionale-Giorgio-Asproni-Nuoro-1453448494910944/","fee":"yes","name":"Museo Nazionale Archeologico di Nuoro","name:en":"National Archaeological Museum of Nuoro","name:it":"Museo Nazionale Archeologico di Nuoro","name:sc":"Museu Natzionale Archeològicu de Nùgoro","opening_hours":"Tu,Th 09:00-13:00,15:00-17:00; We,Fr,Sa 09:00-13:00","phone":"+39 39 0784 31688","tourism":"museum","type":"multipolygon","website":"http://www.museoarcheologiconuoro.beniculturali.it","website_1":"http://www.museoarcheologiconuoro.it/","wikidata":"Q16580648","wikipedia":"it:Museo nazionale archeologico di Nuoro"},"relations":[],"meta":{},"wkt":"MULTIPOLYGON(((9.3366615 40.3214971,9.3367463 40.321469,9.3367319 40.3214495,9.3366519 40.3214751,9.3366615 40.3214971)),((9.3367335 40.3215947,9.3366807 40.3215483,9.3367271 40.3215276,9.3367335 40.3215947)),((9.3367591 40.321691,9.3365256 40.3214762,9.3367799 40.3213848,9.3367783 40.3213312,9.3368455 40.3213299,9.3368327 40.3214605,9.3368167 40.3215141,9.3368295 40.3216593,9.3367591 40.321691)))"},{"type":"relation","id":3411583,"tags":{"addr:city":"Nuoro","addr:housenumber":"27","addr:postcode":"08100","addr:street":"Via Sebastiano Satta","building":"yes","charge":"5€","email":"info@museoman.it","facebook":"https://www.facebook.com/MAN_Museo-dArte-Provincia-di-Nuoro-53837474214/","fee":"yes","instagram":"https://www.instagram.com/man_museo/","name":"MAN - Museo d'Arte della Provincia di Nuoro","opening_hours":"Jun-Aug Tu-Su 10:00-20:00; Sep-May Tu-Su 10:00-13:00,15:00-19:00; ","phone":"+39 0784 252110","tourism":"museum","twitter":"https://twitter.com/MAN_MUSEO","type":"multipolygon","website":"http://museoman.it","wheelchair":"yes","wikidata":"Q3867857","wikipedia":"it:Museo d'arte della provincia di Nuoro"},"relations":[],"meta":{},"wkt":"MULTIPOLYGON(((9.3337458 40.3214758,9.3337586 40.3214231,9.3336888 40.3214113,9.3336893 40.3213767,9.3335719 40.3213537,9.3335482 40.3214664,9.3337113 40.321522,9.3338703 40.3215563,9.3338851 40.321508,9.3337458 40.3214758)))"},{"type":"relation","id":3792740,"tags":{"name":"Padiglione I.S.O.L.A","tourism":"museum","type":"multipolygon"},"relations":[],"meta":{},"wkt":"MULTIPOLYGON(((8.5597072 40.7234136,8.5596055 40.7233221,8.5596977 40.7232656,8.5598008 40.7233601,8.5597072 40.7234136)),((8.5602678 40.7231485,8.5600854 40.7229818,8.5598118 40.723179,8.5597528 40.7231241,8.5594551 40.7233152,8.5596938 40.7235266,8.5599191 40.7233924,8.559962 40.7234371,8.559844 40.7235042,8.5598762 40.7235306,8.5600559 40.7234209,8.559954 40.7233111,8.5602678 40.7231485)))"},{"type":"relation","id":3935522,"tags":{"addr:city":"Cabras","addr:postcode":"09072","addr:street":"Via Tharros","building":"yes","charge":"5€","contact:fax":"+39 0783370019","contact:phone":"+39 0783290636","description":"Storia e archeologia del Sinis","email":"cooperativa@penisoladelsinis.it","facebook":"https://www.facebook.com/MuseoCivicoCabras","fee":"yes","instagram":"https://www.instagram.com/museocabras/","name":"Museo civico Giovanni Marongiu","opening_hours":"9:00-13:00; Jan-May,Sep-Dec 15:00-19:00; Jun-Aug 16:00-20:00; ","tourism":"museum","twitter":"https://twitter.com/MuseodiCabras","type":"multipolygon","website":"http://www.museocabras.it","website_1":"http://www.penisoladelsinis.it","wikidata":"Q3867670","wikipedia":"it:Museo archeologico comunale Giovanni Marongiu"},"relations":[],"meta":{},"wkt":"MULTIPOLYGON(((8.5251244 39.9248725,8.5249571 39.9247023,8.5251806 39.924573,8.5254058 39.9248022,8.5254317 39.9248285,8.5255866 39.924739,8.5256654 39.9248191,8.5255145 39.9249065,8.5255605 39.9249532,8.525477 39.9250013,8.5253305 39.9248525,8.5251621 39.9249499,8.5250999 39.9248866,8.5251244 39.9248725)),((8.5251279 39.924751,8.525198 39.924717,8.5252439 39.9247727,8.5251737 39.9248068,8.5251279 39.924751)))"},{"type":"relation","id":3947951,"tags":{"addr:city":"Borore","addr:country":"IT","addr:housenumber":"11","addr:postcode":"08016","addr:street":"Viale Beccarini","building":"public","contact:website":"http://www.museodelpanerituale.it/","name":"Museo del pane rituale","tourism":"museum","type":"multipolygon"},"relations":[],"meta":{},"wkt":"MULTIPOLYGON(((8.8026296 40.2142908,8.802765 40.2141866,8.8028077 40.2142057,8.8029061 40.2141295,8.8029503 40.2141576,8.8030327 40.2140866,8.8029169 40.2140082,8.8029468 40.213983,8.8028663 40.2139256,8.802768 40.2139973,8.8026679 40.2139331,8.802728 40.213895,8.8026118 40.2138077,8.8025026 40.2138952,8.80261 40.2139807,8.8026262 40.2139651,8.8026867 40.2140129,8.8025944 40.2140823,8.8025566 40.2140579,8.8024831 40.2141221,8.8025778 40.2141923,8.8025413 40.2142265,8.8026296 40.2142908)),((8.8026937 40.2140748,8.8027521 40.2141194,8.8026929 40.2141623,8.8026346 40.2141217,8.8026937 40.2140748)),((8.8028404 40.2141093,8.8027754 40.21407,8.8028316 40.2140223,8.8028968 40.2140641,8.8028404 40.2141093)))"},{"type":"node","id":299608181,"tags":{"amenity":"parking","name":"Barumini - Centro Giovanni Lilliu","tourism":"museum"},"relations":[],"meta":{},"wkt":"Point(8.9975913 39.7057508)"},{"type":"way","id":42573831,"tags":{"building":"yes","operator":"MiBAC","tourism":"museum","website":"https://www.facebook.com/cooltour.gallura?fref=ts","wikidata":"Q1872737","wikipedia":"de:Lu Brandali"},"relations":[],"meta":{},"wkt":"Polygon(9.1771429 41.2350438,9.1772273 41.2350493,9.177223 41.235087,9.1773131 41.2350929,9.1772979 41.2352243,9.1771987 41.2352179,9.177205 41.2351631,9.1770803 41.235155,9.1770725 41.2352228,9.1771414 41.2352273,9.1771301 41.2353248,9.1770576 41.2353201,9.177062 41.2352821,9.1769836 41.235277,9.176995 41.2351778,9.1769472 41.2351747,9.1769548 41.2351085,9.1771341 41.2351202,9.1771429 41.2350438)"},{"type":"way","id":60199292,"tags":{"building":"yes","name":"Museo Etnografico Galluras","tourism":"museum"},"relations":[],"meta":{},"wkt":"Polygon(9.1751598 40.9355059,9.1753657 40.935485,9.1753753 40.9355395,9.1752835 40.9355486,9.1751695 40.9355604,9.1751598 40.9355059)"},{"type":"way","id":126225223,"tags":{"name":"Museo Ambiente Semida","tourism":"museum"},"relations":[],"meta":{},"wkt":"Polygon(9.1640421 40.8096622,9.1640889 40.8095809,9.1643667 40.8096532,9.1647275 40.8096673,9.164785 40.8095445,9.1647671 40.8095404,9.1647816 40.8095046,9.1649212 40.8095502,9.1648539 40.8097043,9.1647185 40.8097618,9.1643546 40.8097477,9.1640421 40.8096622)"},{"type":"way","id":143030977,"tags":{"building":"yes","name":"Centro Giovanni Lilliu","tourism":"museum"},"relations":[],"meta":{},"wkt":"Polygon(8.9972917 39.7060662,8.997239 39.7060042,8.9972359 39.7059625,8.9972421 39.7059244,8.9972545 39.705897,8.9972328 39.7056407,8.9972173 39.7055919,8.9972297 39.7055549,8.9972514 39.7055239,8.9972979 39.7054929,8.9973428 39.7054858,8.9973769 39.7054858,8.997586 39.7054763,8.9975876 39.7055192,8.997507 39.7055621,8.9974838 39.7055954,8.9974435 39.7056658,8.9974358 39.7057242,8.9974544 39.7057945,8.9974854 39.7058219,8.9975597 39.7058517,8.9975922 39.7058922,8.9976403 39.7059089,8.9977348 39.705916,8.9977905 39.7059041,8.9978308 39.7058707,8.9978928 39.7058553,8.9979455 39.7058004,8.9979578 39.7057599,8.9980183 39.7057563,8.9980338 39.7058743,8.9979997 39.7058779,8.9980338 39.7059077,8.9980415 39.705947,8.9980307 39.7059899,8.9980028 39.7060281,8.9979625 39.7060495,8.9979191 39.7060543,8.9975365 39.7060781,8.9974745 39.7060984,8.9974451 39.7061032,8.9974017 39.7061055,8.9973661 39.7060984,8.9973227 39.7060841,8.9972917 39.7060662)"},{"type":"way","id":153529665,"tags":{"name":"Museo","tourism":"museum"},"relations":[],"meta":{},"wkt":"Polygon(8.5069616 39.7200638,8.5070654 39.7199786,8.5071922 39.72007,8.5070884 39.7201552,8.5069616 39.7200638)"},{"type":"way","id":153779968,"tags":{"name":"Casa Museo Sanna","tourism":"museum"},"relations":[],"meta":{},"wkt":"Polygon(8.5705938 39.5570027,8.5706103 39.5567827,8.5710485 39.5568023,8.571032 39.5570223,8.5705938 39.5570027)"},{"type":"way","id":153779971,"tags":{"name":"Museo minerario di Montevecchio","tourism":"museum"},"relations":[],"meta":{},"wkt":"Polygon(8.577428 39.5554832,8.5775033 39.5553726,8.5774773 39.5553626,8.5775281 39.555287,8.5777242 39.5553644,8.5778358 39.5554063,8.5778305 39.5554123,8.5779096 39.5554423,8.5778706 39.5554951,8.5777968 39.5554637,8.5777904 39.5554729,8.5776802 39.5554304,8.577595 39.5555476,8.577428 39.5554832)"},{"type":"way","id":158364704,"tags":{"name":"Casa Museo","tourism":"museum"},"relations":[],"meta":{},"wkt":"Polygon(8.720958 39.5951752,8.7209072 39.5950657,8.7208793 39.5950265,8.7209499 39.5949928,8.7209873 39.5949983,8.7210309 39.5950123,8.7211136 39.5951164,8.7211903 39.5952586,8.7209636 39.5953254,8.7209166 39.5952176,8.7209407 39.5951825,8.720958 39.5951752)"},{"type":"way","id":159746581,"tags":{"building":"yes","name":"Pozzo Gal","tourism":"museum","website":"http://www.miniereingurtosu.it/index.php/area-espositiva-pozzo-gal/57"},"relations":[],"meta":{},"wkt":"Polygon(8.5103758 39.5225994,8.5104298 39.5224784,8.5107407 39.5225609,8.5106867 39.522682,8.5103758 39.5225994)"},{"type":"way","id":159749574,"tags":{"building":"yes","name":"Monte Granatico","tourism":"museum"},"relations":[],"meta":{},"wkt":"Polygon(8.6009815 39.5270973,8.6009364 39.5270257,8.6009153 39.5269923,8.6011889 39.5268898,8.6012551 39.5269948,8.6009815 39.5270973)"},{"type":"way","id":161131241,"tags":{"name":"Museo Etnografico Sa Domu de Donna Nassia","tourism":"museum"},"relations":[],"meta":{},"wkt":"Polygon(9.6600455 39.9704843,9.6600663 39.9706138,9.6600178 39.9706222,9.6600205 39.9707024,9.6599641 39.9707086,9.6599588 39.9706613,9.6599087 39.9706672,9.6599114 39.9705562,9.659962 39.9705429,9.6599356 39.9704658,9.6599999 39.9704535,9.6599999 39.970474,9.6600455 39.9704843)"},{"type":"way","id":188868185,"tags":{"name":"Museo Archeologico","tourism":"museum"},"relations":[],"meta":{},"wkt":"Polygon(9.099681 40.7193106,9.0995395 40.7192158,9.0997643 40.7190445,9.099891 40.7190913,9.099681 40.7193106)"},{"type":"way","id":199260471,"tags":{"name":"Casa Montanaru","tourism":"museum"},"relations":[],"meta":{},"wkt":"Polygon(9.2251976 40.007796,9.2252265 40.0077424,9.2252352 40.0077282,9.2252485 40.0077317,9.2254068 40.0077816,9.2253718 40.0078486,9.2251976 40.007796)"},{"type":"way","id":199837241,"tags":{"name":"Museo dell'arte Sacra","tourism":"museum"},"relations":[],"meta":{},"wkt":"Polygon(9.1267733 39.651246,9.1267089 39.6512419,9.1267277 39.6512708,9.1266016 39.6512811,9.1265909 39.6512357,9.1264353 39.6512253,9.1264353 39.6510622,9.126776 39.6510952,9.1268035 39.6511571,9.1267733 39.6512319,9.1267733 39.651246)"},{"type":"way","id":199880121,"tags":{"name":"Is Lollasa de Is Aiaius","tourism":"museum"},"relations":[],"meta":{},"wkt":"Polygon(9.126455 39.6538294,9.1266105 39.6537303,9.1265757 39.6537055,9.1266293 39.6536601,9.1266508 39.6536766,9.1267473 39.6536023,9.1268332 39.6536622,9.1267286 39.653784,9.12664 39.6538274,9.126522 39.6538707,9.126455 39.6538294)"},{"type":"way","id":205692044,"tags":{"name":"Casa Ofelia","tourism":"museum"},"relations":[],"meta":{},"wkt":"Polygon(9.0897568 39.3011298,9.0896227 39.3012668,9.0895185 39.3013663,9.0893665 39.301288,9.0893116 39.3013451,9.0890155 39.3012467,9.0893169 39.3010862,9.0895059 39.3010458,9.0897139 39.3010322,9.0897568 39.3011298)"},{"type":"way","id":221999272,"tags":{"building":"yes","name":"Museo Ferroviario Sardo","tourism":"museum","wikidata":"Q3868122","wikipedia":"it:Museo delle Ferrovie dello Stato"},"relations":[],"meta":{},"wkt":"Polygon(9.1084444 39.2153611,9.1082098 39.2154999,9.1081342 39.2154266,9.1084179 39.2153357,9.1084444 39.2153611)"},{"type":"way","id":230339567,"tags":{"barrier":"fence","contact:website":"http://www.sardegnacultura.it/j/v/253?v=2&c=2488&t=1&s=21531","fence_type":"pole","historic":"archaeological_site","historic:civilization":"nuragic","megalith_type":"nuraghe","name":"Complesso nuragico di Seruci","note":"added megaltih_type=nuraghe until tag can be moved to the actual nuraghe (currently not well tagged).","ref:www.tharros.info":"2356","site_type":"fortification","tourism":"museum","wikidata":"Q2274063","wikipedia":"it:Complesso nuragico di Seruci","wikipedia:de":"Seruci","wikipedia:en":"Nuraghe","wikipedia:it":"Complesso_nuragico_di_Seruci"},"relations":[],"meta":{},"wkt":"Polygon(8.4251735 39.2490408,8.4251662 39.249404,8.4238903 39.2497663,8.4232484 39.2499292,8.4220812 39.2500398,8.421468 39.2499064,8.4213605 39.2500228,8.4202734 39.2499612,8.4199501 39.249581,8.4199526 39.2494925,8.4200808 39.2493372,8.4204362 39.2492516,8.4206963 39.2491669,8.4209005 39.2490558,8.4217974 39.2485325,8.4222689 39.2483537,8.4229252 39.2480055,8.424 39.2480713,8.424771 39.2481812,8.4248516 39.2482254,8.4251735 39.2490408)"},{"type":"way","id":234711605,"tags":{"name":"Museo di Olbia","tourism":"museum"},"relations":[],"meta":{},"wkt":"Polygon(9.5076396 40.9234479,9.507771 40.9234176,9.5083262 40.9232757,9.5083459 40.9232904,9.5083989 40.9232762,9.5084496 40.9233182,9.5084952 40.9233669,9.5085384 40.9234302,9.5085626 40.9234707,9.5085838 40.9235249,9.5085948 40.9235781,9.5085998 40.9236303,9.5085301 40.9236486,9.5084926 40.9236871,9.5084228 40.9237033,9.508415 40.9236835,9.5079913 40.9237869,9.5079913 40.9238031,9.5077123 40.923872,9.5076318 40.9238254,9.5075726 40.9237762,9.5075217 40.9237276,9.5074682 40.9236734,9.5074224 40.923604,9.5073931 40.9235335,9.5075406 40.9235032,9.5076396 40.9234479)"},{"type":"way","id":235008941,"tags":{"addr:city":"Nuoro","addr:housenumber":"8","addr:postcode":"08100","addr:street":"Piazza Santa Maria della Neve","name":"Museo Tribu Spazio per le Arti","operator":"Ellisso","tourism":"museum","website":"http://www.tribunuoro.it/"},"relations":[],"meta":{},"wkt":"Polygon(9.3368562 40.3209602,9.3368252 40.3207673,9.3371137 40.320729,9.337095 40.3206751,9.3372349 40.3206525,9.3372797 40.320736,9.3373001 40.3208272,9.337198 40.3208404,9.3371816 40.320785,9.337016 40.320804,9.3370352 40.3209395,9.3368562 40.3209602)"},{"type":"way","id":248435065,"tags":{"building":"public","name":"Casa Sanna","tourism":"museum"},"relations":[],"meta":{},"wkt":"Polygon(8.6696307 39.9538265,8.6697119 39.9537144,8.6699982 39.9538363,8.6699169 39.9539484,8.6696307 39.9538265)"},{"type":"way","id":251687975,"tags":{"addr:city":"Morgongiori","addr:housenumber":"16","addr:postcode":"09090","addr:street":"Via Chiesa","alt_name":"Museo del Tappeto","building":"yes","charge":"2.60€","contact:mobile":"+39 347 6930552","fee":"yes","name":"MuVAT - Museo Vivente dell'Arte Tessile","operator":"Comune di Morgongiori","phone":"+ 39 0783 932108","tourism":"museum"},"relations":[],"meta":{},"wkt":"Polygon(8.7719206 39.7458372,8.7719035 39.7457249,8.7721106 39.7457063,8.7721277 39.7458185,8.7719206 39.7458372)"},{"type":"way","id":265944411,"tags":{"addr:city":"Cagliari","addr:housenumber":"71","addr:street":"Via San Lucifero","name":"ExMà","tourism":"museum","wikidata":"Q3735781","wikipedia":"it:ExMà"},"relations":[],"meta":{},"wkt":"Polygon(9.1201811 39.2148543,9.1199597 39.2143244,9.1206957 39.2141301,9.1209172 39.2146676,9.1201811 39.2148543)"},{"type":"way","id":271124219,"tags":{"email":"ufficioturistico.tra@tiscali.it - ufficioturistico@comune.tratalias.ca.it","fax":"0781/697023 int 396","name":"Museo del Territorio Trataliese","opening_hours":"Mar-Apr; Tu-Su 9:00-13:00;15:00-17:00","operator":"Cooperativa S.T.A.Ge. di Tratalias","phone":"+39 0781 688046","tourism":"museum","website":"http://www.comune.tratalias.ca.it/"},"relations":[],"meta":{},"wkt":"Polygon(8.5718348 39.0975968,8.5717624 39.0975612,8.5717187 39.097495,8.5716445 39.0973958,8.5717125 39.0973382,8.5716789 39.0973084,8.5717788 39.0972223,8.5720028 39.0973053,8.5721295 39.0971825,8.5722199 39.0973944,8.5723464 39.0974333,8.5723085 39.0975075,8.5721791 39.0974692,8.5720859 39.0974467,8.5720497 39.0974685,8.5720143 39.0975388,8.572061 39.0975586,8.5720332 39.0976416,8.5718805 39.097607,8.5718348 39.0975968)"},{"type":"way","id":277186993,"tags":{"addr:housenumber":"18","addr:street":"Via Santa Croce","building":"yes","fee":"no","historic":"palace","name":"Ghetto degli Ebrei","note":"Displays about artichecture and city planning. Nothing about the ghetto.","opening_hours":"Tu-Su 10:00-21:00","phone":"+39 070 6670190","tourism":"museum","wheelchair":"no","wikidata":"Q3761649","wikipedia":"it:Ghetto degli ebrei"},"relations":[],"meta":{},"wkt":"Polygon(9.1149711 39.2203943,9.1149839 39.2204398,9.1150166 39.2204506,9.1149404 39.2205412,9.1146765 39.2204315,9.1146476 39.2204125,9.1146143 39.2204424,9.1145767 39.2204139,9.1146118 39.2203888,9.114571 39.2203619,9.1146303 39.2202806,9.1148374 39.2204033,9.1148509 39.2203884,9.1149109 39.2203772,9.1149584 39.2203956,9.1149711 39.2203943)"},{"type":"way","id":277187623,"tags":{"name":"Galleria Comunale d' Arte","tourism":"museum","wikidata":"Q3757711","wikipedia":"it:Galleria comunale d'arte di Cagliari"},"relations":[],"meta":{},"wkt":"Polygon(9.1158388 39.2261088,9.1157345 39.2260367,9.1157747 39.2260024,9.115711 39.2259574,9.1156788 39.225985,9.1156256 39.2259474,9.1156777 39.2259027,9.1156597 39.2258908,9.1156751 39.2258781,9.1156442 39.2258553,9.1157071 39.2258027,9.1161366 39.2261121,9.1161303 39.2261174,9.1161261 39.2261147,9.1161209 39.2261196,9.11613 39.2261261,9.1161243 39.2261311,9.1161224 39.2261298,9.1161067 39.2261445,9.1161047 39.2261433,9.1160992 39.2261482,9.1160924 39.2261434,9.1160721 39.2261605,9.1160515 39.2261461,9.1160257 39.2261684,9.1160001 39.2261511,9.11596 39.2261854,9.1159062 39.2261479,9.1159398 39.2261203,9.1158764 39.2260767,9.1158388 39.2261088)"},{"type":"way","id":277193202,"tags":{"building":"public","cost":"€ 5","fee":"yes","opening_hours":"Tu-Su 9:00-18:00","price":"€ 5","source":"Regione Autonoma della Sardegna (www.sardegnageoportale.it)","tourism":"museum","wikidata":"Q1151133","wikipedia":"it:Museo archeologico nazionale di Cagliari"},"relations":[],"meta":{},"wkt":"Polygon(9.1174978 39.222961,9.1173929 39.2229982,9.1173681 39.2230262,9.1174328 39.2231055,9.1174233 39.2231174,9.1174546 39.2231362,9.1174099 39.2231814,9.1173612 39.2231518,9.1173848 39.2231291,9.1169403 39.2228594,9.1165714 39.2230283,9.1165365 39.2229,9.1165633 39.2229081,9.1165733 39.2228903,9.1165846 39.222894,9.1165858 39.2228917,9.1165806 39.2228774,9.1165697 39.2228796,9.1165631 39.2228636,9.1165741 39.2228612,9.1166989 39.2228077,9.1167028 39.2227822,9.1166672 39.22278,9.1165614 39.222636,9.1165813 39.2225857,9.1165418 39.2225337,9.1165878 39.2224059,9.1165768 39.2223726,9.1166665 39.2223575,9.1166756 39.2223124,9.1167432 39.2223244,9.1168166 39.2223374,9.1169583 39.2223185,9.1169889 39.2223492,9.1170223 39.2223448,9.1170503 39.2223385,9.117062 39.2223364,9.1170981 39.2223706,9.1170914 39.2223944,9.1170518 39.2223986,9.1169736 39.222446,9.1169257 39.2223986,9.1169138 39.2224007,9.1169119 39.2223899,9.1167807 39.2224077,9.1167391 39.2225406,9.1168725 39.2227282,9.116898 39.2227161,9.1169909 39.2227358,9.1169858 39.2227512,9.117022 39.222759,9.1170541 39.2228034,9.1171154 39.2227765,9.1171555 39.2228327,9.117164 39.2228287,9.1172047 39.2228841,9.1172429 39.2228666,9.1172939 39.2229348,9.1173697 39.2229009,9.1172499 39.2227205,9.1172911 39.222703,9.1172784 39.2226815,9.1172724 39.2226548,9.1173242 39.2226328,9.1173631 39.2226852,9.1173726 39.2227674,9.1174978 39.222961)"},{"type":"way","id":282603985,"tags":{"building":"public","name":"Museo Due fonderie","tourism":"museum"},"relations":[],"meta":{},"wkt":"Polygon(8.786528 39.5467071,8.7865609 39.5467473,8.7861097 39.5469687,8.7860768 39.5469285,8.786528 39.5467071)"},{"type":"way","id":291637263,"tags":{"area":"yes","name":"museo geobotanico della Giara","tourism":"museum"},"relations":[],"meta":{},"wkt":"Polygon(8.9410447 39.7207466,8.9409106 39.7209983,8.9407979 39.7211758,8.9406799 39.7213449,8.9405994 39.7214893,8.9405726 39.7215966,8.9405565 39.7217122,8.940535 39.7217823,8.9404278 39.7217204,8.9403741 39.7216626,8.9403312 39.7215842,8.9402722 39.7214893,8.9401971 39.7213903,8.9401327 39.7212913,8.9400522 39.7211758,8.9399825 39.7210478,8.939902 39.7208952,8.940417 39.7208085,8.9409964 39.7207301,8.9410447 39.7207466)"},{"type":"way","id":293638649,"tags":{"addr:city":"Samugheo","addr:postcode":"09086","addr:street":"Via Bologna","alt_name":"Museo Unico Regionale dell'Arte Tessile Sarda","building":"yes","charge":"2.50€","email":"museomurats@gmail.com","facebook":"https://facebook.com/MURATS_Museo-Arte-Tessile-Sarda-1630904947165205/","fee":"yes","name":"MURATS - Museo Unico Regionale Arte Tessile Sarda","opening_hours":"Apr-Oct Tu 10:00-13:00,17:00-20:00; Apr-Oct We-Su 09:30-13:00,17:00-20:00; Nov-Mar Tu 10:00-13:00,16:00-19:00; Nov-Mar We-Su 09:30-13:00,16:00-19:00","operator":"Cooperativa “La Memoria Storica”","phone":"+39 0783 631052","tourism":"museum","website":"http://murats.it/","wheelchair":"yes","wikidata":"Q16337988","wikipedia":"it:Museo unico regionale dell'arte tessile sarda"},"relations":[],"meta":{},"wkt":"Polygon(8.9470456 39.9550205,8.9469805 39.9550842,8.9470811 39.9551625,8.9468675 39.9553538,8.9467383 39.9552862,8.946759 39.9552599,8.946642 39.9551905,8.9466945 39.9551258,8.9466254 39.9550818,8.946815 39.9548725,8.9470456 39.9550205)"},{"type":"way","id":293645576,"tags":{"building":"yes","name":"Museo del giocattolo Tradizionale della Sardegna","tourism":"museum","website":"http://www.museodelgiocattolosardegna.it"},"relations":[],"meta":{},"wkt":"Polygon(8.8311522 39.7749619,8.8311349 39.7750772,8.8308978 39.775056,8.830903 39.7750211,8.8308669 39.7750179,8.830879 39.7749376,8.8311522 39.7749619)"},{"type":"way","id":294093178,"tags":{"addr:city":"Boroneddu","addr:country":"IT","addr:housenumber":"1","addr:postcode":"09080","addr:street":"Via Savoia","area":"yes","barrier":"wall","name":"Museo della fiaba sarda","source":"http://www.sardegnacultura.it/j/v/253?s=22600&v=2&c=2487&c1=2125&t=1","tourism":"museum"},"relations":[],"meta":{},"wkt":"Polygon(8.8716652 40.1127614,8.8715723 40.112776,8.8715035 40.1127949,8.871447 40.1128153,8.8713742 40.1128551,8.8712252 40.1122715,8.871297 40.1122537,8.8714515 40.1122638,8.871561 40.1123065,8.8715823 40.1123178,8.8716069 40.1123308,8.8716996 40.1124077,8.8717136 40.1124367,8.8717466 40.112633,8.8717475 40.112661,8.8717431 40.1126988,8.8717342 40.1127276,8.8717196 40.1127528,8.8717092 40.1127625,8.8716906 40.1127644,8.8716652 40.1127614)"},{"type":"way","id":294093696,"tags":{"addr:city":"Busachi","addr:country":"IT","addr:housename":"Chiesa di San Domenico","addr:housenumber":"1","addr:postcode":"09082","addr:street":"Via Alcide De Gasperi","building":"yes","name":"Museo del costume tradizionale e della lavorazione del lino","tourism":"museum"},"relations":[],"meta":{},"wkt":"Polygon(8.8983055 40.0333105,8.8983583 40.0333102,8.8983586 40.0333445,8.8982467 40.0333451,8.8982463 40.0333037,8.8981833 40.033304,8.8981827 40.0332472,8.8981981 40.0332471,8.8981975 40.0331801,8.8985613 40.0331781,8.8985625 40.0333091,8.8984456 40.0333097,8.898358 40.0333102,8.8983575 40.0332622,8.898305 40.0332624,8.8983055 40.0333105)"},{"type":"way","id":294099028,"tags":{"building":"public","name":"Museo del Territorio","tourism":"museum"},"relations":[],"meta":{},"wkt":"Polygon(8.9294371 40.1705058,8.9295012 40.1706113,8.9293907 40.1706505,8.929359 40.1705983,8.9292701 40.1706298,8.9292555 40.1706057,8.9292189 40.1706187,8.9292122 40.1706075,8.929155 40.1706278,8.9291487 40.1706175,8.9290849 40.1706401,8.9290363 40.17056,8.9292208 40.1704946,8.9292365 40.1705203,8.9293003 40.1704977,8.9292658 40.1704409,8.929376 40.1704018,8.9294119 40.1704609,8.9295288 40.1704195,8.9295893 40.1705192,8.9294871 40.1705554,8.9294535 40.1705,8.9294371 40.1705058)"},{"type":"way","id":294099367,"tags":{"addr:housenumber":"57","addr:street":"Corso Umberto I","building":"yes","name":"Casa Gramsci","opening_hours":"Sa,Su 10:00-13:00,15:30-18:30","tourism":"museum","website":"http://www.casagramscighilarza.org"},"relations":[],"meta":{},"wkt":"Polygon(8.8376594 40.1230656,8.8375609 40.1231263,8.837505 40.1230671,8.8376041 40.1230142,8.8376594 40.1230656)"},{"type":"way","id":294225867,"tags":{"addr:city":"Pau","addr:housenumber":"8","addr:postcode":"09090","addr:street":"Via San Giorgio","building":"yes","charge":"4€","email":"info@museossidiana.it","facebook":"https://www.facebook.com/MuseoDellOssidiana/","fax":"+39 0783 934011","fee":"yes","name":"Museo dell'Ossidiana","opening_hours":"Oct 01-Mar 31 We-Su 10:00-12:00,15:00-18:00; Apr 01-Sep 30 We-Su 10:00-12:00,16:00-19:00","operator":"Associazione Culturale Menabò","phone":"+39 0783 934011","tourism":"museum","website":"http://www.museossidiana.it/"},"relations":[],"meta":{},"wkt":"Polygon(8.8027597 39.7928008,8.8028198 39.7927364,8.8029296 39.7926513,8.8032434 39.7928515,8.8031042 39.7929933,8.802745 39.7928216,8.8027597 39.7928008)"},{"type":"way","id":294446738,"tags":{"building":"yes","name":"Museo Su Mulinu","tourism":"museum"},"relations":[],"meta":{},"wkt":"Polygon(9.0015126 39.6458917,9.0014955 39.6458611,9.0014408 39.6458794,9.0013847 39.64578,9.0015889 39.645711,9.0016474 39.6458146,9.0016098 39.6458272,9.0016248 39.645854,9.0015126 39.6458917)"},{"type":"way","id":295643303,"tags":{"building":"yes","email":"info@comune.muravera.ca.it","name":"Casa dei Candelai","phone":"+39 070 99000313","tourism":"museum","website":"http://www.visitmuravera.it/museo-la-casa-dei-candelai/"},"relations":[],"meta":{},"wkt":"Polygon(9.5768107 39.4187036,9.5767482 39.4187051,9.5766947 39.4186781,9.5766874 39.4186059,9.5767814 39.4185949,9.5768088 39.4186718,9.5768107 39.4187036)"},{"type":"way","id":296547906,"tags":{"addr:city":"Atzara","addr:housenumber":"1","addr:postcode":"08030","addr:street":"Piazza Ortiz Echagüe","building":"yes","charge":"2€","contact:mobile":"+39 347 798 3242","email":"museoatzara@tiscali.it","facebook":"https://www.facebook.com/museoantoniortizechagueatzara/","fee":"yes","name":"Museo d'arte Moderna e contemporanea Antonio Ortiz Echagüe","opening_hours":"Jun-Aug Tu-Su 10:00-13:00,15:00-19:00; Sep-May Tu-Su 10:00-13:00,16:00-19:00","operator":"Società Cooperativa \"Progetto Cultura\"","phone":"+39 0784 65508","tourism":"museum","website":"http://web.tiscali.it/balero/","website_1":"http://www.sardegnacultura.it/j/v/253?s=19007&v=2&c=2487&c1=2124&visb=&t=1","wikidata":"Q3867867","wikipedia":"it:Museo d'arte moderna e contemporanea di Atzara"},"relations":[],"meta":{},"wkt":"Polygon(9.0752931 39.9916088,9.0751985 39.9916115,9.0751988 39.9916176,9.0751517 39.9916189,9.075151 39.9916029,9.0748778 39.9916012,9.0748801 39.9915069,9.0749313 39.9915076,9.0749317 39.9914868,9.0749452 39.9914873,9.0749456 39.9914796,9.0750226 39.9914822,9.0751401 39.9915016,9.0751352 39.9915349,9.0751485 39.9915381,9.0751495 39.9915713,9.0751383 39.9915756,9.0751444 39.9915898,9.0751968 39.9915898,9.0751955 39.9915718,9.0752913 39.9915704,9.0752931 39.9916088)"},{"type":"way","id":296579468,"tags":{"building":"yes","name":"Museo Archeologico","tourism":"museum","website":"https://sites.google.com/site/museoteti1/"},"relations":[],"meta":{},"wkt":"Polygon(9.1209665 40.097166,9.1209275 40.0971461,9.120916 40.0971576,9.1208194 40.0971023,9.1208318 40.0970803,9.1207872 40.097059,9.1208589 40.0969778,9.120928 40.0970035,9.1209139 40.0970237,9.1210468 40.0970917,9.1209665 40.097166)"},{"type":"way","id":296806937,"tags":{"building":"yes","name":"Museo Etnografico","tourism":"museum"},"relations":[],"meta":{},"wkt":"Polygon(8.9593285 40.3270632,8.959078 40.3271258,8.9589847 40.3270435,8.9591336 40.3269446,8.9590838 40.3269007,8.9591746 40.3268403,8.9592178 40.3268784,8.9592554 40.3268533,8.9593003 40.3268927,8.9591273 40.3270148,8.9591013 40.327048,8.9591249 40.3270729,8.9591882 40.3270377,8.9591819 40.3270002,8.9593155 40.3269871,8.9593285 40.3270632)"},{"type":"way","id":298053088,"tags":{"addr:city":"Tertenia","addr:housenumber":"12","addr:postcode":"08047","addr:street":"Via A. Doria","building":"yes","contact:mobile":"+39 329 1333110","elevation":"129.181885","email":"museoalbinomanca@gmail.com","facebook":"https://www.facebook.com/profile.php?id=100004130054731","name":"Museo Civico Albino Manca","name:en":"Albino Manca Civic Museum","name:it":"Museo Civico Albino Manca","name:sc":"Museu Tzìvicu Albino Manca","operator":"Comune di Tertenia","phone":"+39 0782 908015","source":"http://www.sardegnacultura.it/j/v/253?s=34798&v=2&c=2487&c1=2129&visb=&t=1","tourism":"museum","website":"http://www.museoalbinomanca.it"},"relations":[],"meta":{},"wkt":"Polygon(9.5764189 39.6990529,9.576416 39.6991096,9.576224 39.6991036,9.5762268 39.6990469,9.5764189 39.6990529)"},{"type":"way","id":305622658,"tags":{"building":"public","name":"Museo Etnografico","tourism":"museum"},"relations":[],"meta":{},"wkt":"Polygon(8.8218408 40.1247966,8.8218966 40.1247942,8.8219127 40.1248913,8.8218023 40.124904,8.8217567 40.1248965,8.8217483 40.1248001,8.8218408 40.1247966)"},{"type":"way","id":321312230,"tags":{"addr:city":"Oristano","addr:postcode":"09170","addr:street":"Piazza Giuseppe Corrias","alt_name":"Palazzo Parpaglia","alt_name_1":"Museo archeologico Giuseppe Pau","building":"public","charge":"5€","email":"info@antiquariumarborense.it","facebook":"https://www.facebook.com/MuseoArcheologicoAntiquariumArborense","fee":"yes","name":"Antiquarium Arborense","opening_hours":"Mo-Fr 09:00-20:00; Sa-Su 09:00-14:00,15:00-20:00","phone":"+39 0783 791262","tourism":"museum","twitter":"https://twitter.com/AntiquariumArbo","website":"http://www.antiquariumarborense.it/","wikidata":"Q3618772","wikipedia":"it:Antiquarium arborense"},"relations":[],"meta":{},"wkt":"Polygon(8.5926868 39.9046003,8.5926095 39.9045055,8.5925478 39.9044297,8.5927435 39.9043359,8.5928009 39.9044063,8.5928419 39.9044566,8.5928825 39.9045065,8.5926868 39.9046003)"},{"type":"way","id":322927403,"tags":{"building":"public","name":"Museo dell'Ardia","tourism":"museum"},"relations":[],"meta":{},"wkt":"Polygon(8.9193868 40.1743466,8.9192517 40.1743572,8.9192388 40.17424,8.9192482 40.1742393,8.919366 40.1742305,8.9193868 40.1743466)"},{"type":"way","id":330831716,"tags":{"area":"yes","lit":"yes","name":"Passeggiata Coperta Bastione di Saint Remy","surface":"paved","tourism":"museum","tunnel":"yes"},"relations":[],"meta":{},"wkt":"Polygon(9.1164994 39.2159966,9.1165356 39.2159561,9.1165544 39.2159665,9.1165732 39.2159509,9.1166798 39.2159867,9.1166838 39.2159789,9.1167253 39.2159834,9.1167447 39.2159978,9.1167571 39.2160359,9.1167488 39.2160418,9.1169926 39.216656,9.117005 39.2166608,9.1170151 39.2166933,9.1170079 39.2167063,9.1170046 39.2167123,9.1167185 39.2167718,9.1166947 39.2167181,9.1166609 39.2166137,9.1166105 39.216498,9.1165108 39.2161254,9.116522 39.2161162,9.1165343 39.2160989,9.1165369 39.2160761,9.1165369 39.2160501,9.1165229 39.2160236,9.1164994 39.2159966)"},{"type":"way","id":342751917,"tags":{"addr:city":"Seui","addr:housenumber":"241","addr:postcode":"08037","addr:street":"Via Roma","building":"yes","email":"eremigu@tiscali.it","facebook":"https://www.facebook.com/Musei-di-Seui-122855714408868","fee":"yes","name":"Palazzina Liberty","opening_hours":"Apr-Sep Tu-Su 09:00-13:00,15:30-19:30; Oct-Mar Tu-Su 09:00-13:00,15:00-17:30; ","operator":"Percorso museale Sehuiense - Società cooperativa S'eremigu a r.l.","phone":"+39 0782 539002","tourism":"museum","website":"http://museiseui.altervista.org"},"relations":[],"meta":{},"wkt":"Polygon(9.3226215 39.8398648,9.3226091 39.839774,9.3227488 39.8397628,9.3227612 39.8398536,9.3226215 39.8398648)"},{"type":"way","id":342751918,"tags":{"addr:city":"Seui","addr:postcode":"08037","addr:street":"Via Roma","building":"yes","email":"eremigu@tiscali.it","facebook":"https://www.facebook.com/Musei-di-Seui-122855714408868","fee":"yes","name":"Casa Farci","opening_hours":"Apr-Sep Tu-Su 09:00-13:00,15:30-19:30; Oct-Mar Tu-Su 09:00-13:00,15:00-17:30; ","operator":"Percorso museale Sehuiense - Società cooperativa S'eremigu a r.l.","phone":"+39 0782 539002","tourism":"museum","website":"http://museiseui.altervista.org","wheelchair":"yes"},"relations":[],"meta":{},"wkt":"Polygon(9.3223343 39.8396956,9.3223712 39.8396482,9.3224231 39.8396124,9.3225268 39.8396033,9.3225361 39.839718,9.3224729 39.8397228,9.3224128 39.8397239,9.3223805 39.8397228,9.3223527 39.8397133,9.3223343 39.8396956)"},{"type":"way","id":342751919,"tags":{"addr:city":"Seui","addr:postcode":"08037","addr:street":"Via Sassari","building":"yes","email":"eremigu@tiscali.it","facebook":"https://www.facebook.com/Musei-di-Seui-122855714408868","fee":"yes","name":"Carcere Spagnolo","opening_hours":"Apr-Sep Tu-Su 09:00-13:00,15:30-19:30; Oct-Mar Tu-Su 09:00-13:00,15:00-17:30; ","operator":"Percorso museale Sehuiense - Società cooperativa S'eremigu a r.l.","phone":"+39 0782 539002","tourism":"museum","website":"http://museiseui.altervista.org","wheelchair":"yes"},"relations":[],"meta":{},"wkt":"Polygon(9.3202888 39.8401964,9.3203997 39.8403195,9.3204182 39.8404105,9.3203396 39.8404141,9.3203443 39.8404508,9.3202595 39.8404626,9.3201887 39.8404531,9.3201902 39.8404224,9.3201978 39.8403983,9.3202164 39.8403396,9.3202269 39.8403189,9.3202576 39.8402581,9.3202888 39.8401964)"},{"type":"way","id":354317797,"tags":{"addr:city":"Seui","addr:postcode":"08037","alt_name":"Casa Caredda-Aresu-Loy","building":"yes","email":"eremigu@tiscali.it","facebook":"https://www.facebook.com/Musei-di-Seui-122855714408868","name":"Domu de sa Maja","opening_hours":"Apr-Sep Tu-Su 09:00-13:00,15:30-19:30; Oct-Mar Tu-Su 09:00-13:00,15:00-17:30; ","operator":"Percorso museale Sehuiense - Società cooperativa S'eremigu a r.l.","phone":"+39 0782 539002","tourism":"museum","website":"http://museiseui.altervista.org"},"relations":[],"meta":{},"wkt":"Polygon(9.3216954 39.839694,9.3216254 39.8396259,9.3216195 39.8396097,9.3216633 39.8395833,9.3216779 39.8395712,9.3217322 39.8395627,9.3217614 39.839556,9.3218104 39.8395492,9.3218332 39.8395564,9.3218904 39.8395407,9.3219061 39.8396026,9.3218799 39.8396174,9.3218997 39.8396375,9.3218781 39.8396505,9.3218402 39.8396788,9.3217725 39.8396407,9.3216954 39.839694)"},{"type":"way","id":362090356,"tags":{"name":"Museo all'aperto di Pinuccio Sciola","tourism":"museum"},"relations":[],"meta":{},"wkt":"Polygon(8.9987179 39.3567,8.998836 39.3568327,8.9971452 39.3576163,8.9970658 39.3569769,8.9979537 39.356543,8.9982453 39.3568541,8.9987179 39.3567)"},{"type":"way","id":375714222,"tags":{"building":"yes","tourism":"museum"},"relations":[],"meta":{},"wkt":"Polygon(9.1954416 39.2649932,9.1953316 39.2649122,9.1955515 39.2647191,9.195573 39.264744,9.1955998 39.2646734,9.1956803 39.2647087,9.1956347 39.2647773,9.1956535 39.2647959,9.1954416 39.2649932)"},{"type":"way","id":380271999,"tags":{"building":"yes","name":"Museo delle ferrovie della Sardegna","tourism":"museum","wikidata":"Q3868142","wikipedia":"it:Museo delle ferrovie della Sardegna"},"relations":[],"meta":{},"wkt":"Polygon(9.1429881 39.2644556,9.1428447 39.264225,9.1431333 39.2641174,9.1431606 39.2639821,9.1433423 39.2640041,9.1433193 39.2641179,9.1433936 39.2641269,9.1433305 39.2642521,9.1432955 39.2642487,9.1432815 39.264334,9.143104 39.2643165,9.1431524 39.2643944,9.1429881 39.2644556)"},{"type":"way","id":426019885,"tags":{"building":"yes","name":"Casa Museo di Fra Nicola","tourism":"museum"},"relations":[],"meta":{},"wkt":"Polygon(9.0212278 39.7339526,9.0212392 39.7339019,9.0212503 39.7338344,9.0212107 39.7338204,9.0212116 39.7337356,9.0212614 39.7337241,9.0213913 39.7337023,9.0214076 39.7337449,9.0214695 39.7337312,9.0215278 39.7338287,9.0215907 39.7339318,9.02155 39.7339617,9.0215075 39.7339823,9.0214862 39.7339553,9.0213067 39.7340186,9.0212346 39.7340243,9.0212278 39.7339526)"},{"type":"way","id":438804258,"tags":{"addr:city":"Nuoro","addr:housenumber":"42","addr:postcode":"08100","addr:street":"Via Grazia Deledda","building":"yes","charge":"3€","fax":"+39 0784 37484","fee":"yes","name":"Casa Museo di Grazia Deledda","opening_hours":"Oct 01-Mar 15 Tu-Su 10:00-13:00,15:00-19:00; Mar 16-Sep 30 Tu-Su 10:00-13:00,15:00-20:00; ","operator":"ISRE - Istituto Superiore Etnografico della Sardegna","phone":"+39 0784 242900","phone_1":"+39 0784 258088","tourism":"museum","website":"http://www.isresardegna.it"},"relations":[],"meta":{},"wkt":"Polygon(9.3368609 40.3238098,9.3368028 40.3236886,9.33685 40.3236764,9.3369153 40.3237925,9.3368609 40.3238098)"},{"type":"way","id":465428361,"tags":{"building":"yes","name":"Museo naturalistico","tourism":"museum"},"relations":[],"meta":{},"wkt":"Polygon(9.0019601 40.1026144,9.0023966 40.1026165,9.0023958 40.1027105,9.0019593 40.1027084,9.0019601 40.1026144)"},{"type":"node","id":3708371943,"tags":{"name":"Museo Archeologico Genna Maria","tourism":"museum","website":"http://www.gennamaria.it/"},"relations":[],"meta":{},"wkt":"Point(8.8683821 39.6327749)"},{"type":"node","id":3741499312,"tags":{"name":"Collezione Mineralogica “Paolo Locci”","tourism":"museum"},"relations":[],"meta":{},"wkt":"Point(8.9943575 39.7060113)"},{"type":"node","id":3771666325,"tags":{"addr:city":"Calangianus","addr:housenumber":"3","addr:street":"Via S.Francesco","name":"museo del sughero","name:fr":"musée du liège","old_name":"convento dei frati cappuccini","phone":"+39 346 369 3859","start_date":"2011","tourism":"museum","website":"http://www.museodelsughero.com","wikidata":"Q21051968","wikipedia":"fr:Musée du liège de Calangianus","wikipedia:fr":"Musée du liège de Calangianus"},"relations":[],"meta":{},"wkt":"Point(9.1912549 40.9223341)"},{"type":"node","id":3803609287,"tags":{"name":"Casa Museo","tourism":"museum"},"relations":[],"meta":{},"wkt":"Point(8.8743286 39.7133972)"},{"type":"node","id":3817193944,"tags":{"tourism":"museum"},"relations":[],"meta":{},"wkt":"Point(9.5192645 39.8789856)"},{"type":"node","id":3818550014,"tags":{"name":"Museo sardo di Antropologia ed Etnografia","tourism":"museum"},"relations":[],"meta":{},"wkt":"Point(9.1238237 39.2707095)"},{"type":"node","id":3955419304,"tags":{"addr:city":"Perfugas","addr:housenumber":"1","addr:postcode":"07034","addr:street":"Via Nazario Sauro","charge":"3 €","contact:mobile":"+39 349 7777103","email":"info@sarundine.com","email_1":"comunediperfugas@tiscali.it","facebook":"https://www.facebook.com/Museo-Archeologico-Paleobotanico-Perfugas-559185217546410/","fee":"yes","name":"MAP - Museo Archeologico e Paleobotanico di Perfugas","name:sc":"MAP - Museu archeològicu e paleobotànicu de Pèifugas","opening_hours":"Oct-May Tu-Su 09:00-13:00,15:00-19:00; Jun-Sep Tu-Su 09:00-13:00,16:00-20:00","operator":"Sa Rundine s.n.c.","phone":"+39 079 564241","tourism":"museum","website":"http://www.sarundine.com/"},"relations":[],"meta":{},"wkt":"Point(8.8877998 40.8349481)"},{"type":"node","id":3983086257,"tags":{"addr:city":"Seui","addr:housenumber":"38","addr:postcode":"08037","addr:street":"Via della Sapienza","email":"eremigu@tiscali.it","facebook":"https://www.facebook.com/Musei-di-Seui-122855714408868","fee":"yes","layer":"1","name":"Galleria Civica","opening_hours":"Apr-Sep Tu-Su 09:00-13:00,15:30-19:30; Oct-Mar Tu-Su 09:00-13:00,15:00-17:30; ","operator":"Percorso museale Sehuiense - Società cooperativa S'eremigu a r.l.","phone":"+39 0782 539002","tourism":"museum","website":"http://museiseui.altervista.org","wheelchair":"yes"},"relations":[],"meta":{},"wkt":"Point(9.3241201 39.8396926)"},{"type":"node","id":4366976717,"tags":{"addr:city":"Cagliari","addr:housenumber":"1","addr:postcode":"09124","addr:street":"Piazza Arsenale","fee":"no","name":"Museo Etnografico Regionale - Collezione Cocco","opening_hours":"Tu-Su 09:00-20:00","operator":"ISRE - Istituto Superiore Etnografico della Sardegna","phone":"+39 346 9724935","phone_1":"+39 0784 242900","tourism":"museum","website":"http://www.isresardegna.it","wikidata":"Q17636861","wikipedia":"it:Museo sardo di antropologia ed etnografia"},"relations":[],"meta":{},"wkt":"Point(9.1166402 39.2229168)"},{"type":"node","id":4377492376,"tags":{"addr:city":"Mamoiada","addr:housenumber":"15","addr:postcode":"08024","addr:street":"Piazza Europa","charge":"4€","email":"info@museomater.com","facebook":"https://www.facebook.com/museodellemaschere/","fax":"+39 0784 56719","fee":"yes","name":"MATER - Museo dell'Archeologia e del Territorio","name:en":"MATER - Museum of Archeology and Territory","name:it":"MATER - Museo dell'Archeologia e del Territorio","name:sc":"MATER - Museu de s'Archeologia e de su Territòriu","opening_hours":"Tu-Su 10:00-13:00,15:00-18:00","operator":"Società Cooperativa Viseras","phone":"+39 0784 569018","tourism":"museum","website":"http://www.museomater.com/"},"relations":[],"meta":{},"wkt":"Point(9.2836276 40.2129063)"},{"type":"node","id":4388341836,"tags":{"addr:city":"Orani","addr:housenumber":"2","addr:postcode":"08026","addr:street":"Via Gonare","charge":"5€","email":"info@museonivola.it","fee":"yes","name":"Museo Nivola","name:en":"Nivola Museum","name:it":"Museo Nivola","name:sc":"Museu Nivola","opening_hours":"Oct 01-May 31 Tu-Su 10:00-13:00,15:00-19:00; Aug 01-Sep 30 10:00-13:00,15:00-19:00; Aug 01-Sep 30 We off","phone":"+39 0784 730063","tourism":"museum","website":"http://www.museonivola.it/","wikidata":"Q3867630","wikipedia":"it:Museo Nivola"},"relations":[],"meta":{},"wkt":"Point(9.1803193 40.2470685)"},{"type":"node","id":4396897421,"tags":{"addr:city":"Orani","addr:housenumber":"7","addr:postcode":"08026","addr:street":"Piazza Italia","email":"info@comune.orani.nu.it","fee":"no","name":"Collezione Xilografica Mario Delitala","opening_hours":"Mo-Sa 07:30-14:00; Tu 07:30-14:00,15:00-18:00","operator":"Comune di Orani","phone":"+39 0784 74123","phone_1":"+39 0784 74462","tourism":"museum","website":"http://www.comune.orani.nu.it/"},"relations":[],"meta":{},"wkt":"Point(9.1774366 40.2501277)"},{"type":"node","id":4449216135,"tags":{"contact:website":"http://pacs.unica.it/cere/","name":"Museo delle cere anatomiche Clemente Susini","opening_hours":"Tu-Su 09:00-13:00,16:00-19:00","tourism":"museum","wikidata":"Q3868140","wikipedia:it":"Museo delle cere anatomiche Clemente Susini"},"relations":[],"meta":{},"wkt":"Point(9.1170913 39.2220506)"},{"type":"node","id":4449256155,"tags":{"name":"Museo Diocesano","tourism":"museum"},"relations":[],"meta":{},"wkt":"Point(9.1168725 39.2184081)"},{"type":"node","id":4475788152,"tags":{"name":"CIMA - Civico Museo Allai","tourism":"museum"},"relations":[],"meta":{},"wkt":"Point(8.8640525 39.9567571)"},{"type":"node","id":4475926618,"tags":{"name":"Museo Labenur","tourism":"museum"},"relations":[],"meta":{},"wkt":"Point(9.372536 41.081667)"},{"type":"node","id":4493008378,"tags":{"addr:city":"Castelsardo","addr:housenumber":"1","addr:postcode":"07031","addr:street":"Via Guglielmo Marconi","charge":"3€","contact:mobile":"+39 347 1118547","email":"direzione.museointreccio@gmail.com","fee":"yes","name":"MIM - Museo dell'Intreccio Mediterraneo","opening_hours":"Jan 01-Mar 30,Nov 02-Dec 31 10:30-16:30; Mar 20-May 01,Oct 01-Nov 01 09:00-19:00; May 01-Jun 30,Sep 01-30 09:30-21:30; Jul-Aug 00:00-24:00; Dec 25 13:00-16:30","phone":"+39 079 470220","tourism":"museum","website":"http://www.mimcastelsardo.it"},"relations":[],"meta":{},"wkt":"Point(8.7127327 40.9155912)"},{"type":"node","id":4497986746,"tags":{"addr:city":"Villasimius","addr:housenumber":"5","addr:postcode":"09049","addr:street":"Via Aventino Frau","name":"Museo Archeologico di Villasimius","source":"Regione Autonoma della Sardegna","tourism":"museum","website":"http://www.villasimiusweb.com"},"relations":[],"meta":{},"wkt":"Point(9.518449 39.1437612)"},{"type":"node","id":4532861096,"tags":{"addr:city":"Orgòsolo/Orgosolo","addr:housenumber":"45","addr:postcode":"08027","addr:street":"Via Rinascita","fee":"no","name":"Collezione in Collaborazione","opening_hours":"Mo-Su 09:00-12:00,16:00-19:00","operator":"Polizia di Stato","tourism":"museum"},"relations":[],"meta":{},"wkt":"Point(9.3544062 40.2055169)"},{"type":"node","id":4580861689,"tags":{"name":"Centro Anziani","name:en":"Museum and Cultural Centre","name:it":"Centro Anziani","tourism":"museum"},"relations":[],"meta":{},"wkt":"Point(9.3519825 40.87483)"},{"type":"node","id":4592425127,"tags":{"contact:facebook":"https://www.facebook.com/PINACOTECA-NAZIONALE-CAGLIARI-128812843828111/","contact:twitter":"@PinacotecaCA","contact:website":"http://www.pinacoteca.cagliari.beniculturali.it/","name":"Pinacoteca Nazionale","opening_hours":"Tu-Su 09:00-20:00","tourism":"museum","wikidata":"Q3905131","wikipedia":"it:Pinacoteca nazionale (Cagliari)"},"relations":[],"meta":{},"wkt":"Point(9.1169403 39.2228594)"},{"type":"node","id":4592425128,"tags":{"name":"Museo civico d'arte siamese Stefano Cardu","tourism":"museum","wikidata":"Q3867803","wikipedia":"it:Museo civico d'arte siamese Stefano Cardu"},"relations":[],"meta":{},"wkt":"Point(9.1173504 39.2228063)"},{"type":"node","id":4592619941,"tags":{"name":"Museo dell'Olio","opening_hours":"Tu-Su 10:00-13:00,15:00-19:00","tourism":"museum"},"relations":[],"meta":{},"wkt":"Point(8.958509 39.7155148)"},{"type":"node","id":4592619942,"tags":{"name":"Museo degli Strumenti Musicali Sardi","opening_hours":"Tu-Su 10:00-13:00,15:00-19:00","tourism":"museum"},"relations":[],"meta":{},"wkt":"Point(8.9585506 39.7156843)"},{"type":"node","id":4614528251,"tags":{"addr:city":"Cagliari","addr:housenumber":"1","addr:postcode":"09124","addr:street":"Piazza Arsenale","name":"Museo Archeologico Nazionale di Cagliari","name:ru":"Национальный археологический музей Кальяри","opening_hours":"9.00-20.00","tourism":"museum"},"relations":[],"meta":{},"wkt":"Point(9.1166362 39.2223831)"},{"type":"node","id":4692633546,"tags":{"addr:city":"Milis","addr:postcode":"09070","addr:street":"Piazza Martiri d'Italia","alt_name":"Palazzo Boyl","fee":"no","name":"Museo del gioiello e del costume sardo","opening_hours":"\"reservation by phone\"","phone":"+39 0783 51665","tourism":"museum"},"relations":[],"meta":{},"wkt":"Point(8.6366054 40.048711)"}]